"","Store_Name","Name","Address","City","State","Zip","Manager","Telephone","Monday_Open","Monday_Close","Tuesday_Open","Tuesday_Close","Wednesday_Open","Wednesday_Close","Thursday_Open","Thursday_Close","Friday_Open","Friday_Close","Saturday_Open","Saturday_Close","Sunday_Open","Sunday_Close","Image_URL","URL"
"1","Dillards","Dillards Auburn Mall in Auburn, Alabama","1627 Opelika Rd Suite 16","Auburn","AL","03683","Terry W. Easley","(334) 821-3900","10:00 AM","09:00 PM","10:00 AM","09:00 PM","10:00 AM","09:00 PM","10:00 AM","09:00 PM","10:00 AM","09:00 PM","10:00 AM","09:00 PM","12:00 PM","06:00 PM","https://www.dillards.com/assets/img/stores/str0417.jpg","https://www.dillards.com/stores/auburn-mall-auburn-alabama/0417"
"2","Dillards","Dillards Galleria in Ft. Lauderdale, Florida","2500 East Sunrise Blvd.","Ft. Lauderdale","FL","03330","Shannon L. Lewis","(954) 565-5245","10:00 AM","09:00 PM","10:00 AM","09:00 PM","10:00 AM","09:00 PM","10:00 AM","09:00 PM","10:00 AM","09:00 PM","10:00 AM","09:00 PM","12:00 PM","06:00 PM","https://www.dillards.com/assets/img/stores/str0251.jpg","https://www.dillards.com/stores/galleria-ft.-lauderdale-florida/0251"
"3","Dillards","Dillards Countryside Mall in Clearwater, Florida","27001 Us Highway 19 N","Clearwater","FL","03376","Mary E. White","(727) 796-2242","10:00 AM","09:00 PM","10:00 AM","09:00 PM","10:00 AM","09:00 PM","10:00 AM","09:00 PM","10:00 AM","09:00 PM","10:00 AM","09:00 PM","12:00 PM","06:00 PM","https://www.dillards.com/assets/img/stores/str0206.jpg","https://www.dillards.com/stores/countryside-mall-clearwater-florida/0206"
"4","Dillards","Dillards Coconut Point in Estero, Florida","8017 Via Sardinia Way","Estero","FL","03392","Douglas D. Grauer","(239) 947-4133","10:00 AM","09:00 PM","10:00 AM","09:00 PM","10:00 AM","09:00 PM","10:00 AM","09:00 PM","10:00 AM","09:00 PM","10:00 AM","09:00 PM","12:00 PM","06:00 PM","https://www.dillards.com/assets/img/stores/str0218.jpg","https://www.dillards.com/stores/coconut-point-estero-florida/0218"
"5","Dillards","Dillards Volusia Mall in Daytona Beach, Florida","1700 W International Speedway","Daytona Beach","FL","03211","Dewey C. Stalvey","(386) 255-8161","10:00 AM","09:00 PM","10:00 AM","09:00 PM","10:00 AM","09:00 PM","10:00 AM","09:00 PM","10:00 AM","09:00 PM","10:00 AM","09:00 PM","12:00 PM","06:00 PM","https://www.dillards.com/assets/img/stores/str0235.jpg","https://www.dillards.com/stores/volusia-mall-daytona-beach-florida/0235"
"6","Dillards","Dillards Brandon Town Center in Brandon, Florida","303 Brandon Town Center Mall","Brandon","FL","03351","Tracy L. Silvia","(813) 653-4436","10:00 AM","09:00 PM","10:00 AM","09:00 PM","10:00 AM","09:00 PM","10:00 AM","09:00 PM","10:00 AM","09:00 PM","10:00 AM","09:00 PM","12:00 PM","06:00 PM","https://www.dillards.com/assets/img/stores/str0204.jpg","https://www.dillards.com/stores/brandon-town-center-brandon-florida/0204"
"7","Dillards","Dillards Boynton Beach in Boynton Beach, Florida","801 N Congress Av","Boynton Beach","FL","03342","Rolman P. Bermudez","(561) 732-4285","Closed","Closed","12:00 PM","07:00 PM","12:00 PM","07:00 PM","12:00 PM","07:00 PM","12:00 PM","07:00 PM","12:00 PM","07:00 PM","12:00 PM","06:00 PM","https://www.dillards.com/assets/img/stores/str0513.jpg","https://www.dillards.com/stores/boynton-beach-boynton-beach-florida/0513"
"8","Dillards","Dillards Altamonte Mall in Altamonte Springs, Florida","451 E Altamonte Dr Ste #1101","Altamonte Springs","FL","03270","Nancy H. Nguyen","(407) 830-1211","10:00 AM","09:00 PM","10:00 AM","09:00 PM","10:00 AM","09:00 PM","10:00 AM","09:00 PM","10:00 AM","09:00 PM","10:00 AM","09:00 PM","12:00 PM","06:00 PM","https://www.dillards.com/assets/img/stores/str0226.jpg","https://www.dillards.com/stores/altamonte-mall-altamonte-springs-florida/0226"
"9","Dillards","Dillards Pueblo Mall in Pueblo, Colorado","3601 Dillon Dr","Pueblo","CO","08100","Roland Rios","(719) 545-9665","10:00 AM","09:00 PM","10:00 AM","09:00 PM","10:00 AM","09:00 PM","10:00 AM","09:00 PM","10:00 AM","09:00 PM","10:00 AM","09:00 PM","12:00 PM","06:00 PM","https://www.dillards.com/assets/img/stores/str0992.jpg","https://www.dillards.com/stores/pueblo-mall-pueblo-colorado/0992"
"10","Dillards","Dillards Southwest Plaza in Littleton, Colorado","8501 W Bowles Ste 2d657","Littleton","CO","08012","Zackary C. Metheny","(303) 979-6111","10:00 AM","09:00 PM","10:00 AM","09:00 PM","10:00 AM","09:00 PM","10:00 AM","09:00 PM","10:00 AM","09:00 PM","10:00 AM","09:00 PM","11:00 AM","06:00 PM","https://www.dillards.com/assets/img/stores/str0984.jpg","https://www.dillards.com/stores/southwest-plaza-littleton-colorado/0984"
"11","Dillards","Dillards Park Meadows in Littleton, Colorado","8415 Park Meadows Center Dr.","Littleton","CO","08012","Roger L. Casto","(303) 790-0100","10:00 AM","09:00 PM","10:00 AM","09:00 PM","10:00 AM","09:00 PM","10:00 AM","09:00 PM","10:00 AM","09:00 PM","10:00 AM","09:00 PM","11:00 AM","06:00 PM","https://www.dillards.com/assets/img/stores/str0981.jpg","https://www.dillards.com/stores/park-meadows-littleton-colorado/0981"
"12","Dillards","Dillards Chapel Hills Mall in Colorado Springs, Colorado","1790 Briargate Blvd","Colorado Springs","CO","08092","Sharen K. Meeks","(719) 532-1400","10:00 AM","09:00 PM","10:00 AM","09:00 PM","10:00 AM","09:00 PM","10:00 AM","09:00 PM","10:00 AM","09:00 PM","10:00 AM","09:00 PM","11:00 AM","06:00 PM","https://www.dillards.com/assets/img/stores/str0994.jpg","https://www.dillards.com/stores/chapel-hills-mall-colorado-springs-colorado/0994"
"13","Dillards","Dillards Citadel Mall in Colorado Springs, Colorado","760 Citadel Drive East","Colorado Springs","CO","08090","Kristin A. Jacobson-Smith","(719) 550-1159","Closed","Closed","12:00 PM","07:00 PM","12:00 PM","07:00 PM","12:00 PM","07:00 PM","12:00 PM","07:00 PM","12:00 PM","07:00 PM","12:00 PM","06:00 PM","https://www.dillards.com/assets/img/stores/str0504.jpg","https://www.dillards.com/stores/citadel-mall-colorado-springs-colorado/0504"
"14","Dillards","Dillards Flatiron Crossing in Broomfield, Colorado","41 W Flatiron Cir","Broomfield","CO","08002","Susan M. Towns","(303) 464-3900","10:00 AM","09:00 PM","10:00 AM","09:00 PM","10:00 AM","09:00 PM","10:00 AM","09:00 PM","10:00 AM","09:00 PM","10:00 AM","09:00 PM","11:00 AM","06:00 PM","https://www.dillards.com/assets/img/stores/str0987.jpg","https://www.dillards.com/stores/flatiron-crossing-broomfield-colorado/0987"
"15","Dillards","Dillards Town Center At Aurora in Aurora, Colorado","14200 East Alameda Ave","Aurora","CO","08001","Dana R. Modisette","(303) 360-5900","10:00 AM","09:00 PM","10:00 AM","09:00 PM","10:00 AM","09:00 PM","10:00 AM","09:00 PM","10:00 AM","09:00 PM","10:00 AM","09:00 PM","11:00 AM","06:00 PM","https://www.dillards.com/assets/img/stores/str0982.jpg","https://www.dillards.com/stores/town-center-at-aurora-aurora-colorado/0982"
"16","Dillards","Dillards Frontier Mall in Cheyenne, Wyoming","1400 Dell Range Blvd.","Cheyenne","WY","08200","Luz Griffin","(307) 632-2224","10:00 AM","09:00 PM","10:00 AM","09:00 PM","10:00 AM","09:00 PM","10:00 AM","09:00 PM","10:00 AM","09:00 PM","10:00 AM","09:00 PM","12:00 PM","06:00 PM","https://www.dillards.com/assets/img/stores/str0999.jpg","https://www.dillards.com/stores/frontier-mall-cheyenne-wyoming/0999"
"17","Dillards","Dillards Stony Point in Richmond, Virginia","9208 Stony Point Parkway","Richmond","VA","02323","Daniel J. Feiste","(804) 253-1860","10:00 AM","09:00 PM","10:00 AM","09:00 PM","10:00 AM","09:00 PM","10:00 AM","09:00 PM","10:00 AM","09:00 PM","10:00 AM","09:00 PM","12:00 PM","06:00 PM","https://www.dillards.com/assets/img/stores/str0179.jpg","https://www.dillards.com/stores/stony-point-richmond-virginia/0179"
"18","Dillards","Dillards Short Pump Town Center in Richmond, Virginia","11824 W Broad Street","Richmond","VA","02323","Placido J. Cuautle","(804) 253-0182","10:00 AM","09:00 PM","10:00 AM","09:00 PM","10:00 AM","09:00 PM","10:00 AM","09:00 PM","10:00 AM","09:00 PM","10:00 AM","09:00 PM","12:00 PM","06:00 PM","https://www.dillards.com/assets/img/stores/str0176.jpg","https://www.dillards.com/stores/short-pump-town-center-richmond-virginia/0176"
"19","Dillards","Dillards Macarthur Center in Norfolk, Virginia","200 Monticello Ave","Norfolk","VA","02351","Wendell A. Luckett Jr","(757) 622-6800","10:00 AM","09:00 PM","10:00 AM","09:00 PM","10:00 AM","09:00 PM","10:00 AM","09:00 PM","10:00 AM","09:00 PM","10:00 AM","09:00 PM","12:00 PM","06:00 PM","https://www.dillards.com/assets/img/stores/str0170.jpg","https://www.dillards.com/stores/macarthur-center-norfolk-virginia/0170"
"20","Dillards","Dillards Patrick Henry Mall in Newport News, Virginia","12300 Jefferson Avenue Ste 300","Newport News","VA","02360","Cindy M. Just","(757) 930-0291","10:00 AM","09:00 PM","10:00 AM","09:00 PM","10:00 AM","09:00 PM","10:00 AM","09:00 PM","10:00 AM","09:00 PM","10:00 AM","09:00 PM","12:00 PM","06:00 PM","https://www.dillards.com/assets/img/stores/str0174.jpg","https://www.dillards.com/stores/patrick-henry-mall-newport-news-virginia/0174"
"21","Dillards","Dillards Greenbrier Mall in Chesapeake, Virginia","1401 Greenbrier Parkway","Chesapeake","VA","02332","Scott G. Barnard","(757) 523-9031","10:00 AM","09:00 PM","10:00 AM","09:00 PM","10:00 AM","09:00 PM","10:00 AM","09:00 PM","10:00 AM","09:00 PM","10:00 AM","09:00 PM","12:00 PM","06:00 PM","https://www.dillards.com/assets/img/stores/str0172.jpg","https://www.dillards.com/stores/greenbrier-mall-chesapeake-virginia/0172"
"22","Dillards","Dillards Provo Towne Centre in Provo, Utah","1200 South Towne Centre Blvd","Provo","UT","08460","Kurt E. Wiederspahn","(801) 852-3000","10:00 AM","09:00 PM","10:00 AM","09:00 PM","10:00 AM","09:00 PM","10:00 AM","09:00 PM","10:00 AM","09:00 PM","10:00 AM","09:00 PM","12:00 PM","06:00 PM","https://www.dillards.com/assets/img/stores/str0933.jpg","https://www.dillards.com/stores/provo-towne-centre-provo-utah/0933"
"23","Dillards","Dillards Fashion Place Mall in Murray, Utah","6191 S State St.","Murray","UT","08410","Lisa A. Mc Millan","(801) 266-2006","10:00 AM","09:00 PM","10:00 AM","09:00 PM","10:00 AM","09:00 PM","10:00 AM","09:00 PM","10:00 AM","09:00 PM","10:00 AM","09:00 PM","12:00 PM","06:00 PM","https://www.dillards.com/assets/img/stores/str0930.jpg","https://www.dillards.com/stores/fashion-place-mall-murray-utah/0930"
"24","Dillards","Dillards Newgate Mall in Ogden, Utah","4000 Newgate Mall","Ogden","UT","08440","Robert S. Sagers","(801) 392-0689","10:00 AM","09:00 PM","10:00 AM","09:00 PM","10:00 AM","09:00 PM","10:00 AM","09:00 PM","10:00 AM","09:00 PM","10:00 AM","09:00 PM","12:00 PM","06:00 PM","https://www.dillards.com/assets/img/stores/str0931.jpg","https://www.dillards.com/stores/newgate-mall-ogden-utah/0931"
"25","Dillards","Dillards Sikes Center in Wichita Falls, Texas","3111 Midwestern Pkwy","Wichita Falls","TX","07630","Donald H. Finley III","(940) 692-9310","10:00 AM","09:00 PM","10:00 AM","09:00 PM","10:00 AM","09:00 PM","10:00 AM","09:00 PM","10:00 AM","09:00 PM","10:00 AM","09:00 PM","12:00 PM","06:00 PM","https://www.dillards.com/assets/img/stores/str0742.jpg","https://www.dillards.com/stores/sikes-center-wichita-falls-texas/0742"
"26","Dillards","Dillards Lynnhaven Mall in Virginia Beach, Virginia","701 Lynnhaven Parkway","Virginia Beach","VA","02345","Jessica L. Guoba","(757) 463-4800","10:00 AM","09:00 PM","10:00 AM","09:00 PM","10:00 AM","09:00 PM","10:00 AM","09:00 PM","10:00 AM","09:00 PM","10:00 AM","09:00 PM","12:00 PM","06:00 PM","https://www.dillards.com/assets/img/stores/str0171.jpg","https://www.dillards.com/stores/lynnhaven-mall-virginia-beach-virginia/0171"
"27","Dillards","Dillards Red Cliffs Mall in St. George, Utah","1850 E. Red Cliffs Drive","St. George","UT","08479","Amber J. Ives","(435) 634-4900","10:00 AM","09:00 PM","10:00 AM","09:00 PM","10:00 AM","09:00 PM","10:00 AM","09:00 PM","10:00 AM","09:00 PM","10:00 AM","09:00 PM","12:00 PM","06:00 PM","https://www.dillards.com/assets/img/stores/str0928.jpg","https://www.dillards.com/stores/red-cliffs-mall-st.-george-utah/0928"
"28","Dillards","Dillards Richland Fashion Mall in Waco, Texas","6001 West Waco Drive","Waco","TX","07671","John M. Moses","(254) 776-3560","10:00 AM","09:00 PM","10:00 AM","09:00 PM","10:00 AM","09:00 PM","10:00 AM","09:00 PM","10:00 AM","09:00 PM","10:00 AM","09:00 PM","12:00 PM","06:00 PM","https://www.dillards.com/assets/img/stores/str0730.jpg","https://www.dillards.com/stores/richland-fashion-mall-waco-texas/0730"
"29","Dillards","Dillards Broadway Square Mall in Tyler, Texas","4601 S Broadway Avenue","Tyler","TX","07570","Natalie S. Orr","(903) 561-1221","10:00 AM","09:00 PM","10:00 AM","09:00 PM","10:00 AM","09:00 PM","10:00 AM","09:00 PM","10:00 AM","09:00 PM","10:00 AM","09:00 PM","12:00 PM","06:00 PM","https://www.dillards.com/assets/img/stores/str0749.jpg","https://www.dillards.com/stores/broadway-square-mall-tyler-texas/0749"
"30","Dillards","Dillards Layton Hills in Layton, Utah","1201 N. Hill Field Rd","Layton","UT","08404","Shelley L. McCabe","(801) 315-2138","10:00 AM","09:00 PM","10:00 AM","09:30 PM","10:00 AM","09:00 PM","10:00 AM","09:00 PM","10:00 AM","09:00 PM","10:00 AM","09:00 PM","12:00 PM","06:00 PM","https://www.dillards.com/assets/img/stores/str0932.jpg","https://www.dillards.com/stores/layton-hills-layton-utah/0932"
"31","Dillards","Dillards The Woodlands in The Woodlands, Texas","1201 Lake Woodlands Dr Ste 400","The Woodlands","TX","07738","Efren Sanchez, Jr","(281) 363-9300","10:00 AM","09:00 PM","10:00 AM","09:00 PM","10:00 AM","09:00 PM","10:00 AM","09:00 PM","10:00 AM","09:00 PM","10:00 AM","09:00 PM","12:00 PM","06:00 PM","https://www.dillards.com/assets/img/stores/str0770.jpg","https://www.dillards.com/stores/the-woodlands-the-woodlands-texas/0770"
"32","Dillards","Dillards Weberstown in Stockton, California","4950 Pacific Avenue","Stockton","CA","09520","Ronald A. Parker","(209) 477-1230","10:00 AM","09:00 PM","10:00 AM","09:00 PM","10:00 AM","09:00 PM","10:00 AM","09:00 PM","10:00 AM","09:00 PM","10:00 AM","09:00 PM","11:00 AM","06:00 PM","https://www.dillards.com/assets/img/stores/str0960.jpg","https://www.dillards.com/stores/weberstown-stockton-california/0960"
"33","Dillards","Dillards Victoria Mall in Victoria, Texas","7800 Navarro","Victoria","TX","07790","Ellen F. Cunninghamsantellana","(361) 576-5261","10:00 AM","09:00 PM","10:00 AM","09:00 PM","10:00 AM","09:00 PM","10:00 AM","09:00 PM","10:00 AM","09:00 PM","10:00 AM","09:00 PM","12:00 PM","06:00 PM","https://www.dillards.com/assets/img/stores/str0737.jpg","https://www.dillards.com/stores/victoria-mall-victoria-texas/0737"
"34","Dillards","Dillards Temple Mall in Temple, Texas","3111 S 31st St Ste 6501","Temple","TX","07650","Robert Benavides","(254) 778-1854","10:00 AM","09:00 PM","10:00 AM","09:00 PM","10:00 AM","09:00 PM","10:00 AM","09:00 PM","10:00 AM","09:00 PM","10:00 AM","09:00 PM","12:00 PM","06:00 PM","https://www.dillards.com/assets/img/stores/str0739.jpg","https://www.dillards.com/stores/temple-mall-temple-texas/0739"
"35","Dillards","Dillards First Colony Mall in Sugar Land, Texas","16517 Sw Freeway","Sugar Land","TX","07747","Amber D. Menzie","(281) 980-8300","10:00 AM","09:00 PM","10:00 AM","09:00 PM","10:00 AM","09:00 PM","10:00 AM","09:00 PM","10:00 AM","09:00 PM","10:00 AM","09:00 PM","12:00 PM","06:00 PM","https://www.dillards.com/assets/img/stores/str0777.jpg","https://www.dillards.com/stores/first-colony-mall-sugar-land-texas/0777"
"36","Dillards","Dillards Central Mall in Texarkana, Texas","2400 Richmond Rd.","Texarkana","TX","07550","Mary L. Staten","(903) 838-6591","10:00 AM","09:00 PM","10:00 AM","09:00 PM","10:00 AM","09:00 PM","10:00 AM","09:00 PM","10:00 AM","09:00 PM","10:00 AM","09:00 PM","12:00 PM","06:00 PM","https://www.dillards.com/assets/img/stores/str0437.jpg","https://www.dillards.com/stores/central-mall-texarkana-texas/0437"
"37","Dillards","Dillards Midway Mall in Sherman, Texas","4800 Texoma Parkway Suite 400","Sherman","TX","07509",NA,"(903) 868-1065","10:00 AM","09:00 PM","10:00 AM","09:00 PM","10:00 AM","09:00 PM","10:00 AM","09:00 PM","10:00 AM","09:00 PM","10:00 AM","09:00 PM","12:00 PM","06:00 PM","https://www.dillards.com/assets/img/stores/str0713.jpg","https://www.dillards.com/stores/midway-mall-sherman-texas/0713"
"38","Dillards","Dillards Ingram Park Mall in San Antonio, Texas","6301 Nw Loop 410 Ste D","San Antonio","TX","07823","Elizabeth E. Riojas","(210) 681-7970","10:00 AM","09:00 PM","10:00 AM","09:00 PM","10:00 AM","09:00 PM","10:00 AM","09:00 PM","10:00 AM","09:00 PM","10:00 AM","09:00 PM","12:00 PM","06:00 PM","https://www.dillards.com/assets/img/stores/str0723.jpg","https://www.dillards.com/stores/ingram-park-mall-san-antonio-texas/0723"
"39","Dillards","Dillards Rolling Oaks Mall in San Antonio, Texas","6909 N. Fm 1604 East","San Antonio","TX","07824","Denise Moser","(210) 651-5033","10:00 AM","09:00 PM","10:00 AM","09:00 PM","10:00 AM","09:00 PM","10:00 AM","09:00 PM","10:00 AM","09:00 PM","10:00 AM","09:00 PM","12:00 PM","06:00 PM","https://www.dillards.com/assets/img/stores/str0722.jpg","https://www.dillards.com/stores/rolling-oaks-mall-san-antonio-texas/0722"
"40","Dillards","Dillards The Shops At La Cantera in San Antonio, Texas","15900 La Cantera Pkwy","San Antonio","TX","07825","Sherilyn S. Hammett","(210) 558-6121","10:00 AM","09:00 PM","10:00 AM","09:00 PM","10:00 AM","09:00 PM","10:00 AM","09:00 PM","10:00 AM","09:00 PM","10:00 AM","09:00 PM","12:00 PM","06:00 PM","https://www.dillards.com/assets/img/stores/str0721.jpg","https://www.dillards.com/stores/the-shops-at-la-cantera-san-antonio-texas/0721"
"41","Dillards","Dillards North Star Mall in San Antonio, Texas","7400 San Pedro Suite 900","San Antonio","TX","07821","Marialice R. Gonzales","(210) 341-6666","10:00 AM","09:00 PM","10:00 AM","09:00 PM","10:00 AM","09:00 PM","10:00 AM","09:00 PM","10:00 AM","09:00 PM","10:00 AM","09:00 PM","12:00 PM","06:00 PM","https://www.dillards.com/assets/img/stores/str0720.jpg","https://www.dillards.com/stores/north-star-mall-san-antonio-texas/0720"
"42","Dillards","Dillards Sunset Mall in San Angelo, Texas","4001 Sunset Drive","San Angelo","TX","07690","Erin McLucas","(325) 944-4571","10:00 AM","09:00 PM","10:00 AM","09:00 PM","10:00 AM","09:00 PM","10:00 AM","09:00 PM","10:00 AM","09:00 PM","10:00 AM","09:00 PM","12:00 PM","06:00 PM","https://www.dillards.com/assets/img/stores/str0745.jpg","https://www.dillards.com/stores/sunset-mall-san-angelo-texas/0745"
"43","Dillards","Dillards Central Mall in Port Arthur, Texas","3100 Highway 365","Port Arthur","TX","07764","Diana S. Campbell","(409) 724-7575","10:00 AM","09:00 PM","10:00 AM","09:00 PM","10:00 AM","09:00 PM","10:00 AM","09:00 PM","10:00 AM","09:00 PM","10:00 AM","09:00 PM","12:00 PM","06:00 PM","https://www.dillards.com/assets/img/stores/str0787.jpg","https://www.dillards.com/stores/central-mall-port-arthur-texas/0787"
"44","Dillards","Dillards Shops At Willowbend in Plano, Texas","2501 Dallas Parkway","Plano","TX","07509","Jennifer L. Szwec","(972) 202-4730","10:00 AM","09:00 PM","10:00 AM","09:00 PM","10:00 AM","09:00 PM","10:00 AM","09:00 PM","10:00 AM","09:00 PM","10:00 AM","09:00 PM","12:00 PM","06:00 PM","https://www.dillards.com/assets/img/stores/str0718.jpg","https://www.dillards.com/stores/shops-at-willowbend-plano-texas/0718"
"45","Dillards","Dillards Music City Mall in Odessa, Texas","4101 E. 42nd St Suite 108","Odessa","TX","07976","Sylvia G. Alvarez","(432) 362-1986","10:00 AM","09:00 PM","10:00 AM","09:00 PM","10:00 AM","09:00 PM","10:00 AM","09:00 PM","10:00 AM","09:00 PM","10:00 AM","09:00 PM","12:00 PM","06:00 PM","https://www.dillards.com/assets/img/stores/str0747.jpg","https://www.dillards.com/stores/music-city-mall-odessa-texas/0747"
"46","Dillards","Dillards La Plaza Mall in McAllen, Texas","2200 South Tenth St","McAllen","TX","07850","Kevin P. Lyon","(956) 687-5211","10:00 AM","09:00 PM","10:00 AM","09:00 PM","10:00 AM","09:00 PM","10:00 AM","09:00 PM","10:00 AM","09:00 PM","10:00 AM","09:00 PM","12:00 PM","07:00 PM","https://www.dillards.com/assets/img/stores/str0727.jpg","https://www.dillards.com/stores/la-plaza-mall-mcallen-texas/0727"
"47","Dillards","Dillards Pearland Town Center in Pearland, Texas","11200 Broadway Bldg 50","Pearland","TX","07758","Lori A. Streu","(713) 340-1334","10:00 AM","09:00 PM","10:00 AM","09:00 PM","10:00 AM","09:00 PM","10:00 AM","09:00 PM","10:00 AM","09:00 PM","10:00 AM","09:00 PM","12:00 PM","06:00 PM","https://www.dillards.com/assets/img/stores/str0778.jpg","https://www.dillards.com/stores/pearland-town-center-pearland-texas/0778"
"48","Dillards","Dillards Longview Mall in Longview, Texas","3500 Mccann Road","Longview","TX","07560","James Saenz","(903) 758-4436","10:00 AM","09:00 PM","10:00 AM","09:00 PM","10:00 AM","09:00 PM","10:00 AM","09:00 PM","10:00 AM","09:00 PM","10:00 AM","09:00 PM","12:00 PM","06:00 PM","https://www.dillards.com/assets/img/stores/str0748.jpg","https://www.dillards.com/stores/longview-mall-longview-texas/0748"
"49","Dillards","Dillards Town East Center in Mesquite, Texas","5000 Town East Blvd.","Mesquite","TX","07515","Carri L. Conner","(972) 681-9231","10:00 AM","09:00 PM","10:00 AM","09:00 PM","10:00 AM","09:00 PM","10:00 AM","09:00 PM","10:00 AM","09:00 PM","10:00 AM","09:00 PM","12:00 PM","06:00 PM","https://www.dillards.com/assets/img/stores/str0712.jpg","https://www.dillards.com/stores/town-east-center-mesquite-texas/0712"
"50","Dillards","Dillards Midland Park Mall in Midland, Texas","4511 N Midkiff","Midland","TX","07970","Sandra G. Hemmenway","(432) 697-7911","10:00 AM","09:00 PM","10:00 AM","09:00 PM","10:00 AM","09:00 PM","10:00 AM","09:00 PM","10:00 AM","09:00 PM","10:00 AM","09:00 PM","12:00 PM","06:00 PM","https://www.dillards.com/assets/img/stores/str0746.jpg","https://www.dillards.com/stores/midland-park-mall-midland-texas/0746"
"51","Dillards","Dillards South Plains Mall in Lubbock, Texas","6002 Slide Road","Lubbock","TX","07941","Clara A. Ellison","(806) 792-6871","10:00 AM","09:00 PM","10:00 AM","09:00 PM","10:00 AM","09:00 PM","10:00 AM","09:00 PM","10:00 AM","09:00 PM","10:00 AM","09:00 PM","12:00 PM","06:00 PM","https://www.dillards.com/assets/img/stores/str0743.jpg","https://www.dillards.com/stores/south-plains-mall-lubbock-texas/0743"
"52","Dillards","Dillards Vista Ridge Mall in Lewisville, Texas","2401 S. Stemmons Freeway","Lewisville","TX","07506","Pam R. Howard","(972) 315-3333","10:00 AM","09:00 PM","10:00 AM","09:00 PM","10:00 AM","09:00 PM","10:00 AM","09:00 PM","10:00 AM","09:00 PM","10:00 AM","09:00 PM","12:00 PM","06:00 PM","https://www.dillards.com/assets/img/stores/str0711.jpg","https://www.dillards.com/stores/vista-ridge-mall-lewisville-texas/0711"
"53","Dillards","Dillards Mall Del Norte in Laredo, Texas","5300 San Dario Avenue","Laredo","TX","07804","James D. Ryan","(956) 727-1171","10:00 AM","09:00 PM","10:00 AM","09:00 PM","10:00 AM","09:00 PM","10:00 AM","09:00 PM","10:00 AM","09:00 PM","10:00 AM","09:00 PM","12:00 PM","07:00 PM","https://www.dillards.com/assets/img/stores/str0726.jpg","https://www.dillards.com/stores/mall-del-norte-laredo-texas/0726"
"54","Dillards","Dillards Brazos Mall in Lake Jackson, Texas","100 Hwy 332 W Ste 1400","Lake Jackson","TX","07756","Janese L. Lazor","(979) 297-7201","10:00 AM","09:00 PM","10:00 AM","09:00 PM","10:00 AM","09:00 PM","10:00 AM","09:00 PM","10:00 AM","09:00 PM","10:00 AM","09:00 PM","12:00 PM","06:00 PM","https://www.dillards.com/assets/img/stores/str0784.jpg","https://www.dillards.com/stores/brazos-mall-lake-jackson-texas/0784"
"55","Dillards","Dillards Killeen Mall in Killeen, Texas","2100 South W S Young Drive","Killeen","TX","07654","Anna M. White","(254) 699-6116","10:00 AM","09:00 PM","10:00 AM","09:00 PM","10:00 AM","09:00 PM","10:00 AM","09:00 PM","10:00 AM","09:00 PM","10:00 AM","09:00 PM","12:00 PM","06:00 PM","https://www.dillards.com/assets/img/stores/str0732.jpg","https://www.dillards.com/stores/killeen-mall-killeen-texas/0732"
"67","Dillards","Dillards The Pines Mall in Pine Bluff, Arkansas","2901 Pine Mall Drive","Pine Bluff","AR","07160",NA,"(870) 535-0433","10:00 AM","09:00 PM","10:00 AM","09:00 PM","10:00 AM","09:00 PM","10:00 AM","09:00 PM","10:00 AM","09:00 PM","10:00 AM","09:00 PM","12:00 PM","06:00 PM","https://www.dillards.com/assets/img/stores/str0404.jpg","https://www.dillards.com/stores/the-pines-mall-pine-bluff-arkansas/0404"
"70","Dillards","Dillards Antelope Valley Mall in Palmdale, California","1255 Rancho Vista Blvd","Palmdale","CA","09355","Sarah G. Meek","(661) 267-0670","10:00 AM","09:00 PM","10:00 AM","09:00 PM","10:00 AM","09:00 PM","10:00 AM","09:00 PM","10:00 AM","09:00 PM","10:00 AM","09:00 PM","11:00 AM","06:00 PM","https://www.dillards.com/assets/img/stores/str0961.jpg","https://www.dillards.com/stores/antelope-valley-mall-palmdale-california/0961"
"71","Dillards","Dillards Mall Of Georgia in Buford, Georgia","3333 Buford Dr.","Buford","GA","03051","Charlie R. Robinson","(678) 482-5241","10:00 AM","09:00 PM","10:00 AM","09:00 PM","10:00 AM","09:00 PM","10:00 AM","09:00 PM","10:00 AM","09:00 PM","10:00 AM","09:00 PM","12:00 PM","07:00 PM","https://www.dillards.com/assets/img/stores/str0261.jpg","https://www.dillards.com/stores/mall-of-georgia-buford-georgia/0261"
"72","Dillards","Dillards Imperial Valley Mall in El Centro, California","3451 South Dogwood Ave","El Centro","CA","09224","Jose R. Nicholas","(760) 370-0190","10:00 AM","09:00 PM","10:00 AM","09:00 PM","10:00 AM","09:00 PM","10:00 AM","09:00 PM","10:00 AM","09:00 PM","10:00 AM","09:00 PM","11:00 AM","07:00 PM","https://www.dillards.com/assets/img/stores/str0962.jpg","https://www.dillards.com/stores/imperial-valley-mall-el-centro-california/0962"
"74","Dillards","Dillards Pinnacle Hills Promenade in Rogers, Arkansas","2101 Promenade Blvd","Rogers","AR","07275","Brent A. Fleshman","(479) 936-7984","10:00 AM","09:00 PM","10:00 AM","09:00 PM","10:00 AM","09:00 PM","10:00 AM","09:00 PM","10:00 AM","09:00 PM","10:00 AM","09:00 PM","12:00 PM","06:00 PM","https://www.dillards.com/assets/img/stores/str0408.jpg","https://www.dillards.com/stores/pinnacle-hills-promenade-rogers-arkansas/0408"
"78","Dillards","Dillards Park Plaza Center in Little Rock, Arkansas","6000 W. Markham","Little Rock","AR","07220","John F. Brandenberger","(501) 661-0053","10:00 AM","09:00 PM","10:00 AM","09:00 PM","10:00 AM","09:00 PM","10:00 AM","09:00 PM","10:00 AM","09:00 PM","10:00 AM","09:00 PM","12:00 PM","06:00 PM","https://www.dillards.com/assets/img/stores/str0405.jpg","https://www.dillards.com/stores/park-plaza-center-little-rock-arkansas/0405"
"112","Dillards","Dillards Irving Mall in Irving, Texas","3901 Irving Mall","Irving","TX","07506","Joanne D. Flynn","(972) 258-4968","Closed","Closed","12:00 PM","07:00 PM","12:00 PM","07:00 PM","12:00 PM","07:00 PM","12:00 PM","07:00 PM","12:00 PM","07:00 PM","12:00 PM","06:00 PM","https://www.dillards.com/assets/img/stores/str0506.jpg","https://www.dillards.com/stores/irving-mall-irving-texas/0506"
"113","Dillards","Dillards Northeast Mall in Hurst, Texas","1101 Melbourne Road","Hurst","TX","07605","Conrad A. Colwell","(817) 284-4566","10:00 AM","09:00 PM","10:00 AM","09:00 PM","10:00 AM","09:00 PM","10:00 AM","09:00 PM","10:00 AM","09:00 PM","10:00 AM","09:00 PM","12:00 PM","06:00 PM","https://www.dillards.com/assets/img/stores/str0701.jpg","https://www.dillards.com/stores/northeast-mall-hurst-texas/0701"
"114","Dillards","Dillards Memorial City Mall in Houston, Texas","900 Memorial City","Houston","TX","07702","Teresa Y. Garcia","(713) 464-1851","10:00 AM","09:00 PM","10:00 AM","09:00 PM","10:00 AM","09:00 PM","10:00 AM","09:00 PM","10:00 AM","09:00 PM","10:00 AM","09:00 PM","12:00 PM","06:00 PM","https://www.dillards.com/assets/img/stores/str0774.jpg","https://www.dillards.com/stores/memorial-city-mall-houston-texas/0774"
"115","Dillards","Dillards Willowbrook in Houston, Texas","7925 Fm 1960 West","Houston","TX","07707","Sharon A. Rios","(281) 890-9200","10:00 AM","09:00 PM","10:00 AM","09:00 PM","10:00 AM","09:00 PM","10:00 AM","09:00 PM","10:00 AM","09:00 PM","10:00 AM","09:00 PM","12:00 PM","06:00 PM","https://www.dillards.com/assets/img/stores/str0771.jpg","https://www.dillards.com/stores/willowbrook-houston-texas/0771"
"116","Dillards","Dillards Post Oak in Houston, Texas","4925 Westheimer","Houston","TX","07705","Patric O. Starks","(713) 622-1200","10:00 AM","09:00 PM","10:00 AM","09:00 PM","10:00 AM","09:00 PM","10:00 AM","09:00 PM","10:00 AM","09:00 PM","10:00 AM","09:00 PM","12:00 PM","06:00 PM","https://www.dillards.com/assets/img/stores/str0775.jpg","https://www.dillards.com/stores/post-oak-houston-texas/0775"
"117","Dillards","Dillards West Oaks in Houston, Texas","900 West Oaks Mall","Houston","TX","07708","Christopher W. McLendon","(281) 558-4431","Closed","Closed","12:00 PM","07:00 PM","12:00 PM","07:00 PM","12:00 PM","07:00 PM","12:00 PM","07:00 PM","12:00 PM","07:00 PM","12:00 PM","06:00 PM","https://www.dillards.com/assets/img/stores/str0510.jpg","https://www.dillards.com/stores/west-oaks-houston-texas/0510"
"118","Dillards","Dillards Valle Vista Mall in Harlingen, Texas","2004 S. Expressway 83","Harlingen","TX","07855","Lilia Garza-Rey","(956) 428-8181","10:00 AM","09:00 PM","10:00 AM","09:00 PM","10:00 AM","09:00 PM","10:00 AM","09:00 PM","10:00 AM","09:00 PM","10:00 AM","09:00 PM","12:00 PM","06:00 PM","https://www.dillards.com/assets/img/stores/str0728.jpg","https://www.dillards.com/stores/valle-vista-mall-harlingen-texas/0728"
"119","Dillards","Dillards Greenspoint Mall in Houston, Texas","10 Greenspoint Mall","Houston","TX","07706","Yvonne M. Recio","(281) 875-5900","Closed","Closed","12:00 PM","07:00 PM","12:00 PM","07:00 PM","12:00 PM","07:00 PM","12:00 PM","07:00 PM","12:00 PM","07:00 PM","12:00 PM","06:00 PM","https://www.dillards.com/assets/img/stores/str0509.jpg","https://www.dillards.com/stores/greenspoint-mall-houston-texas/0509"
"120","Dillards","Dillards Firewheel Town Center in Garland, Texas","301 Horseshoe Drive","Garland","TX","07504","Deana M. Thompson","(972) 496-4070","10:00 AM","09:00 PM","10:00 AM","09:00 PM","10:00 AM","09:00 PM","10:00 AM","09:00 PM","10:00 AM","09:00 PM","10:00 AM","09:00 PM","12:00 PM","06:00 PM","https://www.dillards.com/assets/img/stores/str0708.jpg","https://www.dillards.com/stores/firewheel-town-center-garland-texas/0708"
"121","Dillards","Dillards Village At Fairview in Fairview, Texas","121 E. Stacy Road","Fairview","TX","07506","Tara M. Hughes","(972) 549-1300","10:00 AM","09:00 PM","10:00 AM","09:00 PM","10:00 AM","09:00 PM","10:00 AM","09:00 PM","10:00 AM","09:00 PM","10:00 AM","09:00 PM","12:00 PM","06:00 PM","https://www.dillards.com/assets/img/stores/str0717.jpg","https://www.dillards.com/stores/village-at-fairview-fairview-texas/0717"
"122","Dillards","Dillards Ridgmar Mall in Fort Worth, Texas","1700 Green Oaks Road","Fort Worth","TX","07611","Reynaldo M. Marquez","(817) 731-4711","Closed","Closed","12:00 PM","07:00 PM","12:00 PM","07:00 PM","12:00 PM","07:00 PM","12:00 PM","07:00 PM","12:00 PM","07:00 PM","12:00 PM","06:00 PM","https://www.dillards.com/assets/img/stores/str0527.jpg","https://www.dillards.com/stores/ridgmar-mall-fort-worth-texas/0527"
"123","Dillards","Dillards Sunland Park Mall in El Paso, Texas","750 Sunland Park Drive","El Paso","TX","07991","Cesar Garcia","(915) 833-8100","10:00 AM","09:00 PM","10:00 AM","09:00 PM","10:00 AM","09:00 PM","10:00 AM","09:00 PM","10:00 AM","09:00 PM","10:00 AM","09:00 PM","12:00 PM","07:00 PM","https://www.dillards.com/assets/img/stores/str0926.jpg","https://www.dillards.com/stores/sunland-park-mall-el-paso-texas/0926"
"124","Dillards","Dillards Cielo Vista Mall in El Paso, Texas","8401 Gateway West","El Paso","TX","07992","Michael C. Saldivar","(915) 779-6969","10:00 AM","09:00 PM","10:00 AM","09:00 PM","10:00 AM","09:00 PM","10:00 AM","09:00 PM","10:00 AM","09:00 PM","10:00 AM","09:00 PM","12:00 PM","07:00 PM","https://www.dillards.com/assets/img/stores/str0924.jpg","https://www.dillards.com/stores/cielo-vista-mall-el-paso-texas/0924"
"125","Dillards","Dillards Northpark in Dallas, Texas","8687 North Central Expressway","Dallas","TX","07522","Shannon C. Smith","(214) 373-7000","10:00 AM","09:00 PM","10:00 AM","09:00 PM","10:00 AM","09:00 PM","10:00 AM","09:00 PM","10:00 AM","09:00 PM","10:00 AM","09:00 PM","12:00 PM","06:00 PM","https://www.dillards.com/assets/img/stores/str0716.jpg","https://www.dillards.com/stores/northpark-dallas-texas/0716"
"126","Dillards","Dillards Post Oak Mall in College Station, Texas","1504 Harvey Blvd.","College Station","TX","07784","Sara N. Anciso","(979) 764-0014","10:00 AM","09:00 PM","10:00 AM","09:00 PM","10:00 AM","09:00 PM","10:00 AM","09:00 PM","10:00 AM","09:00 PM","10:00 AM","09:00 PM","12:00 PM","06:00 PM","https://www.dillards.com/assets/img/stores/str0783.jpg","https://www.dillards.com/stores/post-oak-mall-college-station-texas/0783"
"127","Dillards","Dillards La Palmera in Corpus Christi, Texas","5488 S. Padre Island Drive","Corpus Christi","TX","07841","Michael G. Grulke","(361) 991-7300","10:00 AM","09:00 PM","10:00 AM","09:00 PM","10:00 AM","09:00 PM","10:00 AM","09:00 PM","10:00 AM","09:00 PM","10:00 AM","09:00 PM","12:00 PM","06:00 PM","https://www.dillards.com/assets/img/stores/str0738.jpg","https://www.dillards.com/stores/la-palmera-corpus-christi-texas/0738"
"128","Dillards","Dillards Hillside Village in Cedar Hill, Texas","309 West F. M. 1382","Cedar Hill","TX","07510","Karen M. Ptacek","(972) 293-0868","10:00 AM","09:00 PM","10:00 AM","09:00 PM","10:00 AM","09:00 PM","10:00 AM","09:00 PM","10:00 AM","09:00 PM","10:00 AM","09:00 PM","12:00 PM","06:00 PM","https://www.dillards.com/assets/img/stores/str0715.jpg","https://www.dillards.com/stores/hillside-village-cedar-hill-texas/0715"
"129","Dillards","Dillards Lakeline in Cedar Park, Texas","11200 Lakeline Mall Dr","Cedar Park","TX","07861","Patricia P. Bagley","(512) 257-8740","10:00 AM","09:00 PM","10:00 AM","09:00 PM","10:00 AM","09:00 PM","10:00 AM","09:00 PM","10:00 AM","09:00 PM","10:00 AM","09:00 PM","12:00 PM","06:00 PM","https://www.dillards.com/assets/img/stores/str0735.jpg","https://www.dillards.com/stores/lakeline-cedar-park-texas/0735"
"130","Dillards","Dillards Sunrise Mall in Brownsville, Texas","2340 N. Expressway","Brownsville","TX","07852","Jean A. Lyon","(956) 546-4581","10:00 AM","09:00 PM","10:00 AM","09:00 PM","10:00 AM","09:00 PM","10:00 AM","09:00 PM","10:00 AM","09:00 PM","10:00 AM","09:00 PM","12:00 PM","07:00 PM","https://www.dillards.com/assets/img/stores/str0729.jpg","https://www.dillards.com/stores/sunrise-mall-brownsville-texas/0729"
"131","Dillards","Dillards Stonebriar Centre in Frisco, Texas","2603 Preston Rd","Frisco","TX","07503","Philip J. Carr","(214) 705-8065","10:00 AM","09:00 PM","10:00 AM","09:00 PM","10:00 AM","09:00 PM","10:00 AM","09:00 PM","10:00 AM","09:00 PM","10:00 AM","09:00 PM","12:00 PM","06:00 PM","https://www.dillards.com/assets/img/stores/str0719.jpg","https://www.dillards.com/stores/stonebriar-centre-frisco-texas/0719"
"132","Dillards","Dillards Mc Cain Mall in North Little Rock, Arkansas","3929 Mc Cain Blvd.","North Little Rock","AR","07211","Zachary B. Beck","(501) 771-4100","10:00 AM","09:00 PM","10:00 AM","09:00 PM","10:00 AM","09:00 PM","10:00 AM","09:00 PM","10:00 AM","09:00 PM","10:00 AM","09:00 PM","12:00 PM","06:00 PM","https://www.dillards.com/assets/img/stores/str0407.jpg","https://www.dillards.com/stores/mc-cain-mall-north-little-rock-arkansas/0407"
"133","Dillards","Dillards Deerbrook Mall in Humble, Texas","20131 Highway 59 North","Humble","TX","07733","Paula L. Procell","(281) 540-1612","10:00 AM","09:00 PM","10:00 AM","09:00 PM","10:00 AM","09:00 PM","10:00 AM","09:00 PM","10:00 AM","09:00 PM","10:00 AM","09:00 PM","12:00 PM","06:00 PM","https://www.dillards.com/assets/img/stores/str0780.jpg","https://www.dillards.com/stores/deerbrook-mall-humble-texas/0780"
"134","Dillards","Dillards The Domain in Austin, Texas","3211 Feathergrass Court","Austin","TX","07875","Brittany Edmison","(512) 833-9556","10:00 AM","09:00 PM","10:00 AM","09:00 PM","10:00 AM","09:00 PM","10:00 AM","09:00 PM","10:00 AM","09:00 PM","10:00 AM","09:00 PM","12:00 PM","06:00 PM","https://www.dillards.com/assets/img/stores/str0734.jpg","https://www.dillards.com/stores/the-domain-austin-texas/0734"
"135","Dillards","Dillards The Parks At Arlington in Arlington, Texas","3821 South Cooper","Arlington","TX","07601","Richard K. Cummins","(817) 465-0718","10:00 AM","09:00 PM","10:00 AM","09:00 PM","10:00 AM","09:00 PM","10:00 AM","09:00 PM","10:00 AM","09:00 PM","10:00 AM","09:00 PM","12:00 PM","06:00 PM","https://www.dillards.com/assets/img/stores/str0714.jpg","https://www.dillards.com/stores/the-parks-at-arlington-arlington-texas/0714"
"136","Dillards","Dillards Westgate Mall in Amarillo, Texas","7701 W Interstate 40 Ste 300","Amarillo","TX","07912","Craig M. Seiter","(806) 358-7771","10:00 AM","09:00 PM","10:00 AM","09:00 PM","10:00 AM","09:00 PM","10:00 AM","09:00 PM","10:00 AM","09:00 PM","10:00 AM","09:00 PM","12:00 PM","06:00 PM","https://www.dillards.com/assets/img/stores/str0740.jpg","https://www.dillards.com/stores/westgate-mall-amarillo-texas/0740"
"137","Dillards","Dillards Mall Of Abilene in Abilene, Texas","4310 Buffalo Gap Rd","Abilene","TX","07960","John C. Bittrick","(325) 695-2200","10:00 AM","09:00 PM","10:00 AM","09:00 PM","10:00 AM","09:00 PM","10:00 AM","09:00 PM","10:00 AM","09:00 PM","10:00 AM","09:00 PM","12:00 PM","06:00 PM","https://www.dillards.com/assets/img/stores/str0744.jpg","https://www.dillards.com/stores/mall-of-abilene-abilene-texas/0744"
"138","Dillards","Dillards Green Hills Mall in Nashville, Tennessee","2140 Abbott Martin Rd","Nashville","TN","03721","John S. Mitchell","(615) 297-0971","10:00 AM","09:00 PM","10:00 AM","09:00 PM","10:00 AM","09:00 PM","10:00 AM","09:00 PM","10:00 AM","09:00 PM","10:00 AM","09:00 PM","12:00 PM","06:00 PM","https://www.dillards.com/assets/img/stores/str0420.jpg","https://www.dillards.com/stores/green-hills-mall-nashville-tennessee/0420"
"139","Dillards","Dillards Stones River Mall in Murfreesboro, Tennessee","1720 Old Fort Pkwy","Murfreesboro","TN","03712","William J. Graves","(615) 867-2100","10:00 AM","09:00 PM","10:00 AM","09:00 PM","10:00 AM","09:00 PM","10:00 AM","09:00 PM","10:00 AM","09:00 PM","10:00 AM","09:00 PM","12:00 PM","06:00 PM","https://www.dillards.com/assets/img/stores/str0427.jpg","https://www.dillards.com/stores/stones-river-mall-murfreesboro-tennessee/0427"
"140","Dillards","Dillards Oak Court in Memphis, Tennessee","4433 Poplar Ave","Memphis","TN","03811","Tracy L. Jackson","(901) 685-0382","10:00 AM","09:00 PM","10:00 AM","09:00 PM","10:00 AM","09:00 PM","10:00 AM","09:00 PM","10:00 AM","09:00 PM","10:00 AM","09:00 PM","12:00 PM","06:00 PM","https://www.dillards.com/assets/img/stores/str0410.jpg","https://www.dillards.com/stores/oak-court-memphis-tennessee/0410"
"141","Dillards","Dillards Wolfchase Galleria in Memphis, Tennessee","2700 N. Germantown Road","Memphis","TN","03813","Shelton W. Johnson","(901) 383-1029","10:00 AM","09:00 PM","10:00 AM","09:00 PM","10:00 AM","09:00 PM","10:00 AM","09:00 PM","10:00 AM","09:00 PM","10:00 AM","09:00 PM","12:00 PM","06:00 PM","https://www.dillards.com/assets/img/stores/str0411.jpg","https://www.dillards.com/stores/wolfchase-galleria-memphis-tennessee/0411"
"142","Dillards","Dillards West Town Mall in Knoxville, Tennessee","7600 Kingston Pike","Knoxville","TN","03791","Geoff Johnson","(865) 531-1931","10:00 AM","09:00 PM","10:00 AM","09:00 PM","10:00 AM","09:00 PM","10:00 AM","09:00 PM","10:00 AM","09:00 PM","10:00 AM","09:00 PM","12:00 PM","06:00 PM","https://www.dillards.com/assets/img/stores/str0428.jpg","https://www.dillards.com/stores/west-town-mall-knoxville-tennessee/0428"
"143","Dillards","Dillards Coolsprings Galleria in Franklin, Tennessee","1796 Galleria Blvd.","Franklin","TN","03706","Charles O. Pierce","(615) 771-7101","10:00 AM","09:00 PM","10:00 AM","09:00 PM","10:00 AM","09:00 PM","10:00 AM","09:00 PM","10:00 AM","09:00 PM","10:00 AM","09:00 PM","12:00 PM","06:00 PM","https://www.dillards.com/assets/img/stores/str0425.jpg","https://www.dillards.com/stores/coolsprings-galleria-franklin-tennessee/0425"
"144","Dillards","Dillards Rivergate Mall in Goodlettsville, Tennessee","1000 Rivergate Pkwy","Goodlettsville","TN","03707","Tracy Graves","(615) 859-2811","10:00 AM","09:00 PM","10:00 AM","09:00 PM","10:00 AM","09:00 PM","10:00 AM","09:00 PM","10:00 AM","09:00 PM","10:00 AM","09:00 PM","12:00 PM","06:00 PM","https://www.dillards.com/assets/img/stores/str0422.jpg","https://www.dillards.com/stores/rivergate-mall-goodlettsville-tennessee/0422"
"145","Dillards","Dillards Governors Square in Clarksville, Tennessee","2801 Wilma Rudolph Blvd","Clarksville","TN","03704","Raymond S. Hicks","(931) 648-3511","10:00 AM","09:00 PM","10:00 AM","09:00 PM","10:00 AM","09:00 PM","10:00 AM","09:00 PM","10:00 AM","09:00 PM","10:00 AM","09:00 PM","12:00 PM","06:00 PM","https://www.dillards.com/assets/img/stores/str0426.jpg","https://www.dillards.com/stores/governors-square-clarksville-tennessee/0426"
"146","Dillards","Dillards Hamilton Place in Chattanooga, Tennessee","2100 Hamilton Place Blvd.","Chattanooga","TN","03742","Heather M. Elder","(423) 892-1110","10:00 AM","09:00 PM","10:00 AM","09:00 PM","10:00 AM","09:00 PM","10:00 AM","09:00 PM","10:00 AM","09:00 PM","10:00 AM","09:00 PM","12:00 PM","06:00 PM","https://www.dillards.com/assets/img/stores/str0430.jpg","https://www.dillards.com/stores/hamilton-place-chattanooga-tennessee/0430"
"147","Dillards","Dillards Westgate Mall in Spartanburg, South Carolina","205 W. Blackstock Road","Spartanburg","SC","02930","Marshall A. McCravy","(864) 576-0046","10:00 AM","09:00 PM","10:00 AM","09:00 PM","10:00 AM","09:00 PM","10:00 AM","09:00 PM","10:00 AM","09:00 PM","10:00 AM","09:00 PM","12:00 PM","06:00 PM","https://www.dillards.com/assets/img/stores/str0167.jpg","https://www.dillards.com/stores/westgate-mall-spartanburg-south-carolina/0167"
"148","Dillards","Dillards Northwood Mall in North Charleston, South Carolina","2150 Northwoods Blvd","North Charleston","SC","02940","David Dodson","(843) 553-6363","10:00 AM","09:00 PM","10:00 AM","09:00 PM","10:00 AM","09:00 PM","10:00 AM","09:00 PM","10:00 AM","09:00 PM","10:00 AM","09:00 PM","12:00 PM","06:00 PM","https://www.dillards.com/assets/img/stores/str0162.jpg","https://www.dillards.com/stores/northwood-mall-north-charleston-south-carolina/0162"
"149","Dillards","Dillards Coastal Grand in Myrtle Beach, South Carolina","100 Coastal Grand Circle","Myrtle Beach","SC","02957","James G. Chegin","(843) 839-2917","10:00 AM","09:00 PM","10:00 AM","09:00 PM","10:00 AM","09:00 PM","10:00 AM","09:00 PM","10:00 AM","09:00 PM","10:00 AM","09:00 PM","12:00 PM","06:00 PM","https://www.dillards.com/assets/img/stores/str0163.jpg","https://www.dillards.com/stores/coastal-grand-myrtle-beach-south-carolina/0163"
"150","Dillards","Dillards Haywood Mall in Greenville, South Carolina","700 Haywood Road","Greenville","SC","02960","Robert L. Lancaster","(864) 987-9229","10:00 AM","09:00 PM","10:00 AM","09:00 PM","10:00 AM","09:00 PM","10:00 AM","09:00 PM","10:00 AM","09:30 PM","10:00 AM","09:30 PM","12:00 PM","06:00 PM","https://www.dillards.com/assets/img/stores/str0166.jpg","https://www.dillards.com/stores/haywood-mall-greenville-south-carolina/0166"
"151","Dillards","Dillards Columbiana Centre in Columbia, South Carolina","100 Columbiana Circle","Columbia","SC","02921","Heather E. Lagasse","(803) 732-7037","10:00 AM","09:00 PM","10:00 AM","09:00 PM","10:00 AM","09:00 PM","10:00 AM","09:00 PM","10:00 AM","09:00 PM","10:00 AM","09:00 PM","12:00 PM","06:00 PM","https://www.dillards.com/assets/img/stores/str0164.jpg","https://www.dillards.com/stores/columbiana-centre-columbia-south-carolina/0164"
"152","Dillards","Dillards Citadel Mall in Charleston, South Carolina","2066 Sam Rittenberg Blvd.","Charleston","SC","02940","Robert L. Seibert","(843) 556-0080","10:00 AM","09:00 PM","10:00 AM","09:00 PM","10:00 AM","09:00 PM","10:00 AM","09:00 PM","10:00 AM","09:00 PM","10:00 AM","09:00 PM","12:00 PM","06:00 PM","https://www.dillards.com/assets/img/stores/str0161.jpg","https://www.dillards.com/stores/citadel-mall-charleston-south-carolina/0161"
"153","Dillards","Dillards Anderson Mall in Anderson, South Carolina","3101 N.main Suite D","Anderson","SC","02962","Janel Crowder","(864) 224-1315","10:00 AM","09:00 PM","10:00 AM","09:00 PM","10:00 AM","09:00 PM","10:00 AM","09:00 PM","10:00 AM","09:00 PM","10:00 AM","09:00 PM","12:00 PM","06:00 PM","https://www.dillards.com/assets/img/stores/str0168.jpg","https://www.dillards.com/stores/anderson-mall-anderson-south-carolina/0168"
"154","Dillards","Dillards Woodland Hills Mall in Tulsa, Oklahoma","6919 South Memorial","Tulsa","OK","07413","Robert K. Dockery","(918) 252-1890","10:00 AM","09:00 PM","10:00 AM","09:00 PM","10:00 AM","09:00 PM","10:00 AM","09:00 PM","10:00 AM","09:00 PM","10:00 AM","09:00 PM","12:00 PM","06:00 PM","https://www.dillards.com/assets/img/stores/str0792.jpg","https://www.dillards.com/stores/woodland-hills-mall-tulsa-oklahoma/0792"
"155","Dillards","Dillards Promenade in Tulsa, Oklahoma","4169 South Yale","Tulsa","OK","07413","Dennis W. Hix","(918) 627-7700","10:00 AM","09:00 PM","10:00 AM","09:00 PM","10:00 AM","09:00 PM","10:00 AM","09:00 PM","10:00 AM","09:00 PM","10:00 AM","09:00 PM","12:00 PM","06:00 PM","https://www.dillards.com/assets/img/stores/str0791.jpg","https://www.dillards.com/stores/promenade-tulsa-oklahoma/0791"
"156","Dillards","Dillards Shawnee Mall in Shawnee, Oklahoma","4901 N. Kickapoo St.","Shawnee","OK","07480","Kelly S. Pierce","(405) 273-1500","10:00 AM","09:00 PM","10:00 AM","09:00 PM","10:00 AM","09:00 PM","10:00 AM","09:00 PM","10:00 AM","09:00 PM","10:00 AM","09:00 PM","12:00 PM","06:00 PM","https://www.dillards.com/assets/img/stores/str0797.jpg","https://www.dillards.com/stores/shawnee-mall-shawnee-oklahoma/0797"
"157","Dillards","Dillards Penn Square Mall in Oklahoma City, Oklahoma","1901 Nw Expressway Suite 1001","Oklahoma City","OK","07311","Edwin G. Carter","(405) 840-8495","10:00 AM","09:00 PM","10:00 AM","09:00 PM","10:00 AM","09:00 PM","10:00 AM","09:00 PM","10:00 AM","09:00 PM","10:00 AM","09:00 PM","12:00 PM","06:00 PM","https://www.dillards.com/assets/img/stores/str0796.jpg","https://www.dillards.com/stores/penn-square-mall-oklahoma-city-oklahoma/0796"
"158","Dillards","Dillards Quail Springs Mall in Oklahoma City, Oklahoma","2501 West Memorial Rd","Oklahoma City","OK","07313","Shawn C. Morris","(405) 755-5220","10:00 AM","09:00 PM","10:00 AM","09:00 PM","10:00 AM","09:00 PM","10:00 AM","09:00 PM","10:00 AM","09:00 PM","10:00 AM","09:00 PM","12:00 PM","06:00 PM","https://www.dillards.com/assets/img/stores/str0795.jpg","https://www.dillards.com/stores/quail-springs-mall-oklahoma-city-oklahoma/0795"
"159","Dillards","Dillards Golden Triangle Mall in Denton, Texas","2201 S I-35 E","Denton","TX","07620","Sara Hormaza","(940) 566-6210","10:00 AM","09:00 PM","10:00 AM","09:00 PM","10:00 AM","09:00 PM","10:00 AM","09:00 PM","10:00 AM","09:00 PM","10:00 AM","09:00 PM","12:00 PM","06:00 PM","https://www.dillards.com/assets/img/stores/str0709.jpg","https://www.dillards.com/stores/golden-triangle-mall-denton-texas/0709"
"160","Dillards","Dillards Hulen Mall in Fort Worth, Texas","4850 Overton Ridge Blvd","Fort Worth","TX","07613","Greg Grimes","(817) 294-1449","10:00 AM","09:00 PM","10:00 AM","09:00 PM","10:00 AM","09:00 PM","10:00 AM","09:00 PM","10:00 AM","09:00 PM","10:00 AM","09:00 PM","12:00 PM","06:00 PM","https://www.dillards.com/assets/img/stores/str0704.jpg","https://www.dillards.com/stores/hulen-mall-fort-worth-texas/0704"
"161","Dillards","Dillards Parkdale Mall in Beaumont, Texas","5955 Eastex Freeway","Beaumont","TX","07770","Larry Lucas","(409) 899-9800","10:00 AM","09:00 PM","10:00 AM","09:00 PM","10:00 AM","09:00 PM","10:00 AM","09:00 PM","10:00 AM","09:00 PM","10:00 AM","09:00 PM","12:00 PM","06:00 PM","https://www.dillards.com/assets/img/stores/str0786.jpg","https://www.dillards.com/stores/parkdale-mall-beaumont-texas/0786"
"162","Dillards","Dillards Baybrook Mall in Friendswood, Texas","600 Baybrook Mall","Friendswood","TX","07754","Hester L. Williams","(281) 486-0700","10:00 AM","09:00 PM","10:00 AM","09:00 PM","10:00 AM","09:00 PM","10:00 AM","09:00 PM","10:00 AM","09:00 PM","10:00 AM","09:00 PM","12:00 PM","06:00 PM","https://www.dillards.com/assets/img/stores/str0779.jpg","https://www.dillards.com/stores/baybrook-mall-friendswood-texas/0779"
"163","Dillards","Dillards Hill Country Galleria in Bee Cave, Texas","4000 Vista Ridge","Bee Cave","TX","07873","Carlos X. Moreno","(512) 263-0520","10:00 AM","09:00 PM","10:00 AM","09:00 PM","10:00 AM","09:00 PM","10:00 AM","09:00 PM","10:00 AM","09:00 PM","10:00 AM","09:00 PM","12:00 PM","06:00 PM","https://www.dillards.com/assets/img/stores/str0736.jpg","https://www.dillards.com/stores/hill-country-galleria-bee-cave-texas/0736"
"164","Dillards","Dillards Arrowhead Mall in Muskogee, Oklahoma","501 N Main Suite 74","Muskogee","OK","07440","Albert B. Meyer","(918) 682-1000","10:00 AM","09:00 PM","10:00 AM","09:00 PM","10:00 AM","09:00 PM","10:00 AM","09:00 PM","10:00 AM","09:00 PM","10:00 AM","09:00 PM","12:00 PM","06:00 PM","https://www.dillards.com/assets/img/stores/str0793.jpg","https://www.dillards.com/stores/arrowhead-mall-muskogee-oklahoma/0793"
"165","Dillards","Dillards Oakwood Mall in Enid, Oklahoma","4125 West Owen K Garriott","Enid","OK","07370","Jeremiah Shepard","(580) 237-2984","10:00 AM","09:00 PM","10:00 AM","09:00 PM","10:00 AM","09:00 PM","10:00 AM","09:00 PM","10:00 AM","09:00 PM","10:00 AM","09:00 PM","12:00 PM","06:00 PM","https://www.dillards.com/assets/img/stores/str0794.jpg","https://www.dillards.com/stores/oakwood-mall-enid-oklahoma/0794"
"166","Dillards","Dillards Washington Park Mall in Bartlesville, Oklahoma","2350 S E Washington Blvd","Bartlesville","OK","07400","Michelle A. Wolfenberger","(918) 335-3300","10:00 AM","09:00 PM","10:00 AM","09:00 PM","10:00 AM","09:00 PM","10:00 AM","09:00 PM","10:00 AM","09:00 PM","10:00 AM","09:00 PM","12:00 PM","06:00 PM","https://www.dillards.com/assets/img/stores/str0790.jpg","https://www.dillards.com/stores/washington-park-mall-bartlesville-oklahoma/0790"
"167","Dillards","Dillards Central Mall in Lawton, Oklahoma","200 Southwest C Avenue","Lawton","OK","07350","Jeffery W. Murphy","(580) 248-8120","10:00 AM","09:00 PM","10:00 AM","09:00 PM","10:00 AM","09:00 PM","10:00 AM","09:00 PM","10:00 AM","09:00 PM","10:00 AM","09:00 PM","12:00 PM","06:00 PM","https://www.dillards.com/assets/img/stores/str0799.jpg","https://www.dillards.com/stores/central-mall-lawton-oklahoma/0799"
"168","Dillards","Dillards Eastwood Mall in Niles, Ohio","5555 Youngstown-warren Road","Niles","OH","04444","Sarah J. Taylor","(330) 544-1016","12:00 PM","07:00 PM","12:00 PM","07:00 PM","12:00 PM","07:00 PM","12:00 PM","07:00 PM","12:00 PM","07:00 PM","12:00 PM","07:00 PM","12:00 PM","06:00 PM","https://www.dillards.com/assets/img/stores/str0528.jpg","https://www.dillards.com/stores/eastwood-mall-niles-ohio/0528"
"169","Dillards","Dillards Franklin Park Mall in Toledo, Ohio","5001 Monroe St","Toledo","OH","04362","David L. Stockwell","(419) 473-9600","10:00 AM","09:00 PM","10:00 AM","09:00 PM","10:00 AM","09:00 PM","10:00 AM","09:00 PM","10:00 AM","09:00 PM","10:00 AM","09:00 PM","12:00 PM","06:00 PM","https://www.dillards.com/assets/img/stores/str0376.jpg","https://www.dillards.com/stores/franklin-park-mall-toledo-ohio/0376"
"170","Dillards","Dillards Liberty Center in Liberty Township, Ohio","7660 Blake Street","Liberty Township","OH","04506","Richard A. Lanthorn","(513) 712-5902","10:00 AM","09:00 PM","10:00 AM","09:00 PM","10:00 AM","09:00 PM","10:00 AM","09:00 PM","10:00 AM","09:00 PM","10:00 AM","09:00 PM","12:00 PM","06:00 PM","https://www.dillards.com/assets/img/stores/str0353.jpg","https://www.dillards.com/stores/liberty-center-liberty-township-ohio/0353"
"171","Dillards","Dillards Great Northern Mall in North Olmsted, Ohio","25188 Country Club Blvd","North Olmsted","OH","04407","Patricia L. Lester","(440) 777-0822","10:00 AM","09:00 PM","10:00 AM","09:00 PM","10:00 AM","09:00 PM","10:00 AM","09:00 PM","10:00 AM","09:00 PM","10:00 AM","09:00 PM","12:00 PM","06:00 PM","https://www.dillards.com/assets/img/stores/str0367.jpg","https://www.dillards.com/stores/great-northern-mall-north-olmsted-ohio/0367"
"172","Dillards","Dillards Eastgate Mall in Cincinnati, Ohio","4615 Eastgate Blvd","Cincinnati","OH","04524","Ryane M. Doerman","(513) 943-5100","Closed","Closed","12:00 PM","07:00 PM","12:00 PM","07:00 PM","12:00 PM","07:00 PM","12:00 PM","07:00 PM","12:00 PM","07:00 PM","12:00 PM","06:00 PM","https://www.dillards.com/assets/img/stores/str0523.jpg","https://www.dillards.com/stores/eastgate-mall-cincinnati-ohio/0523"
"173","Dillards","Dillards Shops At Fallen Timbers in Maumee, Ohio","3100 Main Street","Maumee","OH","04353","Carrie L. Sconochia","(419) 878-2729","10:00 AM","09:00 PM","10:00 AM","09:00 PM","10:00 AM","09:00 PM","10:00 AM","09:00 PM","10:00 AM","09:00 PM","10:00 AM","09:00 PM","12:00 PM","06:00 PM","https://www.dillards.com/assets/img/stores/str0378.jpg","https://www.dillards.com/stores/shops-at-fallen-timbers-maumee-ohio/0378"
"174","Dillards","Dillards Kenwood Towne Centre in Cincinnati, Ohio","7913 Montgomery Rd","Cincinnati","OH","04523","Randall T. Hockenbury","(513) 745-4489","10:00 AM","09:00 PM","10:00 AM","09:00 PM","10:00 AM","09:00 PM","10:00 AM","09:00 PM","10:00 AM","09:00 PM","10:00 AM","09:00 PM","12:00 PM","06:00 PM","https://www.dillards.com/assets/img/stores/str0351.jpg","https://www.dillards.com/stores/kenwood-towne-centre-cincinnati-ohio/0351"
"175","Dillards","Dillards West Town Center in Cincinnati, Ohio","6290 Glenway Ave","Cincinnati","OH","04521","Rebecca A. Milostan","(513) 244-3489","Closed","Closed","12:00 PM","07:00 PM","12:00 PM","07:00 PM","12:00 PM","07:00 PM","12:00 PM","07:00 PM","12:00 PM","07:00 PM","12:00 PM","06:00 PM","https://www.dillards.com/assets/img/stores/str0521.jpg","https://www.dillards.com/stores/west-town-center-cincinnati-ohio/0521"
"176","Dillards","Dillards Southern Park Mall in Boardman, Ohio","7401 Market Street","Boardman","OH","04451","Michelle Fraelich","(330) 629-2150","10:00 AM","09:00 PM","10:00 AM","09:00 PM","10:00 AM","09:00 PM","10:00 AM","09:00 PM","10:00 AM","09:00 PM","10:00 AM","09:00 PM","12:00 PM","06:00 PM","https://www.dillards.com/assets/img/stores/str0374.jpg","https://www.dillards.com/stores/southern-park-mall-boardman-ohio/0374"
"177","Dillards","Dillards Beachwood Place in Beachwood, Ohio","26500 Cedar Road","Beachwood","OH","04412","William T. Creegan","(216) 464-6000","10:00 AM","09:00 PM","10:00 AM","09:00 PM","10:00 AM","09:00 PM","10:00 AM","09:00 PM","10:00 AM","09:00 PM","10:00 AM","09:00 PM","12:00 PM","06:00 PM","https://www.dillards.com/assets/img/stores/str0365.jpg","https://www.dillards.com/stores/beachwood-place-beachwood-ohio/0365"
"178","Dillards","Dillards Hanes in Winston-salem, North Carolina","3320 Silas Creek Pkwy. #3500","Winston-salem","NC","02710","Malinda H. Gormsen","(336) 659-1515","10:00 AM","09:00 PM","10:00 AM","09:00 PM","10:00 AM","09:00 PM","10:00 AM","09:00 PM","10:00 AM","09:00 PM","10:00 AM","09:00 PM","12:00 PM","06:00 PM","https://www.dillards.com/assets/img/stores/str0145.jpg","https://www.dillards.com/stores/hanes-winston-salem-north-carolina/0145"
"179","Dillards","Dillards Westfield Independence Ma in Wilmington, North Carolina","3500 Oleander Drive","Wilmington","NC","02840","Kathryn M. Tillett","(910) 796-0187","10:00 AM","09:00 PM","10:00 AM","09:00 PM","10:00 AM","09:00 PM","10:00 AM","09:00 PM","10:00 AM","09:00 PM","10:00 AM","09:00 PM","12:00 PM","06:00 PM","https://www.dillards.com/assets/img/stores/str0156.jpg","https://www.dillards.com/stores/westfield-independence-ma-wilmington-north-carolina/0156"
"180","Dillards","Dillards Barton Creek Square in Austin, Texas","2901 Capitol Of Texas Hwy","Austin","TX","07874","Sergio J. Cespedes","(512) 327-6100","10:00 AM","09:00 PM","10:00 AM","09:00 PM","10:00 AM","09:00 PM","10:00 AM","09:00 PM","10:00 AM","09:00 PM","10:00 AM","09:00 PM","12:00 PM","06:00 PM","https://www.dillards.com/assets/img/stores/str0733.jpg","https://www.dillards.com/stores/barton-creek-square-austin-texas/0733"
"181","Dillards","Dillards Carriage Crossing in Collierville, Tennessee","4620 Merchants Park Cr Bldg C","Collierville","TN","03801","Kevin W. Williams","(901) 850-2229","10:00 AM","09:00 PM","10:00 AM","09:00 PM","10:00 AM","09:00 PM","10:00 AM","09:00 PM","10:00 AM","09:00 PM","10:00 AM","09:00 PM","12:00 PM","06:00 PM","https://www.dillards.com/assets/img/stores/str0409.jpg","https://www.dillards.com/stores/carriage-crossing-collierville-tennessee/0409"
"182","Dillards","Dillards Oak Hollow Mall in High Point, North Carolina","921 Eastchester Dr Ste 1001","High Point","NC","02726","Wendell K. Moore","(336) 812-9090","Closed","Closed","12:00 PM","07:00 PM","12:00 PM","07:00 PM","12:00 PM","07:00 PM","12:00 PM","07:00 PM","12:00 PM","07:00 PM","12:00 PM","06:00 PM","https://www.dillards.com/assets/img/stores/str0517.jpg","https://www.dillards.com/stores/oak-hollow-mall-high-point-north-carolina/0517"
"183","Dillards","Dillards Valley Hills Mall in Hickory, North Carolina","1930 Us Highway 70 Se","Hickory","NC","02860",NA,"(828) 327-2656","10:00 AM","09:00 PM","10:00 AM","09:00 PM","10:00 AM","09:00 PM","10:00 AM","09:00 PM","10:00 AM","09:00 PM","10:00 AM","09:00 PM","12:00 PM","06:00 PM","https://www.dillards.com/assets/img/stores/str0146.jpg","https://www.dillards.com/stores/valley-hills-mall-hickory-north-carolina/0146"
"184","Dillards","Dillards Four Seasons in Greensboro, North Carolina","150 Four Seasons Towne Center","Greensboro","NC","02740","Frederica M. Santiago","(336) 855-5511","10:00 AM","09:00 PM","10:00 AM","09:00 PM","10:00 AM","09:00 PM","10:00 AM","09:00 PM","10:00 AM","09:00 PM","10:00 AM","09:00 PM","12:00 PM","06:00 PM","https://www.dillards.com/assets/img/stores/str0144.jpg","https://www.dillards.com/stores/four-seasons-greensboro-north-carolina/0144"
"185","Dillards","Dillards Carolina Place in Pineville, North Carolina","11041 Carolina Place Pkwy","Pineville","NC","02813","Wayne E. McKnight","(704) 544-0113","10:00 AM","09:00 PM","10:00 AM","09:00 PM","10:00 AM","09:00 PM","10:00 AM","09:00 PM","10:00 AM","09:00 PM","10:00 AM","09:00 PM","12:00 PM","06:00 PM","https://www.dillards.com/assets/img/stores/str0151.jpg","https://www.dillards.com/stores/carolina-place-pineville-north-carolina/0151"
"186","Dillards","Dillards Eastridge Mall in Gastonia, North Carolina","250 N. New Hope Road","Gastonia","NC","02805","Victor P. Stewart","(704) 864-8361","10:00 AM","09:00 PM","10:00 AM","09:00 PM","10:00 AM","09:00 PM","10:00 AM","09:00 PM","10:00 AM","09:00 PM","10:00 AM","09:00 PM","12:00 PM","06:00 PM","https://www.dillards.com/assets/img/stores/str0152.jpg","https://www.dillards.com/stores/eastridge-mall-gastonia-north-carolina/0152"
"187","Dillards","Dillards Northlake Mall in Charlotte, North Carolina","7535 Northlake Mall Dr","Charlotte","NC","02821","Elizabeth M. Stratton","(704) 716-1150","10:00 AM","09:00 PM","10:00 AM","09:00 PM","10:00 AM","09:00 PM","10:00 AM","09:00 PM","10:00 AM","09:00 PM","10:00 AM","09:00 PM","12:00 PM","06:00 PM","https://www.dillards.com/assets/img/stores/str0153.jpg","https://www.dillards.com/stores/northlake-mall-charlotte-north-carolina/0153"
"188","Dillards","Dillards Belden Village in Canton, Ohio","4400 Belden Village Mall","Canton","OH","04471","Tonya L. Crum","(330) 494-3050","10:00 AM","09:00 PM","10:00 AM","09:00 PM","10:00 AM","09:00 PM","10:00 AM","09:00 PM","10:00 AM","09:00 PM","10:00 AM","09:00 PM","12:00 PM","06:00 PM","https://www.dillards.com/assets/img/stores/str0373.jpg","https://www.dillards.com/stores/belden-village-canton-ohio/0373"
"189","Dillards","Dillards Alamance Crossing in Burlington, North Carolina","1003 Boston Drive","Burlington","NC","02721","Sean New","(336) 538-6498","10:00 AM","09:00 PM","10:00 AM","09:00 PM","10:00 AM","09:00 PM","10:00 AM","09:00 PM","10:00 AM","09:00 PM","10:00 AM","09:00 PM","12:00 PM","06:00 PM","https://www.dillards.com/assets/img/stores/str0143.jpg","https://www.dillards.com/stores/alamance-crossing-burlington-north-carolina/0143"
"190","Dillards","Dillards Triangle Town Center in Raleigh, North Carolina","3501 Sumner Blvd","Raleigh","NC","02761","Patrick L. Broussard","(919) 792-2900","10:00 AM","09:00 PM","10:00 AM","09:00 PM","10:00 AM","09:00 PM","10:00 AM","09:00 PM","10:00 AM","09:00 PM","10:00 AM","09:00 PM","12:00 PM","06:00 PM","https://www.dillards.com/assets/img/stores/str0140.jpg","https://www.dillards.com/stores/triangle-town-center-raleigh-north-carolina/0140"
"191","Dillards","Dillards Asheville Outlets in Asheville, North Carolina","800 Brevard Road","Asheville","NC","02880","Linda M. Beutler","(828) 665-4434","12:00 PM","07:00 PM","12:00 PM","07:00 PM","12:00 PM","07:00 PM","12:00 PM","07:00 PM","12:00 PM","07:00 PM","12:00 PM","07:00 PM","12:00 PM","06:00 PM","https://www.dillards.com/assets/img/stores/str0508.jpg","https://www.dillards.com/stores/asheville-outlets-asheville-north-carolina/0508"
"192","Dillards","Dillards Asheville Mall in Asheville, North Carolina","#3 South Tunnel Road","Asheville","NC","02880","Hugh N. Halpert","(828) 298-2611","10:00 AM","09:00 PM","10:00 AM","09:00 PM","10:00 AM","09:00 PM","10:00 AM","09:00 PM","10:00 AM","09:00 PM","10:00 AM","09:00 PM","12:00 PM","06:00 PM","https://www.dillards.com/assets/img/stores/str0148.jpg","https://www.dillards.com/stores/asheville-mall-asheville-north-carolina/0148"
"193","Dillards","Dillards Santa Fe Place in Santa Fe, New Mexico","4250 Cerrillos Road","Santa Fe","NM","08750","Christeena Mooneyhan","(505) 473-2900","10:00 AM","09:00 PM","10:00 AM","09:00 PM","10:00 AM","09:00 PM","10:00 AM","09:00 PM","10:00 AM","09:00 PM","10:00 AM","09:00 PM","12:00 PM","06:00 PM","https://www.dillards.com/assets/img/stores/str0922.jpg","https://www.dillards.com/stores/santa-fe-place-santa-fe-new-mexico/0922"
"194","Dillards","Dillards Mesilla Valley in Las Cruces, New Mexico","700 S Telshor Blvd.","Las Cruces","NM","08801","Rosetta M. Stinson","(575) 522-5400","10:00 AM","09:00 PM","10:00 AM","09:00 PM","10:00 AM","09:00 PM","10:00 AM","09:00 PM","10:00 AM","09:00 PM","10:00 AM","09:00 PM","12:00 PM","06:00 PM","https://www.dillards.com/assets/img/stores/str0925.jpg","https://www.dillards.com/stores/mesilla-valley-las-cruces-new-mexico/0925"
"195","Dillards","Dillards North Plains Mall in Clovis, New Mexico","2609 North Prince St","Clovis","NM","08810","Sarah A. Trujillo","(575) 742-3200","10:00 AM","09:00 PM","10:00 AM","09:00 PM","10:00 AM","09:00 PM","10:00 AM","09:00 PM","10:00 AM","09:00 PM","10:00 AM","09:00 PM","12:00 PM","06:00 PM","https://www.dillards.com/assets/img/stores/str0741.jpg","https://www.dillards.com/stores/north-plains-mall-clovis-new-mexico/0741"
"196","Dillards","Dillards Animas Valley Mall in Farmington, New Mexico","4601 East Main St.","Farmington","NM","08740","Colby P. Jensen","(505) 326-2681","10:00 AM","09:00 PM","10:00 AM","09:00 PM","10:00 AM","09:00 PM","10:00 AM","09:00 PM","10:00 AM","09:00 PM","10:00 AM","09:00 PM","12:00 PM","06:00 PM","https://www.dillards.com/assets/img/stores/str0923.jpg","https://www.dillards.com/stores/animas-valley-mall-farmington-new-mexico/0923"
"197","Dillards","Dillards Winrock Center in Albuquerque, New Mexico","2100 Louisiana Blvd Ne Ste 155","Albuquerque","NM","08711","Grover E. Wilson","(505) 883-5900","10:00 AM","09:00 PM","10:00 AM","09:00 PM","10:00 AM","09:00 PM","10:00 AM","09:00 PM","10:00 AM","09:00 PM","10:00 AM","09:00 PM","12:00 PM","06:00 PM","https://www.dillards.com/assets/img/stores/str0921.jpg","https://www.dillards.com/stores/winrock-center-albuquerque-new-mexico/0921"
"198","Dillards","Dillards South Park in Charlotte, North Carolina","4400 Sharon Road","Charlotte","NC","02821","Renee L. Jones","(704) 365-3111","10:00 AM","09:00 PM","10:00 AM","09:00 PM","10:00 AM","09:00 PM","10:00 AM","09:00 PM","10:00 AM","09:00 PM","10:00 AM","09:00 PM","11:00 AM","07:00 PM","https://www.dillards.com/assets/img/stores/str0150.jpg","https://www.dillards.com/stores/south-park-charlotte-north-carolina/0150"
"199","Dillards","Dillards Great Lakes in Mentor, Ohio","7850 Mentor Ave.","Mentor","OH","04406","Timothy W. Howell","(440) 255-5651","10:00 AM","09:00 PM","10:00 AM","09:00 PM","10:00 AM","09:00 PM","10:00 AM","09:00 PM","10:00 AM","09:00 PM","10:00 AM","09:00 PM","12:00 PM","06:00 PM","https://www.dillards.com/assets/img/stores/str0362.jpg","https://www.dillards.com/stores/great-lakes-mentor-ohio/0362"
"200","Dillards","Dillards Summit Mall in Akron, Ohio","3265 W Market St","Akron","OH","04433","Larry A. Jenko","(330) 867-3300","10:00 AM","09:00 PM","10:00 AM","09:00 PM","10:00 AM","09:00 PM","10:00 AM","09:00 PM","10:00 AM","09:00 PM","10:00 AM","09:00 PM","12:00 PM","06:00 PM","https://www.dillards.com/assets/img/stores/str0371.jpg","https://www.dillards.com/stores/summit-mall-akron-ohio/0371"
"201","Dillards","Dillards Cary Town Center in Cary, North Carolina","1105 Walnut Street","Cary","NC","02751","Arash A. Ardestani","(919) 469-1611","10:00 AM","09:00 PM","10:00 AM","09:00 PM","10:00 AM","09:00 PM","10:00 AM","09:00 PM","10:00 AM","09:00 PM","10:00 AM","09:00 PM","12:00 PM","06:00 PM","https://www.dillards.com/assets/img/stores/str0141.jpg","https://www.dillards.com/stores/cary-town-center-cary-north-carolina/0141"
"202","Dillards","Dillards Summit Sierra in Reno, Nevada","13933 S. Virginia St.","Reno","NV","08951","Scott J. Smith","(775) 852-3080","10:00 AM","09:00 PM","10:00 AM","09:00 PM","10:00 AM","09:00 PM","10:00 AM","09:00 PM","10:00 AM","09:00 PM","10:00 AM","09:00 PM","11:00 AM","06:00 PM","https://www.dillards.com/assets/img/stores/str0949.jpg","https://www.dillards.com/stores/summit-sierra-reno-nevada/0949"
"203","Dillards","Dillards Southpark Center in Strongsville, Ohio","16996 Southpark Center","Strongsville","OH","04413","Clifford L. Phoenix","(440) 846-8718","10:00 AM","09:00 PM","10:00 AM","09:00 PM","10:00 AM","09:00 PM","10:00 AM","09:00 PM","10:00 AM","09:00 PM","10:00 AM","09:00 PM","12:00 PM","06:00 PM","https://www.dillards.com/assets/img/stores/str0364.jpg","https://www.dillards.com/stores/southpark-center-strongsville-ohio/0364"
"204","Dillards","Dillards Summerlin in Las Vegas, Nevada","11011 Sage Park Drive","Las Vegas","NV","08913","Andrea S. Armstrong","(702) 473-6712","10:00 AM","09:00 PM","10:00 AM","09:00 PM","10:00 AM","09:00 PM","10:00 AM","09:00 PM","10:00 AM","09:00 PM","10:00 AM","09:00 PM","12:00 PM","06:00 PM","https://www.dillards.com/assets/img/stores/str0945.jpg","https://www.dillards.com/stores/summerlin-las-vegas-nevada/0945"
"205","Dillards","Dillards The Meadows Mall in Las Vegas, Nevada","4200 Meadows Lane","Las Vegas","NV","08910","Stephani R. Ballenger","(702) 870-2039","Closed","Closed","12:00 PM","07:00 PM","12:00 PM","07:00 PM","12:00 PM","07:00 PM","12:00 PM","07:00 PM","12:00 PM","07:00 PM","12:00 PM","06:00 PM","https://www.dillards.com/assets/img/stores/str0503.jpg","https://www.dillards.com/stores/the-meadows-mall-las-vegas-nevada/0503"
"206","Dillards","Dillards Fashion Show Mall in Las Vegas, Nevada","3200 Las Vegas Blvd South","Las Vegas","NV","08910","William C. Martin","(702) 733-2008","10:00 AM","09:00 PM","10:00 AM","09:00 PM","10:00 AM","09:00 PM","10:00 AM","09:00 PM","10:00 AM","09:00 PM","10:00 AM","09:00 PM","12:00 PM","06:00 PM","https://www.dillards.com/assets/img/stores/str0941.jpg","https://www.dillards.com/stores/fashion-show-mall-las-vegas-nevada/0941"
"207","Dillards","Dillards Galleria At Sunset in Henderson, Nevada","1320 W. Sunset Rd.","Henderson","NV","08901","Melody Walker","(702) 435-6300","10:00 AM","09:00 PM","10:00 AM","09:00 PM","10:00 AM","09:00 PM","10:00 AM","09:00 PM","10:00 AM","09:00 PM","10:00 AM","09:00 PM","12:00 PM","06:00 PM","https://www.dillards.com/assets/img/stores/str0944.jpg","https://www.dillards.com/stores/galleria-at-sunset-henderson-nevada/0944"
"208","Dillards","Dillards Gateway Mall in Lincoln, Nebraska","6100 O St","Lincoln","NE","06850","Brent D. Tripp","(402) 464-7451","10:00 AM","09:00 PM","10:00 AM","09:00 PM","10:00 AM","09:00 PM","10:00 AM","09:00 PM","10:00 AM","09:00 PM","10:00 AM","09:00 PM","12:00 PM","06:00 PM","https://www.dillards.com/assets/img/stores/str0344.jpg","https://www.dillards.com/stores/gateway-mall-lincoln-nebraska/0344"
"209","Dillards","Dillards Conestoga Mall in Grand Island, Nebraska","3404 West 13th #100","Grand Island","NE","06880","Roni L. Ward","(308) 384-5200","10:00 AM","09:00 PM","10:00 AM","09:00 PM","10:00 AM","09:00 PM","10:00 AM","09:00 PM","10:00 AM","09:00 PM","10:00 AM","09:00 PM","12:00 PM","06:00 PM","https://www.dillards.com/assets/img/stores/str0345.jpg","https://www.dillards.com/stores/conestoga-mall-grand-island-nebraska/0345"
"210","Dillards","Dillards Oak View Mall in Omaha, Nebraska","3030 Oakview Drive","Omaha","NE","06814","Joan R. Stoner","(402) 697-1323","10:00 AM","09:00 PM","10:00 AM","09:00 PM","10:00 AM","09:00 PM","10:00 AM","09:00 PM","10:00 AM","09:00 PM","10:00 AM","09:00 PM","11:00 AM","06:00 PM","https://www.dillards.com/assets/img/stores/str0343.jpg","https://www.dillards.com/stores/oak-view-mall-omaha-nebraska/0343"
"211","Dillards","Dillards Rimrock Mall in Billings, Montana","320 S. 24th St. West","Billings","MT","05910","Rhonda D. Roberts","(406) 656-0100","10:00 AM","09:00 PM","10:00 AM","09:00 PM","10:00 AM","09:00 PM","10:00 AM","09:00 PM","10:00 AM","09:00 PM","10:00 AM","09:00 PM","12:00 PM","06:00 PM","https://www.dillards.com/assets/img/stores/str0939.jpg","https://www.dillards.com/stores/rimrock-mall-billings-montana/0939"
"212","Dillards","Dillards Southgate Mall in Missoula, Montana","2901 Brooks St","Missoula","MT","05980","Della J. Mitchell","(406) 721-3100","10:00 AM","09:00 PM","10:00 AM","09:00 PM","10:00 AM","09:00 PM","10:00 AM","09:00 PM","10:00 AM","09:00 PM","10:00 AM","09:00 PM","12:00 PM","06:00 PM","https://www.dillards.com/assets/img/stores/str0937.jpg","https://www.dillards.com/stores/southgate-mall-missoula-montana/0937"
"213","Dillards","Dillards St Louis Galleria in St. Louis, Missouri","1105 St Louis Galleria","St. Louis","MO","06311","Bruce G. Pruellage","(314) 725-8363","10:00 AM","09:00 PM","10:00 AM","09:00 PM","10:00 AM","09:00 PM","10:00 AM","09:00 PM","10:00 AM","09:00 PM","10:00 AM","09:00 PM","12:00 PM","06:00 PM","https://www.dillards.com/assets/img/stores/str0301.jpg","https://www.dillards.com/stores/st-louis-galleria-st.-louis-missouri/0301"
"214","Dillards","Dillards Mid Rivers Mall in St. Peters, Missouri","2 Mid Rivers Mall Drive","St. Peters","MO","06337","Brittany J. Bartley","(636) 970-2555","10:00 AM","09:00 PM","10:00 AM","09:00 PM","10:00 AM","09:00 PM","10:00 AM","09:00 PM","10:00 AM","09:00 PM","10:00 AM","09:00 PM","12:00 PM","06:00 PM","https://www.dillards.com/assets/img/stores/str0309.jpg","https://www.dillards.com/stores/mid-rivers-mall-st.-peters-missouri/0309"
"215","Dillards","Dillards Zona Rosa in Kansas City, Missouri","7350 Nw 87th Terrace","Kansas City","MO","06415","Jeffrey P. Russell","(816) 741-0707","10:00 AM","09:00 PM","10:00 AM","09:00 PM","10:00 AM","09:00 PM","10:00 AM","09:00 PM","10:00 AM","09:00 PM","10:00 AM","09:00 PM","12:00 PM","06:00 PM","https://www.dillards.com/assets/img/stores/str0324.jpg","https://www.dillards.com/stores/zona-rosa-kansas-city-missouri/0324"
"216","Dillards","Dillards Battlefield Mall in Springfield, Missouri","2825 S Glenstone Ave Ste 400","Springfield","MO","06580","G. M. Slamb","(417) 883-4550","10:00 AM","09:00 PM","10:00 AM","09:00 PM","10:00 AM","09:00 PM","10:00 AM","09:00 PM","10:00 AM","09:00 PM","10:00 AM","09:00 PM","12:00 PM","06:00 PM","https://www.dillards.com/assets/img/stores/str0314.jpg","https://www.dillards.com/stores/battlefield-mall-springfield-missouri/0314"
"217","Dillards","Dillards Pemberton Square in Vicksburg, Mississippi","3505 Pemberton Square Blvd","Vicksburg","MS","03918","Carolyn Dockery","(601) 638-8853","10:00 AM","09:00 PM","10:00 AM","09:00 PM","10:00 AM","09:00 PM","10:00 AM","09:00 PM","10:00 AM","09:00 PM","10:00 AM","09:00 PM","12:00 PM","06:00 PM","https://www.dillards.com/assets/img/stores/str0414.jpg","https://www.dillards.com/stores/pemberton-square-vicksburg-mississippi/0414"
"218","Dillards","Dillards Independence Center in Independence, Missouri","18805 East 39th Street","Independence","MO","06405","Thomas W. Uran","(816) 795-1818","10:00 AM","09:00 PM","10:00 AM","09:00 PM","10:00 AM","09:00 PM","10:00 AM","09:00 PM","10:00 AM","09:00 PM","10:00 AM","09:00 PM","12:00 PM","06:00 PM","https://www.dillards.com/assets/img/stores/str0323.jpg","https://www.dillards.com/stores/independence-center-independence-missouri/0323"
"219","Dillards","Dillards Southaven Towne Center in Southaven, Mississippi","230 Town Center Loop","Southaven","MS","03867","Glenda K. Kirby","(662) 536-4786","10:00 AM","09:00 PM","10:00 AM","09:00 PM","10:00 AM","09:00 PM","10:00 AM","09:00 PM","10:00 AM","09:00 PM","10:00 AM","09:00 PM","12:00 PM","06:00 PM","https://www.dillards.com/assets/img/stores/str0412.jpg","https://www.dillards.com/stores/southaven-towne-center-southaven-mississippi/0412"
"220","Dillards","Dillards North Park in Ridgeland, Mississippi","1200 County Line Rd.","Ridgeland","MS","03915","Eugene Williams","(601) 957-7100","10:00 AM","09:00 PM","10:00 AM","09:00 PM","10:00 AM","09:00 PM","10:00 AM","09:00 PM","10:00 AM","09:00 PM","10:00 AM","09:00 PM","12:00 PM","06:00 PM","https://www.dillards.com/assets/img/stores/str0419.jpg","https://www.dillards.com/stores/north-park-ridgeland-mississippi/0419"
"221","Dillards","Dillards Bonita Lakes in Meridian, Mississippi","1078 Bonita Lakes Circle","Meridian","MS","03930","Jayne L. Vannatter","(601) 482-8929","10:00 AM","09:00 PM","10:00 AM","09:00 PM","10:00 AM","09:00 PM","10:00 AM","09:00 PM","10:00 AM","09:00 PM","10:00 AM","09:00 PM","12:00 PM","06:00 PM","https://www.dillards.com/assets/img/stores/str0415.jpg","https://www.dillards.com/stores/bonita-lakes-meridian-mississippi/0415"
"222","Dillards","Dillards East Hills Mall in St. Joseph, Missouri","3702 Frederick Ave","St. Joseph","MO","06450","Penny R. Kirkes","(816) 232-7666","10:00 AM","09:00 PM","10:00 AM","09:00 PM","10:00 AM","09:00 PM","10:00 AM","09:00 PM","10:00 AM","09:00 PM","10:00 AM","09:00 PM","12:00 PM","05:00 PM","https://www.dillards.com/assets/img/stores/str0317.jpg","https://www.dillards.com/stores/east-hills-mall-st.-joseph-missouri/0317"
"223","Dillards","Dillards Capital Mall in Jefferson City, Missouri","3600 Country Club Drive","Jefferson City","MO","06510","Joseph Wenzel","(573) 893-4497","10:00 AM","09:00 PM","10:00 AM","09:00 PM","10:00 AM","09:00 PM","10:00 AM","09:00 PM","10:00 AM","09:00 PM","10:00 AM","09:00 PM","12:00 PM","06:00 PM","https://www.dillards.com/assets/img/stores/str0311.jpg","https://www.dillards.com/stores/capital-mall-jefferson-city-missouri/0311"
"224","Dillards","Dillards Columbia Mall in Columbia, Missouri","2300 Bernadette Drive","Columbia","MO","06520","Tiffanie M. Reed","(573) 876-8600","10:00 AM","09:00 PM","10:00 AM","09:00 PM","10:00 AM","09:00 PM","10:00 AM","09:00 PM","10:00 AM","09:00 PM","10:00 AM","09:00 PM","11:00 AM","06:00 PM","https://www.dillards.com/assets/img/stores/str0312.jpg","https://www.dillards.com/stores/columbia-mall-columbia-missouri/0312"
"225","Dillards","Dillards Fremaux Town Center in Slidell, Louisiana","940 Town Center Parkway","Slidell","LA","07045","Quintin A. Strickland","(985) 288-6126","10:00 AM","09:00 PM","10:00 AM","09:00 PM","10:00 AM","09:00 PM","10:00 AM","09:00 PM","10:00 AM","09:00 PM","10:00 AM","09:00 PM","12:00 PM","06:00 PM","https://www.dillards.com/assets/img/stores/str0761.jpg","https://www.dillards.com/stores/fremaux-town-center-slidell-louisiana/0761"
"226","Dillards","Dillards North Shore Square in Slidell, Louisiana","150 North Shore Blvd","Slidell","LA","07046","Tommy A. Hunt","(985) 646-0130","Closed","Closed","12:00 PM","07:00 PM","12:00 PM","07:00 PM","12:00 PM","07:00 PM","12:00 PM","07:00 PM","12:00 PM","07:00 PM","12:00 PM","06:00 PM","https://www.dillards.com/assets/img/stores/str0526.jpg","https://www.dillards.com/stores/north-shore-square-slidell-louisiana/0526"
"227","Dillards","Dillards Edgewater Mall in Biloxi, Mississippi","2600 Beach Blvd Ste 1","Biloxi","MS","03953","Sandra A. Lucas","(228) 385-3834","10:00 AM","09:00 PM","10:00 AM","09:00 PM","10:00 AM","09:00 PM","10:00 AM","09:00 PM","10:00 AM","09:00 PM","10:00 AM","09:00 PM","12:00 PM","06:00 PM","https://www.dillards.com/assets/img/stores/str0758.jpg","https://www.dillards.com/stores/edgewater-mall-biloxi-mississippi/0758"
"228","Dillards","Dillards Pecanland in Monroe, Louisiana","4610 Millhaven Rd","Monroe","LA","07120","John W. Hazel","(318) 323-8000","10:00 AM","09:00 PM","10:00 AM","09:00 PM","10:00 AM","09:00 PM","10:00 AM","09:00 PM","10:00 AM","09:00 PM","10:00 AM","09:00 PM","12:00 PM","06:00 PM","https://www.dillards.com/assets/img/stores/str0435.jpg","https://www.dillards.com/stores/pecanland-monroe-louisiana/0435"
"229","Dillards","Dillards Mall St Vincent in Shreveport, Louisiana","1133 St Vincent Ave","Shreveport","LA","07110","Brad A. Lipps","(318) 226-9565","10:00 AM","09:00 PM","10:00 AM","09:00 PM","10:00 AM","09:00 PM","10:00 AM","09:00 PM","10:00 AM","09:00 PM","10:00 AM","09:00 PM","12:00 PM","06:00 PM","https://www.dillards.com/assets/img/stores/str0432.jpg","https://www.dillards.com/stores/mall-st-vincent-shreveport-louisiana/0432"
"230","Dillards","Dillards Lakeside Shopping Center in Metairie, Louisiana","3301 Veterans Memorial Blvd","Metairie","LA","07000","Michael F. Jones","(504) 833-1075","10:00 AM","09:00 PM","10:00 AM","09:00 PM","10:00 AM","09:00 PM","10:00 AM","09:00 PM","10:00 AM","09:00 PM","10:00 AM","09:00 PM","12:00 PM","06:00 PM","https://www.dillards.com/assets/img/stores/str0760.jpg","https://www.dillards.com/stores/lakeside-shopping-center-metairie-louisiana/0760"
"231","Dillards","Dillards Southland Mall in Houma, Louisiana","5953 West Park Ave Suite #1000","Houma","LA","07036","Erwin Brown","(985) 873-6100","10:00 AM","09:00 PM","10:00 AM","09:00 PM","10:00 AM","09:00 PM","10:00 AM","09:00 PM","10:00 AM","09:00 PM","10:00 AM","09:00 PM","12:00 PM","06:00 PM","https://www.dillards.com/assets/img/stores/str0765.jpg","https://www.dillards.com/stores/southland-mall-houma-louisiana/0765"
"232","Dillards","Dillards Prien Lake Mall in Lake Charles, Louisiana","684 West Prien Lake Rd.","Lake Charles","LA","07060","Amy J. Fitz","(337) 474-9533","10:00 AM","09:00 PM","10:00 AM","09:00 PM","10:00 AM","09:00 PM","10:00 AM","09:00 PM","10:00 AM","09:00 PM","10:00 AM","09:00 PM","12:00 PM","06:00 PM","https://www.dillards.com/assets/img/stores/str0767.jpg","https://www.dillards.com/stores/prien-lake-mall-lake-charles-louisiana/0767"
"233","Dillards","Dillards The Esplanade in Kenner, Louisiana","1401 West Esplanade Ave.","Kenner","LA","07006","August M. Chitwood","(504) 468-6050","Closed","Closed","12:00 PM","07:00 PM","12:00 PM","07:00 PM","12:00 PM","07:00 PM","12:00 PM","07:00 PM","12:00 PM","07:00 PM","12:00 PM","06:00 PM","https://www.dillards.com/assets/img/stores/str0520.jpg","https://www.dillards.com/stores/the-esplanade-kenner-louisiana/0520"
"234","Dillards","Dillards Pierre Bossier Mall in Bossier City, Louisiana","2950 E Texas Ave Ste 670","Bossier City","LA","07111","Charleen R. Cooper","(318) 747-5610","10:00 AM","09:00 PM","10:00 AM","09:00 PM","10:00 AM","09:00 PM","10:00 AM","09:00 PM","10:00 AM","09:00 PM","10:00 AM","09:00 PM","12:00 PM","06:00 PM","https://www.dillards.com/assets/img/stores/str0433.jpg","https://www.dillards.com/stores/pierre-bossier-mall-bossier-city-louisiana/0433"
"235","Dillards","Dillards Acadiana Mall in Lafayette, Louisiana","5725 Johnston Road","Lafayette","LA","07050","Michael R. McGowen","(337) 989-8139","10:00 AM","09:00 PM","10:00 AM","09:00 PM","10:00 AM","09:00 PM","10:00 AM","09:00 PM","10:00 AM","09:00 PM","10:00 AM","09:00 PM","12:00 PM","06:00 PM","https://www.dillards.com/assets/img/stores/str0766.jpg","https://www.dillards.com/stores/acadiana-mall-lafayette-louisiana/0766"
"236","Dillards","Dillards Cortana Mall in Baton Rouge, Louisiana","9701 Cortana Mall","Baton Rouge","LA","07081","Jacqueline Y. Moore","(225) 923-1712","Closed","Closed","12:00 PM","07:00 PM","12:00 PM","07:00 PM","12:00 PM","07:00 PM","12:00 PM","07:00 PM","12:00 PM","07:00 PM","12:00 PM","06:00 PM","https://www.dillards.com/assets/img/stores/str0518.jpg","https://www.dillards.com/stores/cortana-mall-baton-rouge-louisiana/0518"
"237","Dillards","Dillards Mall Of Louisiana in Baton Rouge, Louisiana","6601 Bluebonnet","Baton Rouge","LA","07083","Thomas B. Hudson","(225) 761-7293","10:00 AM","09:00 PM","10:00 AM","09:00 PM","10:00 AM","09:00 PM","10:00 AM","09:00 PM","10:00 AM","09:00 PM","10:00 AM","09:00 PM","12:00 PM","06:00 PM","https://www.dillards.com/assets/img/stores/str0768.jpg","https://www.dillards.com/stores/mall-of-louisiana-baton-rouge-louisiana/0768"
"238","Dillards","Dillards Alexandria Mall in Alexandria, Louisiana","3437 Masonic Drive","Alexandria","LA","07130","Michael C. Reuter","(318) 445-9992","10:00 AM","09:00 PM","10:00 AM","09:00 PM","10:00 AM","09:00 PM","10:00 AM","09:00 PM","10:00 AM","09:00 PM","10:00 AM","09:00 PM","12:00 PM","06:00 PM","https://www.dillards.com/assets/img/stores/str0436.jpg","https://www.dillards.com/stores/alexandria-mall-alexandria-louisiana/0436"
"239","Dillards","Dillards Oakwood Shopping Center in Gretna, Louisiana","197 West Bank Expressway","Gretna","LA","07005","Justin W. Dubyak","(504) 362-4800","10:00 AM","09:00 PM","10:00 AM","09:00 PM","10:00 AM","09:00 PM","10:00 AM","09:00 PM","10:00 AM","09:00 PM","10:00 AM","09:00 PM","12:00 PM","06:00 PM","https://www.dillards.com/assets/img/stores/str0762.jpg","https://www.dillards.com/stores/oakwood-shopping-center-gretna-louisiana/0762"
"240","Dillards","Dillards Hammond Square in Hammond, Louisiana","1990 Hammond Square Drive","Hammond","LA","07040","Kathy M. Johnson","(985) 345-7121","10:00 AM","09:00 PM","10:00 AM","09:00 PM","10:00 AM","09:00 PM","10:00 AM","09:00 PM","10:00 AM","09:00 PM","10:00 AM","09:00 PM","12:00 PM","06:00 PM","https://www.dillards.com/assets/img/stores/str0764.jpg","https://www.dillards.com/stores/hammond-square-hammond-louisiana/0764"
"241","Dillards","Dillards Kentucky Oaks in Paducah, Kentucky","5101 Hinkleville Road","Paducah","KY","04200","Gerald J. Smith","(270) 442-3200","10:00 AM","09:00 PM","10:00 AM","09:00 PM","10:00 AM","09:00 PM","10:00 AM","09:00 PM","10:00 AM","09:00 PM","10:00 AM","09:00 PM","12:00 PM","06:00 PM","https://www.dillards.com/assets/img/stores/str0384.jpg","https://www.dillards.com/stores/kentucky-oaks-paducah-kentucky/0384"
"242","Dillards","Dillards Mall St Matthews in Louisville, Kentucky","5000 Shelbyville Rd","Louisville","KY","04020","George P. Tanner","(502) 893-4400","10:00 AM","09:00 PM","10:00 AM","09:00 PM","10:00 AM","09:00 PM","10:00 AM","09:00 PM","10:00 AM","09:00 PM","10:00 AM","09:00 PM","12:00 PM","06:00 PM","https://www.dillards.com/assets/img/stores/str0391.jpg","https://www.dillards.com/stores/mall-st-matthews-louisville-kentucky/0391"
"243","Dillards","Dillards Fayette Mall in Lexington, Kentucky","3625 Nicholasville Rd","Lexington","KY","04050","Susan R. Bell","(859) 271-9797","10:00 AM","09:00 PM","10:00 AM","09:00 PM","10:00 AM","09:00 PM","10:00 AM","09:00 PM","10:00 AM","09:00 PM","10:00 AM","09:00 PM","12:00 PM","06:00 PM","https://www.dillards.com/assets/img/stores/str0387.jpg","https://www.dillards.com/stores/fayette-mall-lexington-kentucky/0387"
"244","Dillards","Dillards Jefferson Mall in Louisville, Kentucky","4801 Outer Loop","Louisville","KY","04021","Katherine A. Long","(502) 968-6080","10:00 AM","09:00 PM","10:00 AM","09:00 PM","10:00 AM","09:00 PM","10:00 AM","09:00 PM","10:00 AM","09:00 PM","10:00 AM","09:00 PM","12:00 PM","06:00 PM","https://www.dillards.com/assets/img/stores/str0396.jpg","https://www.dillards.com/stores/jefferson-mall-louisville-kentucky/0396"
"245","Dillards","Dillards Greenwood Mall in Bowling Green, Kentucky","2625 Scottsville Rd.","Bowling Green","KY","04210","Kenneth R. Flora","(270) 782-1111","10:00 AM","09:00 PM","10:00 AM","09:00 PM","10:00 AM","09:00 PM","10:00 AM","09:00 PM","10:00 AM","09:00 PM","10:00 AM","09:00 PM","12:00 PM","06:00 PM","https://www.dillards.com/assets/img/stores/str0385.jpg","https://www.dillards.com/stores/greenwood-mall-bowling-green-kentucky/0385"
"246","Dillards","Dillards Crestview Hills Town Cent in Crestview Hills, Kentucky","2900 Town Center Blvd","Crestview Hills","KY","04101","Jeffrey S. Curtis","(859) 344-2795","10:00 AM","09:00 PM","10:00 AM","09:00 PM","10:00 AM","09:00 PM","10:00 AM","09:00 PM","10:00 AM","09:00 PM","10:00 AM","09:00 PM","12:00 PM","06:00 PM","https://www.dillards.com/assets/img/stores/str0355.jpg","https://www.dillards.com/stores/crestview-hills-town-cent-crestview-hills-kentucky/0355"
"247","Dillards","Dillards Towne East Square in Wichita, Kansas","7700 East Kellogg","Wichita","KS","06720","Thomas A. Barnett","(316) 685-0341","10:00 AM","09:00 PM","10:00 AM","09:00 PM","10:00 AM","09:00 PM","10:00 AM","09:00 PM","10:00 AM","09:00 PM","10:00 AM","09:00 PM","12:00 PM","06:00 PM","https://www.dillards.com/assets/img/stores/str0330.jpg","https://www.dillards.com/stores/towne-east-square-wichita-kansas/0330"
"248","Dillards","Dillards West Ridge Mall in Topeka, Kansas","1791 Sw Wanamaker Road","Topeka","KS","06660","Brian N. Buller","(785) 273-5451","10:00 AM","09:00 PM","10:00 AM","09:00 PM","10:00 AM","09:00 PM","10:00 AM","09:00 PM","10:00 AM","09:00 PM","10:00 AM","09:00 PM","12:00 PM","06:00 PM","https://www.dillards.com/assets/img/stores/str0336.jpg","https://www.dillards.com/stores/west-ridge-mall-topeka-kansas/0336"
"249","Dillards","Dillards Central Mall in Salina, Kansas","2259 South 9th","Salina","KS","06740","Vicki L. Price","(785) 823-3553","11:00 AM","07:00 PM","11:00 AM","07:00 PM","11:00 AM","07:00 PM","11:00 AM","07:00 PM","11:00 AM","07:00 PM","11:00 AM","07:00 PM","12:00 PM","06:00 PM","https://www.dillards.com/assets/img/stores/str0334.jpg","https://www.dillards.com/stores/central-mall-salina-kansas/0334"
"250","Dillards","Dillards Manhattan Town Center in Manhattan, Kansas","102 Manhattan Town Center","Manhattan","KS","06650","David E. Cole","(785) 776-4224","10:00 AM","09:00 PM","10:00 AM","09:00 PM","10:00 AM","09:00 PM","10:00 AM","09:00 PM","10:00 AM","09:00 PM","10:00 AM","09:00 PM","12:00 PM","06:00 PM","https://www.dillards.com/assets/img/stores/str0335.jpg","https://www.dillards.com/stores/manhattan-town-center-manhattan-kansas/0335"
"251","Dillards","Dillards Jordan Creek in West Des Moines, Iowa","101 Jordan Creek Pkwy","West Des Moines","IA","05026","Alejandro A. Leon","(515) 440-2277","10:00 AM","09:00 PM","10:00 AM","09:00 PM","10:00 AM","09:00 PM","10:00 AM","09:00 PM","10:00 AM","09:00 PM","10:00 AM","09:00 PM","11:00 AM","06:00 PM","https://www.dillards.com/assets/img/stores/str0340.jpg","https://www.dillards.com/stores/jordan-creek-west-des-moines-iowa/0340"
"252","Dillards","Dillards Crossroads Center in Waterloo, Iowa","2060 Crossroads Blvd Ste 300","Waterloo","IA","05070","Amanda C. Macquarrie","(319) 232-6668","10:00 AM","09:00 PM","10:00 AM","09:00 PM","10:00 AM","09:00 PM","10:00 AM","09:00 PM","10:00 AM","09:00 PM","10:00 AM","09:00 PM","12:00 PM","06:00 PM","https://www.dillards.com/assets/img/stores/str0347.jpg","https://www.dillards.com/stores/crossroads-center-waterloo-iowa/0347"
"253","Dillards","Dillards Northpark Mall in Davenport, Iowa","320 W Kimberly Rd","Davenport","IA","05280","Bridget J. Miller","(563) 388-7954","10:00 AM","09:00 PM","10:00 AM","09:00 PM","10:00 AM","09:00 PM","10:00 AM","09:00 PM","10:00 AM","09:00 PM","10:00 AM","09:00 PM","12:00 PM","06:00 PM","https://www.dillards.com/assets/img/stores/str0348.jpg","https://www.dillards.com/stores/northpark-mall-davenport-iowa/0348"
"254","Dillards","Dillards Mall Of The Bluffs in Council Bluffs, Iowa","1751 Madison Ave.","Council Bluffs","IA","05150","Danel L. Petersen","(712) 323-1003","Closed","Closed","12:00 PM","07:00 PM","12:00 PM","07:00 PM","12:00 PM","07:00 PM","12:00 PM","07:00 PM","12:00 PM","07:00 PM","12:00 PM","06:00 PM","https://www.dillards.com/assets/img/stores/str0524.jpg","https://www.dillards.com/stores/mall-of-the-bluffs-council-bluffs-iowa/0524"
"255","Dillards","Dillards Coral Ridge Mall in Coralville, Iowa","1411 Coral Ridge Ave","Coralville","IA","05224","Andrew J. Niekrasz","(319) 499-6010","10:00 AM","09:00 PM","10:00 AM","09:00 PM","10:00 AM","09:00 PM","10:00 AM","09:00 PM","10:00 AM","09:00 PM","10:00 AM","09:00 PM","11:00 AM","06:00 PM","https://www.dillards.com/assets/img/stores/str0346.jpg","https://www.dillards.com/stores/coral-ridge-mall-coralville-iowa/0346"
"256","Dillards","Dillards Eastland Mall in Evansville, Indiana","800 N Green River Rd","Evansville","IN","04771","Justin L. Lytle","(812) 473-1583","10:00 AM","09:00 PM","10:00 AM","09:00 PM","10:00 AM","09:00 PM","10:00 AM","09:00 PM","10:00 AM","09:00 PM","10:00 AM","09:00 PM","12:00 PM","06:00 PM","https://www.dillards.com/assets/img/stores/str0394.jpg","https://www.dillards.com/stores/eastland-mall-evansville-indiana/0394"
"257","Dillards","Dillards Green Tree Mall in Clarksville, Indiana","757 Lewis And Clark Parkway","Clarksville","IN","04712","Vernon Torres","(812) 285-0161","10:00 AM","09:00 PM","10:00 AM","09:00 PM","10:00 AM","09:00 PM","10:00 AM","09:00 PM","10:00 AM","09:00 PM","10:00 AM","09:00 PM","12:00 PM","06:00 PM","https://www.dillards.com/assets/img/stores/str0395.jpg","https://www.dillards.com/stores/green-tree-mall-clarksville-indiana/0395"
"258","Dillards","Dillards Southpark Mall in Moline, Illinois","4500 16th Street","Moline","IL","06126","Kay M. Byers","(309) 797-1866","Closed","Closed","12:00 PM","07:00 PM","12:00 PM","07:00 PM","12:00 PM","07:00 PM","12:00 PM","07:00 PM","12:00 PM","07:00 PM","12:00 PM","06:00 PM","https://www.dillards.com/assets/img/stores/str0525.jpg","https://www.dillards.com/stores/southpark-mall-moline-illinois/0525"
"259","Dillards","Dillards Illinois Center in Marion, Illinois","3000 W. De Young Street","Marion","IL","06295","Donna M. Smith","(618) 993-6000","10:00 AM","09:00 PM","10:00 AM","09:00 PM","10:00 AM","09:00 PM","10:00 AM","09:00 PM","10:00 AM","09:00 PM","10:00 AM","09:00 PM","12:00 PM","06:00 PM","https://www.dillards.com/assets/img/stores/str0310.jpg","https://www.dillards.com/stores/illinois-center-marion-illinois/0310"
"260","Dillards","Dillards Richmond Square in Richmond, Indiana","3801 National Rd. East #733","Richmond","IN","04737","Ryan M. Kafury","(765) 966-8211","10:00 AM","09:00 PM","10:00 AM","09:00 PM","10:00 AM","09:00 PM","10:00 AM","09:00 PM","10:00 AM","09:00 PM","10:00 AM","09:00 PM","12:00 PM","06:00 PM","https://www.dillards.com/assets/img/stores/str0359.jpg","https://www.dillards.com/stores/richmond-square-richmond-indiana/0359"
"261","Dillards","Dillards St Clair Square in Fairview Heights, Illinois","275 St Clair Square","Fairview Heights","IL","06220","Crystal N. Hamilton","(618) 632-5000","10:00 AM","09:00 PM","10:00 AM","09:00 PM","10:00 AM","09:00 PM","10:00 AM","09:00 PM","10:00 AM","09:00 PM","10:00 AM","09:00 PM","12:00 PM","06:00 PM","https://www.dillards.com/assets/img/stores/str0306.jpg","https://www.dillards.com/stores/st-clair-square-fairview-heights-illinois/0306"
"262","Dillards","Dillards Sooner Mall in Norman, Oklahoma","3499 West Main","Norman","OK","07307","Coral R. Haun","(405) 329-2600","10:00 AM","09:00 PM","10:00 AM","09:00 PM","10:00 AM","09:00 PM","10:00 AM","09:00 PM","10:00 AM","09:00 PM","10:00 AM","09:00 PM","12:00 PM","06:00 PM","https://www.dillards.com/assets/img/stores/str0798.jpg","https://www.dillards.com/stores/sooner-mall-norman-oklahoma/0798"
"263","Dillards","Dillards Cottonwood Mall in Albuquerque, New Mexico","10000 Coors Bypass","Albuquerque","NM","08711","Jon J. Notz","(505) 898-2530","10:00 AM","09:00 PM","10:00 AM","09:00 PM","10:00 AM","09:00 PM","10:00 AM","09:00 PM","10:00 AM","09:00 PM","10:00 AM","09:00 PM","12:00 PM","06:00 PM","https://www.dillards.com/assets/img/stores/str0920.jpg","https://www.dillards.com/stores/cottonwood-mall-albuquerque-new-mexico/0920"
"264","Dillards","Dillards Boise Towne Square in Boise, Idaho","350 North Milwaukee","Boise","ID","08370","Larry A. Bly","(208) 321-4646","10:00 AM","09:00 PM","10:00 AM","09:00 PM","10:00 AM","09:00 PM","10:00 AM","09:00 PM","10:00 AM","09:00 PM","10:00 AM","09:00 PM","12:00 PM","06:00 PM","https://www.dillards.com/assets/img/stores/str0934.jpg","https://www.dillards.com/stores/boise-towne-square-boise-idaho/0934"
"265","Dillards","Dillards The Forum At Ashley Park in Newnan, Georgia","370 Newnan Crossing Bypass","Newnan","GA","03026","Shawn A. Laurence","(770) 254-0166","10:00 AM","09:00 PM","10:00 AM","09:00 PM","10:00 AM","09:00 PM","10:00 AM","09:00 PM","10:00 AM","09:00 PM","10:00 AM","09:00 PM","12:00 PM","07:00 PM","https://www.dillards.com/assets/img/stores/str0266.jpg","https://www.dillards.com/stores/the-forum-at-ashley-park-newnan-georgia/0266"
"266","Dillards","Dillards Shoppes At River Crossing in Macon, Georgia","5080 Riverside Drive","Macon","GA","03121","Clayton D. Stauter","(478) 474-4545","10:00 AM","09:00 PM","10:00 AM","09:00 PM","10:00 AM","09:00 PM","10:00 AM","09:00 PM","10:00 AM","09:00 PM","10:00 AM","09:00 PM","12:00 PM","06:00 PM","https://www.dillards.com/assets/img/stores/str0268.jpg","https://www.dillards.com/stores/shoppes-at-river-crossing-macon-georgia/0268"
"267","Dillards","Dillards Stonecrest Mall in Lithonia, Georgia","8000 Mall Parkway","Lithonia","GA","03003","Caleb Z. Lottes","(770) 666-0000","10:00 AM","09:00 PM","10:00 AM","09:00 PM","10:00 AM","09:00 PM","10:00 AM","09:00 PM","10:00 AM","09:00 PM","10:00 AM","09:00 PM","12:00 PM","07:00 PM","https://www.dillards.com/assets/img/stores/str0263.jpg","https://www.dillards.com/stores/stonecrest-mall-lithonia-georgia/0263"
"268","Dillards","Dillards Arbor Place in Douglasville, Georgia","6720 Douglas Blvd","Douglasville","GA","03013","John R. McDuffie","(770) 577-4271","10:00 AM","09:00 PM","10:00 AM","09:00 PM","10:00 AM","09:00 PM","10:00 AM","09:00 PM","10:00 AM","09:00 PM","10:00 AM","09:00 PM","12:00 PM","07:00 PM","https://www.dillards.com/assets/img/stores/str0262.jpg","https://www.dillards.com/stores/arbor-place-douglasville-georgia/0262"
"269","Dillards","Dillards Savannah Mall in Savannah, Georgia","14025 Abercorn St","Savannah","GA","03141","Matthew D. Franklin","(912) 920-9000","10:00 AM","09:00 PM","10:00 AM","09:00 PM","10:00 AM","09:00 PM","10:00 AM","09:00 PM","10:00 AM","09:00 PM","10:00 AM","09:00 PM","12:00 PM","06:00 PM","https://www.dillards.com/assets/img/stores/str0277.jpg","https://www.dillards.com/stores/savannah-mall-savannah-georgia/0277"
"270","Dillards","Dillards Augusta Mall in Augusta, Georgia","3450 Wrightsboro Rd","Augusta","GA","03090","Gw Shawn Ulrich","(706) 481-0600","10:00 AM","09:00 PM","10:00 AM","09:00 PM","10:00 AM","09:00 PM","10:00 AM","09:00 PM","10:00 AM","09:00 PM","10:00 AM","09:00 PM","12:00 PM","06:00 PM","https://www.dillards.com/assets/img/stores/str0267.jpg","https://www.dillards.com/stores/augusta-mall-augusta-georgia/0267"
"271","Dillards","Dillards Atlantic Station in Atlanta, Georgia","1371 Market Street","Atlanta","GA","03036","Jesse D. Velazquez","(404) 879-0635","10:00 AM","09:00 PM","10:00 AM","09:00 PM","10:00 AM","09:00 PM","10:00 AM","09:00 PM","10:00 AM","09:00 PM","10:00 AM","09:00 PM","12:00 PM","07:00 PM","https://www.dillards.com/assets/img/stores/str0265.jpg","https://www.dillards.com/stores/atlantic-station-atlanta-georgia/0265"
"272","Dillards","Dillards Perimeter Mall in Atlanta, Georgia","4500 Ashford Dunwoody Rd","Atlanta","GA","03034",NA,"(678) 320-9140","10:00 AM","09:00 PM","10:00 AM","09:00 PM","10:00 AM","09:00 PM","10:00 AM","09:00 PM","10:00 AM","09:00 PM","10:00 AM","09:00 PM","12:00 PM","07:00 PM","https://www.dillards.com/assets/img/stores/str0264.jpg","https://www.dillards.com/stores/perimeter-mall-atlanta-georgia/0264"
"273","Dillards","Dillards Albany Mall in Albany, Georgia","2601 Dawson Rd","Albany","GA","03170","David M. Pursley","(229) 883-7900","10:00 AM","09:00 PM","10:00 AM","09:00 PM","10:00 AM","09:00 PM","10:00 AM","09:00 PM","10:00 AM","09:00 PM","10:00 AM","09:00 PM","12:00 PM","06:00 PM","https://www.dillards.com/assets/img/stores/str0276.jpg","https://www.dillards.com/stores/albany-mall-albany-georgia/0276"
"274","Dillards","Dillards Peachtree Mall in Columbus, Georgia","3247 Manchester Expressway","Columbus","GA","03190","Patricia G. Franklin","(706) 324-7272","10:00 AM","09:00 PM","10:00 AM","09:00 PM","10:00 AM","09:00 PM","10:00 AM","09:00 PM","10:00 AM","09:00 PM","10:00 AM","09:00 PM","12:00 PM","06:00 PM","https://www.dillards.com/assets/img/stores/str0275.jpg","https://www.dillards.com/stores/peachtree-mall-columbus-georgia/0275"
"275","Dillards","Dillards Wiregrass in Wesley Chapel, Florida","28335 Paseo Dr","Wesley Chapel","FL","03354","Susan K. Appleby","(813) 991-1352","10:00 AM","09:00 PM","10:00 AM","09:00 PM","10:00 AM","09:00 PM","10:00 AM","09:00 PM","10:00 AM","09:00 PM","10:00 AM","09:00 PM","12:00 PM","06:00 PM","https://www.dillards.com/assets/img/stores/str0208.jpg","https://www.dillards.com/stores/wiregrass-wesley-chapel-florida/0208"
"276","Dillards","Dillards Wellington Green in Wellington, Florida","10304 Forest Hill Blvd","Wellington","FL","03341","Jackie W. Whelchel","(561) 227-5470","10:00 AM","09:00 PM","10:00 AM","09:00 PM","10:00 AM","09:00 PM","10:00 AM","09:00 PM","10:00 AM","09:00 PM","10:00 AM","09:00 PM","12:00 PM","06:00 PM","https://www.dillards.com/assets/img/stores/str0256.jpg","https://www.dillards.com/stores/wellington-green-wellington-florida/0256"
"277","Dillards","Dillards University Square in Tampa, Florida","2201 University Square Mall","Tampa","FL","03361","Walter Soto","(813) 977-8080","Closed","Closed","12:00 PM","07:00 PM","12:00 PM","07:00 PM","12:00 PM","07:00 PM","12:00 PM","07:00 PM","12:00 PM","07:00 PM","12:00 PM","06:00 PM","https://www.dillards.com/assets/img/stores/str0512.jpg","https://www.dillards.com/stores/university-square-tampa-florida/0512"
"278","Dillards","Dillards Indian River in Vero Beach, Florida","6200 20th Street","Vero Beach","FL","03296","Lisa A. Huddy","(772) 770-2141","10:00 AM","09:00 PM","10:00 AM","09:00 PM","10:00 AM","09:00 PM","10:00 AM","09:00 PM","10:00 AM","09:00 PM","10:00 AM","09:00 PM","12:00 PM","06:00 PM","https://www.dillards.com/assets/img/stores/str0244.jpg","https://www.dillards.com/stores/indian-river-vero-beach-florida/0244"
"279","Dillards","Dillards Citrus Park Town Center in Tampa, Florida","8161 Citrus Park Town Ctr Mall","Tampa","FL","03362","Christopher L. Henry","(813) 926-4545","10:00 AM","09:00 PM","10:00 AM","09:00 PM","10:00 AM","09:00 PM","10:00 AM","09:00 PM","10:00 AM","09:00 PM","10:00 AM","09:00 PM","12:00 PM","06:00 PM","https://www.dillards.com/assets/img/stores/str0203.jpg","https://www.dillards.com/stores/citrus-park-town-center-tampa-florida/0203"
"280","Dillards","Dillards Governors Square in Tallahassee, Florida","1500 Apalachee Parkway","Tallahassee","FL","03230","Kim C. Spinks","(850) 671-2000","10:00 AM","09:00 PM","10:00 AM","09:00 PM","10:00 AM","09:00 PM","10:00 AM","09:00 PM","10:00 AM","09:00 PM","10:00 AM","09:00 PM","12:00 PM","06:00 PM","https://www.dillards.com/assets/img/stores/str0243.jpg","https://www.dillards.com/stores/governors-square-tallahassee-florida/0243"
"281","Dillards","Dillards Turtle Creek in Hattiesburg, Mississippi","1000 Turtle Creek Drive","Hattiesburg","MS","03940","Charles G. Bryant","(601) 268-6700","10:00 AM","09:00 PM","10:00 AM","09:00 PM","10:00 AM","09:00 PM","10:00 AM","09:00 PM","10:00 AM","09:00 PM","10:00 AM","09:00 PM","12:00 PM","06:00 PM","https://www.dillards.com/assets/img/stores/str0759.jpg","https://www.dillards.com/stores/turtle-creek-hattiesburg-mississippi/0759"
"282","Dillards","Dillards South County Center in St. Louis, Missouri","220 South County Center","St. Louis","MO","06312","Leslie M. Page","(314) 487-1600","10:00 AM","09:00 PM","10:00 AM","09:00 PM","10:00 AM","09:00 PM","10:00 AM","09:00 PM","10:00 AM","09:00 PM","10:00 AM","09:00 PM","12:00 PM","06:00 PM","https://www.dillards.com/assets/img/stores/str0305.jpg","https://www.dillards.com/stores/south-county-center-st.-louis-missouri/0305"
"283","Dillards","Dillards Seminole Towne Center in Sanford, Florida","300 Town Center Circle","Sanford","FL","03277","David J. Romano","(407) 330-1775","10:00 AM","09:00 PM","10:00 AM","09:00 PM","10:00 AM","09:00 PM","10:00 AM","09:00 PM","10:00 AM","09:00 PM","10:00 AM","09:00 PM","12:00 PM","06:00 PM","https://www.dillards.com/assets/img/stores/str0224.jpg","https://www.dillards.com/stores/seminole-towne-center-sanford-florida/0224"
"284","Dillards","Dillards University Town Center in Sarasota, Florida","200 University Town Center","Sarasota","FL","03424","""Phillip D. ONan","(941) 527-4878","10:00 AM","09:00 PM","10:00 AM","09:00 PM","10:00 AM","09:00 PM","10:00 AM","09:00 PM","10:00 AM","09:00 PM","10:00 AM","09:00 PM","12:00 PM","06:00 PM","https://www.dillards.com/assets/img/stores/str0213.jpg","https://www.dillards.com/stores/university-town-center-sarasota-florida/0213"
"285","Dillards","Dillards Gulfview Square in Port Richey, Florida","9409 U.s. Highway 19","Port Richey","FL","03466","Kimberly A. Rogers","(727) 847-9393","10:00 AM","09:00 PM","10:00 AM","09:00 PM","10:00 AM","09:00 PM","10:00 AM","09:00 PM","10:00 AM","09:00 PM","10:00 AM","09:00 PM","12:00 PM","06:00 PM","https://www.dillards.com/assets/img/stores/str0207.jpg","https://www.dillards.com/stores/gulfview-square-port-richey-florida/0207"
"286","Dillards","Dillards Town Center in Port Charlotte, Florida","1441 Tamiami Trail","Port Charlotte","FL","03394","Karla S. Heidtman","(941) 255-1778","10:00 AM","09:00 PM","10:00 AM","09:00 PM","10:00 AM","09:00 PM","10:00 AM","09:00 PM","10:00 AM","09:00 PM","10:00 AM","09:00 PM","12:00 PM","06:00 PM","https://www.dillards.com/assets/img/stores/str0214.jpg","https://www.dillards.com/stores/town-center-port-charlotte-florida/0214"
"287","Dillards","Dillards Cordova Mall in Pensacola, Florida","5100 N 9th Ave.","Pensacola","FL","03250","Allen D. Gustason","(850) 476-3011","10:00 AM","09:00 PM","10:00 AM","09:00 PM","10:00 AM","09:00 PM","10:00 AM","09:00 PM","10:00 AM","09:00 PM","10:00 AM","09:00 PM","12:00 PM","06:00 PM","https://www.dillards.com/assets/img/stores/str0242.jpg","https://www.dillards.com/stores/cordova-mall-pensacola-florida/0242"
"288","Dillards","Dillards Broward Mall in Plantation, Florida","8000 W Broward Blvd Ste 150","Plantation","FL","03338","Bruce H. Brannon","(954) 370-8182","10:00 AM","09:00 PM","10:00 AM","09:00 PM","10:00 AM","09:00 PM","10:00 AM","09:00 PM","10:00 AM","09:00 PM","10:00 AM","09:00 PM","12:00 PM","06:00 PM","https://www.dillards.com/assets/img/stores/str0252.jpg","https://www.dillards.com/stores/broward-mall-plantation-florida/0252"
"289","Dillards","Dillards Pier Park in Panama City Beach, Florida","200 Pier Park Dr.","Panama City Beach","FL","03241","Rebecca L. Adams","(850) 234-2417","10:00 AM","09:00 PM","10:00 AM","09:00 PM","10:00 AM","09:00 PM","10:00 AM","09:00 PM","10:00 AM","09:00 PM","10:00 AM","09:00 PM","12:00 PM","06:00 PM","https://www.dillards.com/assets/img/stores/str0247.jpg","https://www.dillards.com/stores/pier-park-panama-city-beach-florida/0247"
"290","Dillards","Dillards Pembroke Lakes Mall in Pembroke Pines, Florida","11945 Pines Blvd","Pembroke Pines","FL","03302","Ralph L. Murawski Jr","(954) 450-8661","10:00 AM","09:00 PM","10:00 AM","09:00 PM","10:00 AM","09:00 PM","10:00 AM","09:00 PM","10:00 AM","09:00 PM","10:00 AM","09:00 PM","12:00 PM","06:00 PM","https://www.dillards.com/assets/img/stores/str0253.jpg","https://www.dillards.com/stores/pembroke-lakes-mall-pembroke-pines-florida/0253"
"291","Dillards","Dillards The Market Place in Oviedo, Florida","1000 Oviedo Marketplace Blvd","Oviedo","FL","03276","Katrina T. Piumelli","(407) 977-9996","10:00 AM","09:00 PM","10:00 AM","09:00 PM","10:00 AM","09:00 PM","10:00 AM","09:00 PM","10:00 AM","09:00 PM","10:00 AM","09:00 PM","12:00 PM","06:00 PM","https://www.dillards.com/assets/img/stores/str0222.jpg","https://www.dillards.com/stores/the-market-place-oviedo-florida/0222"
"292","Dillards","Dillards Panama City Mall in Panama City, Florida","2298 Martin Luther King Blvd","Panama City","FL","03240","Jay T. Walker","(850) 769-7671","10:00 AM","09:00 PM","10:00 AM","09:00 PM","10:00 AM","09:00 PM","10:00 AM","09:00 PM","10:00 AM","09:00 PM","10:00 AM","09:00 PM","12:00 PM","06:00 PM","https://www.dillards.com/assets/img/stores/str0248.jpg","https://www.dillards.com/stores/panama-city-mall-panama-city-florida/0248"
"293","Dillards","Dillards Fashion Square in Orlando, Florida","3403 E. Colonial Dr.","Orlando","FL","03280","Roy Kirk","(407) 896-1211","Closed","Closed","12:00 PM","07:00 PM","12:00 PM","07:00 PM","12:00 PM","07:00 PM","12:00 PM","07:00 PM","12:00 PM","07:00 PM","12:00 PM","06:00 PM","https://www.dillards.com/assets/img/stores/str0515.jpg","https://www.dillards.com/stores/fashion-square-orlando-florida/0515"
"294","Dillards","Dillards Florida Mall in Orlando, Florida","8001 S. Orange Blossom Trail","Orlando","FL","03280","Zeb R. Duzan","(407) 240-1771","10:00 AM","09:00 PM","10:00 AM","09:00 PM","10:00 AM","09:00 PM","10:00 AM","09:00 PM","10:00 AM","09:00 PM","10:00 AM","09:00 PM","12:00 PM","06:00 PM","https://www.dillards.com/assets/img/stores/str0221.jpg","https://www.dillards.com/stores/florida-mall-orlando-florida/0221"
"295","Dillards","Dillards Orange Park in Orange Park, Florida","1910 Wells Road","Orange Park","FL","03207","Mirsad Hadziabdic","(904) 269-2222","10:00 AM","09:00 PM","10:00 AM","09:00 PM","10:00 AM","09:00 PM","10:00 AM","09:00 PM","10:00 AM","09:00 PM","10:00 AM","09:00 PM","12:00 PM","06:00 PM","https://www.dillards.com/assets/img/stores/str0232.jpg","https://www.dillards.com/stores/orange-park-orange-park-florida/0232"
"296","Dillards","Dillards West Oaks in Ocoee, Florida","9403 West Colonial Dr.","Ocoee","FL","03476","Susan E. Ngo","(407) 292-6866","Closed","Closed","12:00 PM","07:00 PM","12:00 PM","07:00 PM","12:00 PM","07:00 PM","12:00 PM","07:00 PM","12:00 PM","07:00 PM","12:00 PM","06:00 PM","https://www.dillards.com/assets/img/stores/str0516.jpg","https://www.dillards.com/stores/west-oaks-ocoee-florida/0516"
"297","Dillards","Dillards Market Street in Ocala, Florida","4414 S. W. College Rd","Ocala","FL","03447","Katrina N. Nicholls","(352) 629-9266","10:00 AM","09:00 PM","10:00 AM","09:00 PM","10:00 AM","09:00 PM","10:00 AM","09:00 PM","10:00 AM","09:00 PM","10:00 AM","09:00 PM","12:00 PM","06:00 PM","https://www.dillards.com/assets/img/stores/str0229.jpg","https://www.dillards.com/stores/market-street-ocala-florida/0229"
"298","Dillards","Dillards Coastland Center in Naples, Florida","1798 Tamiami Trail North","Naples","FL","03410","Edward M. White","(239) 261-4100","10:00 AM","09:00 PM","10:00 AM","09:00 PM","10:00 AM","09:00 PM","10:00 AM","09:00 PM","10:00 AM","09:00 PM","10:00 AM","09:00 PM","12:00 PM","06:00 PM","https://www.dillards.com/assets/img/stores/str0216.jpg","https://www.dillards.com/stores/coastland-center-naples-florida/0216"
"299","Dillards","Dillards Melbourne Square in Melbourne, Florida","1700 W. New Haven Ave.","Melbourne","FL","03290","Donna L. Granger","(321) 676-1300","10:00 AM","09:00 PM","10:00 AM","09:00 PM","10:00 AM","09:00 PM","10:00 AM","09:00 PM","10:00 AM","09:00 PM","10:00 AM","09:00 PM","12:00 PM","06:00 PM","https://www.dillards.com/assets/img/stores/str0237.jpg","https://www.dillards.com/stores/melbourne-square-melbourne-florida/0237"
"300","Dillards","Dillards Santa Rosa Mall in Mary Esther, Florida","300 Mary Esther Blvd","Mary Esther","FL","03256","Daniel A. Ziemba","(850) 244-7111","10:00 AM","09:00 PM","10:00 AM","09:00 PM","10:00 AM","09:00 PM","10:00 AM","09:00 PM","10:00 AM","09:00 PM","10:00 AM","09:00 PM","12:00 PM","06:00 PM","https://www.dillards.com/assets/img/stores/str0246.jpg","https://www.dillards.com/stores/santa-rosa-mall-mary-esther-florida/0246"
"301","Dillards","Dillards Merritt Square in Merritt Island, Florida","777 E Merritt Island Causeway","Merritt Island","FL","03295","Colleen W. Truitt","(321) 452-6411","10:00 AM","09:00 PM","10:00 AM","09:00 PM","10:00 AM","09:00 PM","10:00 AM","09:00 PM","10:00 AM","09:00 PM","10:00 AM","09:00 PM","12:00 PM","06:00 PM","https://www.dillards.com/assets/img/stores/str0236.jpg","https://www.dillards.com/stores/merritt-square-merritt-island-florida/0236"
"302","Dillards","Dillards Lakeland Square in Lakeland, Florida","3800 Us Highway 98 North","Lakeland","FL","03380","Anthony M. Rivera","(863) 859-2000","10:00 AM","09:00 PM","10:00 AM","09:00 PM","10:00 AM","09:00 PM","10:00 AM","09:00 PM","10:00 AM","09:00 PM","10:00 AM","09:00 PM","12:00 PM","06:00 PM","https://www.dillards.com/assets/img/stores/str0209.jpg","https://www.dillards.com/stores/lakeland-square-lakeland-florida/0209"
"303","Dillards","Dillards Eagle Ridge Center in Lake Wales, Florida","100 Eagle Ridge Dr","Lake Wales","FL","03385","Marlene F. Cabot","(863) 676-7646","10:00 AM","09:00 PM","10:00 AM","09:00 PM","10:00 AM","09:00 PM","10:00 AM","09:00 PM","10:00 AM","09:00 PM","10:00 AM","09:00 PM","12:00 PM","06:00 PM","https://www.dillards.com/assets/img/stores/str0210.jpg","https://www.dillards.com/stores/eagle-ridge-center-lake-wales-florida/0210"
"304","Dillards","Dillards Regency Square in Jacksonville, Florida","9501 Arlington Expressway","Jacksonville","FL","03222","David J. Sadowski","(904) 721-9166","Closed","Closed","12:00 PM","07:00 PM","12:00 PM","07:00 PM","12:00 PM","07:00 PM","12:00 PM","07:00 PM","12:00 PM","07:00 PM","12:00 PM","06:00 PM","https://www.dillards.com/assets/img/stores/str0511.jpg","https://www.dillards.com/stores/regency-square-jacksonville-florida/0511"
"305","Dillards","Dillards The Avenues in Jacksonville, Florida","10300 Southside Blvd.","Jacksonville","FL","03225","Susan M. Lawson","(904) 363-6115","10:00 AM","09:00 PM","10:00 AM","09:00 PM","10:00 AM","09:00 PM","10:00 AM","09:00 PM","10:00 AM","09:00 PM","10:00 AM","09:00 PM","12:00 PM","06:00 PM","https://www.dillards.com/assets/img/stores/str0233.jpg","https://www.dillards.com/stores/the-avenues-jacksonville-florida/0233"
"306","Dillards","Dillards Treasure Coast Square in Jensen Beach, Florida","3210 N.w. Federal Hwy","Jensen Beach","FL","03495","Tiffany A. Lobdill","(772) 692-0555","10:00 AM","09:00 PM","10:00 AM","09:00 PM","10:00 AM","09:00 PM","10:00 AM","09:00 PM","10:00 AM","09:00 PM","10:00 AM","09:00 PM","12:00 PM","06:00 PM","https://www.dillards.com/assets/img/stores/str0238.jpg","https://www.dillards.com/stores/treasure-coast-square-jensen-beach-florida/0238"
"307","Dillards","Dillards St Johns Town Center in Jacksonville, Florida","4755 Town Crossing Drive","Jacksonville","FL","03224","Rodger D. Woika","(904) 641-0471","10:00 AM","09:00 PM","10:00 AM","09:00 PM","10:00 AM","09:00 PM","10:00 AM","09:00 PM","10:00 AM","09:00 PM","10:00 AM","09:00 PM","12:00 PM","07:00 PM","https://www.dillards.com/assets/img/stores/str0230.jpg","https://www.dillards.com/stores/st-johns-town-center-jacksonville-florida/0230"
"308","Dillards","Dillards Oaks Mall in Gainesville, Florida","6495 West Newberry Road","Gainesville","FL","03260","Ryan D. Brown","(352) 331-1455","10:00 AM","09:00 PM","10:00 AM","09:00 PM","10:00 AM","09:00 PM","10:00 AM","09:00 PM","10:00 AM","09:00 PM","10:00 AM","09:00 PM","12:00 PM","06:00 PM","https://www.dillards.com/assets/img/stores/str0234.jpg","https://www.dillards.com/stores/oaks-mall-gainesville-florida/0234"
"311","Dillards","Dillards Edison Mall in Ft. Myers, Florida","4125 Cleveland Ave","Ft. Myers","FL","03390","Hilbert R. Payton","(239) 936-1441","10:00 AM","09:00 PM","10:00 AM","09:00 PM","10:00 AM","09:00 PM","10:00 AM","09:00 PM","10:00 AM","09:00 PM","10:00 AM","09:00 PM","12:00 PM","06:00 PM","https://www.dillards.com/assets/img/stores/str0215.jpg","https://www.dillards.com/stores/edison-mall-ft.-myers-florida/0215"
"316","Dillards","Dillards Turtle Creek in Jonesboro, Arkansas","3000 E. Highland","Jonesboro","AR","07240","Mike M. Al-Darwish","(870) 932-6300","10:00 AM","09:00 PM","10:00 AM","09:00 PM","10:00 AM","09:00 PM","10:00 AM","09:00 PM","10:00 AM","09:00 PM","10:00 AM","09:00 PM","12:00 PM","06:00 PM","https://www.dillards.com/assets/img/stores/str0406.jpg","https://www.dillards.com/stores/turtle-creek-jonesboro-arkansas/0406"
"317","Dillards","Dillards Hot Springs Mall in Hot Springs, Arkansas","4501 Central Ave Suite 102","Hot Springs","AR","07191","Patrick N. Jackson","(501) 525-4501","10:00 AM","09:00 PM","10:00 AM","09:00 PM","10:00 AM","09:00 PM","10:00 AM","09:00 PM","10:00 AM","09:00 PM","10:00 AM","09:00 PM","12:00 PM","06:00 PM","https://www.dillards.com/assets/img/stores/str0402.jpg","https://www.dillards.com/stores/hot-springs-mall-hot-springs-arkansas/0402"
"318","Dillards","Dillards Central Mall in Fort Smith, Arkansas","5111 Rogers Avenue","Fort Smith","AR","07290","Gary L. King","(479) 484-5700","10:00 AM","09:00 PM","10:00 AM","09:00 PM","10:00 AM","09:00 PM","10:00 AM","09:00 PM","10:00 AM","09:00 PM","10:00 AM","09:00 PM","12:00 PM","06:00 PM","https://www.dillards.com/assets/img/stores/str0413.jpg","https://www.dillards.com/stores/central-mall-fort-smith-arkansas/0413"
"319","Dillards","Dillards Northwest Arkansas Plaza in Fayetteville, Arkansas","4201 N Shiloh","Fayetteville","AR","07270","Jerry A. Blaich","(479) 521-7171","10:00 AM","09:00 PM","10:00 AM","09:00 PM","10:00 AM","09:00 PM","10:00 AM","09:00 PM","10:00 AM","09:00 PM","10:00 AM","09:00 PM","12:00 PM","06:00 PM","https://www.dillards.com/assets/img/stores/str0403.jpg","https://www.dillards.com/stores/northwest-arkansas-plaza-fayetteville-arkansas/0403"
"320","Dillards","Dillards Yuma Palms in Yuma, Arizona","1461 South Yuma Palms Parkway","Yuma","AZ","08536","John H. Boehler","(928) 329-4722","10:00 AM","09:00 PM","10:00 AM","09:00 PM","10:00 AM","09:00 PM","10:00 AM","09:00 PM","10:00 AM","09:00 PM","10:00 AM","09:00 PM","12:00 PM","06:00 PM","https://www.dillards.com/assets/img/stores/str0918.jpg","https://www.dillards.com/stores/yuma-palms-yuma-arizona/0918"
"321","Dillards","Dillards Tucson Mall in Tucson, Arizona","4550 North Oracle Rd","Tucson","AZ","08570","Steve Dohm","(520) 293-4550","10:00 AM","09:00 PM","10:00 AM","09:00 PM","10:00 AM","09:00 PM","10:00 AM","09:00 PM","10:00 AM","09:00 PM","10:00 AM","09:00 PM","12:00 PM","06:00 PM","https://www.dillards.com/assets/img/stores/str0915.jpg","https://www.dillards.com/stores/tucson-mall-tucson-arizona/0915"
"322","Dillards","Dillards Towne West Mall in Wichita, Kansas","4600 W Kellogg","Wichita","KS","06720","Licia A. McIver","(316) 943-8031","Closed","Closed","12:00 PM","07:00 PM","12:00 PM","07:00 PM","12:00 PM","07:00 PM","12:00 PM","07:00 PM","12:00 PM","07:00 PM","12:00 PM","06:00 PM","https://www.dillards.com/assets/img/stores/str0522.jpg","https://www.dillards.com/stores/towne-west-mall-wichita-kansas/0522"
"323","Dillards","Dillards Fashion Square in Scottsdale, Arizona","6900 East Camelback Road","Scottsdale","AZ","08525","Margaret S. Maddox","(480) 949-5869","10:00 AM","09:00 PM","10:00 AM","09:00 PM","10:00 AM","09:00 PM","10:00 AM","09:00 PM","10:00 AM","09:00 PM","10:00 AM","09:00 PM","12:00 PM","06:00 PM","https://www.dillards.com/assets/img/stores/str0902.jpg","https://www.dillards.com/stores/fashion-square-scottsdale-arizona/0902"
"324","Dillards","Dillards Oak Park Center in Overland Park, Kansas","11601 West 95th Street","Overland Park","KS","06621","Matthew C. Rodick","(913) 492-0666","10:00 AM","09:00 PM","10:00 AM","09:00 PM","10:00 AM","09:00 PM","10:00 AM","09:00 PM","10:00 AM","09:00 PM","10:00 AM","09:00 PM","11:00 AM","06:00 PM","https://www.dillards.com/assets/img/stores/str0322.jpg","https://www.dillards.com/stores/oak-park-center-overland-park-kansas/0322"
"325","Dillards","Dillards Desert Sky Mall in Phoenix, Arizona","7621 West Thomas Road","Phoenix","AZ","08503","Diane K. Mills","(623) 849-0100","10:00 AM","09:00 PM","10:00 AM","09:00 PM","10:00 AM","09:00 PM","10:00 AM","09:00 PM","10:00 AM","09:00 PM","10:00 AM","09:00 PM","12:00 PM","06:00 PM","https://www.dillards.com/assets/img/stores/str0906.jpg","https://www.dillards.com/stores/desert-sky-mall-phoenix-arizona/0906"
"326","Dillards","Dillards Paradise Valley Mall in Phoenix, Arizona","4610 East Cactus Road","Phoenix","AZ","08503","Carrie C. Hudson","(602) 953-9600","10:00 AM","09:00 PM","10:00 AM","09:00 PM","10:00 AM","09:00 PM","10:00 AM","09:00 PM","10:00 AM","09:00 PM","10:00 AM","09:00 PM","12:00 PM","06:00 PM","https://www.dillards.com/assets/img/stores/str0904.jpg","https://www.dillards.com/stores/paradise-valley-mall-phoenix-arizona/0904"
"327","Dillards","Dillards Metro Center in Phoenix, Arizona","10002 Metro Parkway East","Phoenix","AZ","08505","Leonard P. Rando","(602) 861-2241","Closed","Closed","12:00 PM","07:00 PM","12:00 PM","07:00 PM","12:00 PM","07:00 PM","12:00 PM","07:00 PM","12:00 PM","07:00 PM","12:00 PM","06:00 PM","https://www.dillards.com/assets/img/stores/str0502.jpg","https://www.dillards.com/stores/metro-center-phoenix-arizona/0502"
"328","Dillards","Dillards Superstition Springs Mall in Mesa, Arizona","6545 E. Southern Ave","Mesa","AZ","08520",NA,"(480) 832-1247","10:00 AM","09:00 PM","10:00 AM","09:00 PM","10:00 AM","09:00 PM","10:00 AM","09:00 PM","10:00 AM","09:00 PM","10:00 AM","09:00 PM","12:00 PM","06:00 PM","https://www.dillards.com/assets/img/stores/str0909.jpg","https://www.dillards.com/stores/superstition-springs-mall-mesa-arizona/0909"
"329","Dillards","Dillards Fiesta Mall in Mesa, Arizona","1435 West Southern Ave","Mesa","AZ","08520","Armando G. Arenibas","(480) 833-7777","Closed","Closed","12:00 PM","07:00 PM","12:00 PM","07:00 PM","12:00 PM","07:00 PM","12:00 PM","07:00 PM","12:00 PM","07:00 PM","12:00 PM","06:00 PM","https://www.dillards.com/assets/img/stores/str0501.jpg","https://www.dillards.com/stores/fiesta-mall-mesa-arizona/0501"
"330","Dillards","Dillards The Shops At Lake Havasu in Lake Havasu City, Arizona","5501 Highway 95 North","Lake Havasu City","AZ","08640","Virginia L. Lattion","(928) 764-1200","10:00 AM","09:00 PM","10:00 AM","09:00 PM","10:00 AM","09:00 PM","10:00 AM","09:00 PM","10:00 AM","09:00 PM","10:00 AM","09:00 PM","12:00 PM","06:00 PM","https://www.dillards.com/assets/img/stores/str0912.jpg","https://www.dillards.com/stores/the-shops-at-lake-havasu-lake-havasu-city-arizona/0912"
"331","Dillards","Dillards Arrowhead Towne Center in Glendale, Arizona","7800 W. Arrowhead Towne Center","Glendale","AZ","08530","Jeffery A. Marsh","(623) 979-1128","10:00 AM","09:00 PM","10:00 AM","09:00 PM","10:00 AM","09:00 PM","10:00 AM","09:00 PM","10:00 AM","09:00 PM","10:00 AM","09:00 PM","12:00 PM","06:00 PM","https://www.dillards.com/assets/img/stores/str0907.jpg","https://www.dillards.com/stores/arrowhead-towne-center-glendale-arizona/0907"
"332","Dillards","Dillards Santan Village in Gilbert, Arizona","2151 S. San Tan Village Pky","Gilbert","AZ","08529","Jeremy A. Fry","(480) 726-1512","10:00 AM","09:00 PM","10:00 AM","09:00 PM","10:00 AM","09:00 PM","10:00 AM","09:00 PM","10:00 AM","09:00 PM","10:00 AM","09:00 PM","12:00 PM","06:00 PM","https://www.dillards.com/assets/img/stores/str0910.jpg","https://www.dillards.com/stores/santan-village-gilbert-arizona/0910"
"333","Dillards","Dillards North Point Mall in Alpharetta, Georgia","7000 North Point Circle","Alpharetta","GA","03002","Jo Ann T. Duffee","(770) 410-9020","10:00 AM","09:00 PM","10:00 AM","09:00 PM","10:00 AM","09:00 PM","10:00 AM","09:00 PM","10:00 AM","09:00 PM","10:00 AM","09:00 PM","12:00 PM","07:00 PM","https://www.dillards.com/assets/img/stores/str0260.jpg","https://www.dillards.com/stores/north-point-mall-alpharetta-georgia/0260"
"334","Dillards","Dillards International Plaza in Tampa, Florida","2223 N Westshore Blvd","Tampa","FL","03360","Gary A. Platt","(813) 342-1220","10:00 AM","09:00 PM","10:00 AM","09:00 PM","10:00 AM","09:00 PM","10:00 AM","09:00 PM","10:00 AM","09:00 PM","10:00 AM","09:00 PM","12:00 PM","06:00 PM","https://www.dillards.com/assets/img/stores/str0201.jpg","https://www.dillards.com/stores/international-plaza-tampa-florida/0201"
"335","Dillards","Dillards Tyrone Square in St. Petersburg, Florida","6990 Tyrone Square","St. Petersburg","FL","03371","Sean T. McHugh","(727) 344-4611","10:00 AM","09:00 PM","10:00 AM","09:00 PM","10:00 AM","09:00 PM","10:00 AM","09:00 PM","10:00 AM","09:00 PM","10:00 AM","09:00 PM","12:00 PM","06:00 PM","https://www.dillards.com/assets/img/stores/str0205.jpg","https://www.dillards.com/stores/tyrone-square-st.-petersburg-florida/0205"
"336","Dillards","Dillards Promenade At Casa Grande in Casa Grande, Arizona","1117 N. Promenade Pky","Casa Grande","AZ","08519","Neil D. Hipolito","(520) 421-1141","10:00 AM","09:00 PM","10:00 AM","09:00 PM","10:00 AM","09:00 PM","10:00 AM","09:00 PM","10:00 AM","09:00 PM","10:00 AM","09:00 PM","12:00 PM","06:00 PM","https://www.dillards.com/assets/img/stores/str0917.jpg","https://www.dillards.com/stores/promenade-at-casa-grande-casa-grande-arizona/0917"
"337","Dillards","Dillards Eastern Shore Centre in Spanish Fort, Alabama","10101 Eastern Shore Blvd","Spanish Fort","AL","03652","Susan M. Damitio","(251) 621-2257","10:00 AM","09:00 PM","10:00 AM","09:00 PM","10:00 AM","09:00 PM","10:00 AM","09:00 PM","10:00 AM","09:00 PM","10:00 AM","09:00 PM","12:00 PM","06:00 PM","https://www.dillards.com/assets/img/stores/str0239.jpg","https://www.dillards.com/stores/eastern-shore-centre-spanish-fort-alabama/0239"
"338","Dillards","Dillards Quintard Mall in Oxford, Alabama","700 Quintard Dr","Oxford","AL","03620","William T. Polk","(256) 835-2819","10:00 AM","09:00 PM","10:00 AM","09:00 PM","10:00 AM","09:00 PM","10:00 AM","09:00 PM","10:00 AM","09:00 PM","10:00 AM","09:00 PM","12:00 PM","06:00 PM","https://www.dillards.com/assets/img/stores/str0416.jpg","https://www.dillards.com/stores/quintard-mall-oxford-alabama/0416"
"339","Dillards","Dillards The Shoppes At Eastchase in Montgomery, Alabama","7310 Eastchase Parkway","Montgomery","AL","03611","William D. Elliott","(334) 244-6442","10:00 AM","09:00 PM","10:00 AM","09:00 PM","10:00 AM","09:00 PM","10:00 AM","09:00 PM","10:00 AM","09:00 PM","10:00 AM","09:00 PM","12:00 PM","06:00 PM","https://www.dillards.com/assets/img/stores/str0418.jpg","https://www.dillards.com/stores/the-shoppes-at-eastchase-montgomery-alabama/0418"
"340","Dillards","Dillards Bel Air in Mobile, Alabama","3300 Bel Air Mall","Mobile","AL","03660","Sherry H. Angelle","(251) 471-1551","10:00 AM","09:00 PM","10:00 AM","09:00 PM","10:00 AM","09:00 PM","10:00 AM","09:00 PM","10:00 AM","09:00 PM","10:00 AM","09:00 PM","12:00 PM","06:00 PM","https://www.dillards.com/assets/img/stores/str0241.jpg","https://www.dillards.com/stores/bel-air-mobile-alabama/0241"
"341","Dillards","Dillards Parkway Place in Huntsville, Alabama","2801 Memorial Parkway Sw","Huntsville","AL","03580","Mary H. Davis","(256) 551-0179","10:00 AM","09:00 PM","10:00 AM","09:00 PM","10:00 AM","09:00 PM","10:00 AM","09:00 PM","10:00 AM","09:00 PM","10:00 AM","09:00 PM","12:00 PM","06:00 PM","https://www.dillards.com/assets/img/stores/str0460.jpg","https://www.dillards.com/stores/parkway-place-huntsville-alabama/0460"
"342","Dillards","Dillards Eastdale Mall in Montgomery, Alabama","3000 Eastdale Mall","Montgomery","AL","03611","Esau M. Smith","(334) 277-7200","Closed","Closed","12:00 PM","07:00 PM","12:00 PM","07:00 PM","12:00 PM","07:00 PM","12:00 PM","07:00 PM","12:00 PM","07:00 PM","12:00 PM","06:00 PM","https://www.dillards.com/assets/img/stores/str0514.jpg","https://www.dillards.com/stores/eastdale-mall-montgomery-alabama/0514"
"343","Dillards","Dillards Regency Square Mall in Florence, Alabama","301 Coxcreek Pkwy Ste #1100","Florence","AL","03563","Rhonda S. Pearson","(256) 766-8200","10:00 AM","09:00 PM","10:00 AM","09:00 PM","10:00 AM","09:00 PM","10:00 AM","09:00 PM","10:00 AM","09:00 PM","10:00 AM","09:00 PM","12:00 PM","06:00 PM","https://www.dillards.com/assets/img/stores/str0453.jpg","https://www.dillards.com/stores/regency-square-mall-florence-alabama/0453"
"344","Dillards","Dillards Wiregrass Commons in Dothan, Alabama","900 Commons Dr Suite 100","Dothan","AL","03630","Paul J. Caniglia","(334) 794-3300","10:00 AM","09:00 PM","10:00 AM","09:00 PM","10:00 AM","09:00 PM","10:00 AM","09:00 PM","10:00 AM","09:00 PM","10:00 AM","09:00 PM","12:00 PM","06:00 PM","https://www.dillards.com/assets/img/stores/str0274.jpg","https://www.dillards.com/stores/wiregrass-commons-dothan-alabama/0274"
"345","Dillards","Dillards Grand Teton Mall in Idaho Falls, Idaho","2420 E 17th St","Idaho Falls","ID","08340","Stephen W. Gentry","(208) 525-4000","10:00 AM","09:00 PM","10:00 AM","09:00 PM","10:00 AM","09:00 PM","10:00 AM","09:00 PM","10:00 AM","09:00 PM","10:00 AM","09:00 PM","12:00 PM","06:00 PM","https://www.dillards.com/assets/img/stores/str0936.jpg","https://www.dillards.com/stores/grand-teton-mall-idaho-falls-idaho/0936"
"346","Dillards","Dillards Mall At Sierra Vista in Sierra Vista, Arizona","3800 El Mercado Loop","Sierra Vista","AZ","08563","Joanna M. Johnson","(520) 515-0151","10:00 AM","09:00 PM","10:00 AM","09:00 PM","10:00 AM","09:00 PM","10:00 AM","09:00 PM","10:00 AM","09:00 PM","10:00 AM","09:00 PM","12:00 PM","06:00 PM","https://www.dillards.com/assets/img/stores/str0919.jpg","https://www.dillards.com/stores/mall-at-sierra-vista-sierra-vista-arizona/0919"
"347","Dillards","Dillards Park Place in Tucson, Arizona","5890 East Broadway Blvd","Tucson","AZ","08571","Ken J. Haley","(520) 747-4700","10:00 AM","09:00 PM","10:00 AM","09:00 PM","10:00 AM","09:00 PM","10:00 AM","09:00 PM","10:00 AM","09:00 PM","10:00 AM","09:00 PM","12:00 PM","06:00 PM","https://www.dillards.com/assets/img/stores/str0914.jpg","https://www.dillards.com/stores/park-place-tucson-arizona/0914"
"348","Dillards","Dillards Prescott Gateway in Prescott, Arizona","3100 Gateway Boulevard","Prescott","AZ","08630","Piper L. Barkley","(928) 717-1270","10:00 AM","09:00 PM","10:00 AM","09:00 PM","10:00 AM","09:00 PM","10:00 AM","09:00 PM","10:00 AM","09:00 PM","10:00 AM","09:00 PM","12:00 PM","06:00 PM","https://www.dillards.com/assets/img/stores/str0911.jpg","https://www.dillards.com/stores/prescott-gateway-prescott-arizona/0911"
"349","Dillards","Dillards Flagstaff Mall in Flagstaff, Arizona","4700 Us Highway 89 North","Flagstaff","AZ","08600","Rosibel I. Pleitez-Chabolla","(928) 526-5541","10:00 AM","09:00 PM","10:00 AM","09:00 PM","10:00 AM","09:00 PM","10:00 AM","09:00 PM","10:00 AM","09:00 PM","10:00 AM","09:00 PM","12:00 PM","06:00 PM","https://www.dillards.com/assets/img/stores/str0916.jpg","https://www.dillards.com/stores/flagstaff-mall-flagstaff-arizona/0916"
"350","Dillards","Dillards Chandler Fashion Center in Chandler, Arizona","3101 West Chandler Blvd","Chandler","AZ","08522","Lori L. Bieberle","(480) 735-2060","10:00 AM","09:00 PM","10:00 AM","09:00 PM","10:00 AM","09:00 PM","10:00 AM","09:00 PM","10:00 AM","09:00 PM","10:00 AM","09:00 PM","12:00 PM","06:00 PM","https://www.dillards.com/assets/img/stores/str0908.jpg","https://www.dillards.com/stores/chandler-fashion-center-chandler-arizona/0908"
