"","Store_Name","Name","Address","City","State","Zip","Manager","Telephone","Monday_Open","Monday_Close","Tuesday_Open","Tuesday_Close","Wednesday_Open","Wednesday_Close","Thursday_Open","Thursday_Close","Friday_Open","Friday_Close","Saturday_Open","Saturday_Close","Sunday_Open","Sunday_Close","Image_URL","URL"
"1","Nordstrom","Nordstrom in Providence","6 Providence Place","Providence","RI","02903","NA","(401) 621-3111","10:00 AM","09:30 PM","10:00 AM","09:30 PM","10:00 AM","09:30 PM","10:00 AM","09:30 PM","10:00 AM","09:30 PM","10:00 AM","09:30 PM","11:00 AM","07:00 PM","NA","https://www.mystore411.com/store/view/520205/Nordstrom-Providence"
"2","Nordstrom","Nordstrom in Los Angeles","10830 West Pico Boulevard","Los Angeles","CA","90064","NA","(310) 470-6155","10:00 AM","09:00 PM","10:00 AM","09:00 PM","10:00 AM","09:00 PM","10:00 AM","09:00 PM","10:00 AM","09:00 PM","10:00 AM","08:00 PM","11:00 AM","07:00 PM","NA","https://www.mystore411.com/store/view/520143/Nordstrom-Los-Angeles"
"3","Nordstrom","Nordstrom in San Diego","4321 La Jolla Village Drive","San Diego","CA","92122","NA","(858) 457-4575","10:00 AM","09:00 PM","10:00 AM","09:00 PM","10:00 AM","09:00 PM","10:00 AM","09:00 PM","10:00 AM","09:00 PM","10:00 AM","09:00 PM","11:00 AM","07:00 PM","NA","https://www.mystore411.com/store/view/520157/Nordstrom-San-Diego"
"4","Nordstrom","Nordstrom in Seattle","401 NE Northgate Way Suite #304","Seattle","WA","98125","NA","(206)641-3300","10:00 AM","09:30 PM","10:00 AM","09:30 PM","10:00 AM","09:30 PM","10:00 AM","09:30 PM","10:00 AM","09:30 PM","10:00 AM","09:30 PM","11:00 AM","07:00 PM","NA","https://www.mystore411.com/store/view/24879248/Nordstrom-Seattle"
"5","Nordstrom","Nordstrom in Vancouver","8601 NE Vancouver Mall Drive","Vancouver","WA","98662","NA","(360) 256-8666","10:00 AM","09:00 PM","10:00 AM","09:00 PM","10:00 AM","09:00 PM","10:00 AM","09:00 PM","10:00 AM","09:00 PM","10:00 AM","09:00 PM","11:00 AM","06:00 PM","NA","https://www.mystore411.com/store/view/520116/Nordstrom-Vancouver"
"6","Nordstrom","Nordstrom in Woodbridge","2700 Potomac Mills Circle","Woodbridge","VA","22192","NA","(703) 490-1440","10:00 AM","09:00 PM","10:00 AM","09:00 PM","10:00 AM","09:00 PM","10:00 AM","09:00 PM","10:00 AM","09:00 PM","10:00 AM","09:00 PM","11:00 AM","07:00 PM","NA","https://www.mystore411.com/store/view/520219/Nordstrom-Woodbridge"
"7","Nordstrom","Nordstrom in Sandy","10379 South State Street","Sandy","UT","84070","NA","(801) 432-5100","10:00 AM","09:00 PM","10:00 AM","09:00 PM","10:00 AM","09:00 PM","10:00 AM","09:00 PM","10:00 AM","09:00 PM","10:00 AM","09:00 PM","12:00 PM","06:00 PM","NA","https://www.mystore411.com/store/view/520235/Nordstrom-Sandy"
"8","Nordstrom","Nordstrom in Sunset Valley","5601 Brodie Lane","Sunset Valley","TX","78745","NA","(512)697-2600","10:00 AM","09:00 PM","10:00 AM","09:00 PM","10:00 AM","09:00 PM","10:00 AM","09:00 PM","10:00 AM","09:00 PM","10:00 AM","09:00 PM","11:00 AM","07:00 PM","NA","https://www.mystore411.com/store/view/24879297/Nordstrom-Sunset-Valley"
"9","Nordstrom","Nordstrom in Willow Grove","2500 West Moreland Road","Willow Grove","PA","19090","NA","(215)449-3777","10:00 AM","09:00 PM","10:00 AM","09:00 PM","10:00 AM","09:00 PM","10:00 AM","09:00 PM","10:00 AM","09:00 PM","10:00 AM","09:00 PM","11:00 AM","07:00 PM","NA","https://www.mystore411.com/store/view/24879280/Nordstrom-Willow-Grove"
"10","Nordstrom","Nordstrom in Tigard","9700 SW Washington Square Road","Tigard","OR","97223","NA","(503) 620-0555","10:00 AM","09:30 PM","10:00 AM","09:30 PM","10:00 AM","09:30 PM","10:00 AM","09:30 PM","10:00 AM","09:30 PM","10:00 AM","09:00 PM","10:00 AM","07:00 PM","NA","https://www.mystore411.com/store/view/520114/Nordstrom-Tigard"
"11","Nordstrom","Nordstrom in Salem","420 Center Street NE","Salem","OR","97301","NA","(503) 371-7710","10:00 AM","08:00 PM","10:00 AM","08:00 PM","10:00 AM","08:00 PM","10:00 AM","08:00 PM","10:00 AM","08:00 PM","10:00 AM","08:00 PM","11:00 AM","06:00 PM","NA","https://www.mystore411.com/store/view/520108/Nordstrom-Salem"
"12","Nordstrom","Nordstrom in Durham","6910 Fayetteville Road","Durham","NC","27713","NA","(919) 806-3700","10:00 AM","09:00 PM","10:00 AM","09:00 PM","10:00 AM","09:00 PM","10:00 AM","09:00 PM","10:00 AM","09:00 PM","10:00 AM","09:00 PM","12:00 PM","07:00 PM","NA","https://www.mystore411.com/store/view/520250/Nordstrom-Durham"
"13","Nordstrom","Nordstrom in White Plains","135 Westchester Avenue","White Plains","NY","10601","NA","(914) 946-1122","10:00 AM","09:00 PM","10:00 AM","09:00 PM","10:00 AM","09:00 PM","10:00 AM","09:00 PM","10:00 AM","09:00 PM","10:00 AM","09:00 PM","11:00 AM","06:30 PM","NA","https://www.mystore411.com/store/view/520201/Nordstrom-White-Plains"
"14","Nordstrom","Nordstrom in Short Hills","1200 Morris Turnpike","Short Hills","NJ","07078","NA","(973) 467-1500","10:00 AM","09:00 PM","10:00 AM","09:00 PM","10:00 AM","09:00 PM","10:00 AM","09:00 PM","10:00 AM","09:00 PM","10:00 AM","08:00 PM","11:00 AM","07:00 PM","NA","https://www.mystore411.com/store/view/520204/Nordstrom-Short-Hills"
"15","Nordstrom","Nordstrom in Las Vegas","9851 South Eastern Avenue","Las Vegas","NV","89123","NA","(702) 948-2121","10:00 AM","09:00 PM","10:00 AM","09:00 PM","10:00 AM","09:00 PM","10:00 AM","09:00 PM","10:00 AM","09:00 PM","10:00 AM","09:00 PM","10:00 AM","07:00 PM","NA","https://www.mystore411.com/store/view/520163/Nordstrom-Las-Vegas"
"16","Nordstrom","Nordstrom in St. Louis","1453 Saint Louis Galleria","St. Louis","MO","63117","NA","(314)884-4900","10:00 AM","09:00 PM","10:00 AM","09:00 PM","10:00 AM","09:00 PM","10:00 AM","09:00 PM","10:00 AM","09:00 PM","10:00 AM","09:00 PM","11:00 AM","06:00 PM","NA","https://www.mystore411.com/store/view/24879259/Nordstrom-St.-Louis"
"17","Nordstrom","Nordstrom in Maple Grove","12745 Elm Creek Boulevard","Maple Grove","MN","55369","NA","(763) 898-5300","10:00 AM","09:00 PM","10:00 AM","09:00 PM","10:00 AM","09:00 PM","10:00 AM","09:00 PM","10:00 AM","09:00 PM","10:00 AM","09:00 PM","11:00 AM","07:00 PM","NA","https://www.mystore411.com/store/view/520118/Nordstrom-Maple-Grove"
"18","Nordstrom","Nordstrom in Glendale","200 West Broadway","Glendale","CA","91210","NA","(818) 502-9922","10:00 AM","09:00 PM","10:00 AM","09:00 PM","10:00 AM","09:00 PM","10:00 AM","09:00 PM","10:00 AM","10:00 PM","10:00 AM","10:00 PM","11:00 AM","08:00 PM","NA","https://www.mystore411.com/store/view/520140/Nordstrom-Glendale"
"19","Nordstrom","Nordstrom in San Marcos","173 South Las Posas Road","San Marcos","CA","92078","NA","(760) 304-7050","10:00 AM","09:00 PM","10:00 AM","09:00 PM","10:00 AM","09:00 PM","10:00 AM","09:00 PM","10:00 AM","09:00 PM","10:00 AM","09:00 PM","10:00 AM","07:00 PM","NA","https://www.mystore411.com/store/view/520171/Nordstrom-San-Marcos"
"20","Nordstrom","Nordstrom in Escondido","270 East Via Rancho Parkway","Escondido","CA","92025","NA","(760) 740-0170","10:00 AM","09:00 PM","10:00 AM","09:00 PM","10:00 AM","09:00 PM","10:00 AM","09:00 PM","10:00 AM","09:00 PM","10:00 AM","09:00 PM","11:00 AM","07:00 PM","NA","https://www.mystore411.com/store/view/520159/Nordstrom-Escondido"
"21","Nordstrom","Nordstrom in Farmington","1600 South East Road","Farmington","CT","06032","NA","(860)321-2400","10:00 AM","09:30 PM","10:00 AM","09:30 PM","10:00 AM","09:30 PM","10:00 AM","09:30 PM","10:00 AM","09:30 PM","10:00 AM","09:30 PM","11:00 AM","08:00 PM","NA","https://www.mystore411.com/store/view/24879282/Nordstrom-Farmington"
"22","Nordstrom","Nordstrom in Newark","100 Christiana Mall","Newark","DE","19702","NA","(302)613-6000","10:00 AM","09:30 PM","10:00 AM","09:30 PM","10:00 AM","09:30 PM","10:00 AM","09:30 PM","10:00 AM","09:30 PM","10:00 AM","09:30 PM","11:00 AM","06:00 PM","NA","https://www.mystore411.com/store/view/24879283/Nordstrom-Newark"
"23","Nordstrom","Nordstrom in Arcadia","400 South Baldwin Avenue","Arcadia","CA","91007","NA","(626) 821-6363","10:00 AM","09:00 PM","10:00 AM","09:00 PM","10:00 AM","09:00 PM","10:00 AM","09:00 PM","10:00 AM","09:00 PM","10:00 AM","09:00 PM","11:00 AM","07:00 PM","NA","https://www.mystore411.com/store/view/520145/Nordstrom-Arcadia"
"24","Nordstrom","Nordstrom in Pasadena","3363 East Foothill Boulevard","Pasadena","CA","91107","NA","(626) 264-9044","10:00 AM","09:00 PM","10:00 AM","09:00 PM","10:00 AM","09:00 PM","10:00 AM","09:00 PM","10:00 AM","09:00 PM","10:00 AM","09:00 PM","11:00 AM","08:00 PM","NA","https://www.mystore411.com/store/view/520152/Nordstrom-Pasadena"
"25","Nordstrom","Nordstrom in Glendale","227 North Glendale Avenue","Glendale","CA","91206","NA","(818) 240-2404","10:00 AM","09:00 PM","10:00 AM","09:00 PM","10:00 AM","09:00 PM","10:00 AM","09:00 PM","10:00 AM","09:00 PM","10:00 AM","09:00 PM","10:00 AM","08:00 PM","NA","https://www.mystore411.com/store/view/520150/Nordstrom-Glendale"
"26","Nordstrom","Nordstrom in Santa Monica","220 Broadway","Santa Monica","CA","90401","NA","NA","10:00 AM","09:00 PM","10:00 AM","09:00 PM","10:00 AM","09:00 PM","10:00 AM","09:00 PM","10:00 AM","09:00 PM","10:00 AM","09:00 PM","11:00 AM","08:00 PM","NA","https://www.mystore411.com/store/view/520153/Nordstrom-Santa-Monica"
"27","Nordstrom","Nordstrom in Bloomington","324 West Marketplace","Bloomington","MN","55425","NA","(952) 854-3131","10:00 AM","09:30 PM","10:00 AM","09:30 PM","10:00 AM","09:30 PM","10:00 AM","09:30 PM","10:00 AM","09:30 PM","10:00 AM","09:30 PM","11:00 AM","07:00 PM","NA","https://www.mystore411.com/store/view/520101/Nordstrom-Bloomington"
"28","Nordstrom","Nordstrom in Bloomington","1000 NW Court","Bloomington","MN","55425","NA","(952) 883-2121","10:00 AM","09:30 PM","10:00 AM","09:30 PM","10:00 AM","09:30 PM","10:00 AM","09:30 PM","10:00 AM","09:30 PM","10:00 AM","09:30 PM","11:00 AM","07:00 PM","NA","https://www.mystore411.com/store/view/520089/Nordstrom-Bloomington"
"29","Nordstrom","Nordstrom in St. Louis","1585 South Brentwood Boulevard","St. Louis","MO","63144","NA","NA","10:00 AM","09:00 PM","10:00 AM","09:00 PM","10:00 AM","09:00 PM","10:00 AM","09:00 PM","10:00 AM","09:00 PM","10:00 AM","09:00 PM","11:00 AM","07:00 PM","NA","https://www.mystore411.com/store/view/520112/Nordstrom-St.-Louis"
"30","Nordstrom","Nordstrom in Brea","500 Brea Mall Way","Brea","CA","92821","NA","(714) 529-0123","10:00 AM","09:00 PM","10:00 AM","09:00 PM","10:00 AM","09:00 PM","10:00 AM","09:00 PM","10:00 AM","09:00 PM","10:00 AM","08:00 PM","11:00 AM","07:00 PM","NA","https://www.mystore411.com/store/view/520126/Nordstrom-Brea"
"31","Nordstrom","Nordstrom in Manchester","100 Highlands Boulevard Drive","Manchester","MO","63011","NA","(636)438-4100","10:00 AM","09:00 PM","10:00 AM","09:00 PM","10:00 AM","09:00 PM","10:00 AM","09:00 PM","10:00 AM","09:00 PM","10:00 AM","09:00 PM","11:00 AM","06:00 PM","NA","https://www.mystore411.com/store/view/24879258/Nordstrom-Manchester"
"32","Nordstrom","Nordstrom in Des Peres","47 West County Center","Des Peres","MO","63131","NA","(314) 255-2000","10:00 AM","09:00 PM","10:00 AM","09:00 PM","10:00 AM","09:00 PM","10:00 AM","09:00 PM","10:00 AM","09:00 PM","10:00 AM","09:00 PM","11:00 AM","06:00 PM","NA","https://www.mystore411.com/store/view/520100/Nordstrom-Des-Peres"
"33","Nordstrom","Nordstrom in Las Vegas","3200 Las Vegas Boulevard South","Las Vegas","NV","89109","NA","(702) 862-2525","10:00 AM","09:00 PM","10:00 AM","09:00 PM","10:00 AM","09:00 PM","10:00 AM","09:00 PM","10:00 AM","09:00 PM","10:00 AM","09:00 PM","11:00 AM","07:00 PM","NA","https://www.mystore411.com/store/view/520172/Nordstrom-Las-Vegas"
"34","Nordstrom","Nordstrom in Paramus","510 Bergen Town Center","Paramus","NJ","07652","NA","(201) 518-2170","10:00 AM","09:30 PM","10:00 AM","09:30 PM","10:00 AM","09:30 PM","10:00 AM","09:30 PM","10:00 AM","09:30 PM","10:00 AM","09:30 PM","Closed","Closed","NA","https://www.mystore411.com/store/view/520211/Nordstrom-Paramus"
"35","Nordstrom","Nordstrom in Paramus","501 Garden State Plaza","Paramus","NJ","07652","NA","(201) 843-1122","10:00 AM","09:30 PM","10:00 AM","09:30 PM","10:00 AM","09:30 PM","10:00 AM","09:30 PM","10:00 AM","09:30 PM","10:00 AM","09:30 PM","Closed","Closed","NA","https://www.mystore411.com/store/view/520198/Nordstrom-Paramus"
"36","Nordstrom","Nordstrom in Freehold","3710 U.S.Highway 9","Freehold","NJ","07728","NA","(732) 308-1117","10:00 AM","09:30 PM","10:00 AM","09:30 PM","10:00 AM","09:30 PM","10:00 AM","09:30 PM","10:00 AM","09:30 PM","10:00 AM","09:30 PM","11:00 AM","07:00 PM","NA","https://www.mystore411.com/store/view/520200/Nordstrom-Freehold"
"37","Nordstrom","Nordstrom in Redondo Beach","1835 Hawthorne Boulevard","Redondo Beach","CA","90278","NA","(310) 542-9440","10:00 AM","09:00 PM","10:00 AM","09:00 PM","10:00 AM","09:00 PM","10:00 AM","09:00 PM","10:00 AM","09:00 PM","10:00 AM","08:00 PM","11:00 AM","07:00 PM","NA","https://www.mystore411.com/store/view/520142/Nordstrom-Redondo-Beach"
"38","Nordstrom","Nordstrom in Warwick","400 Bald Hill Road","Warwick","RI","02886","NA","(401)773-7930","10:00 AM","09:00 PM","10:00 AM","09:00 PM","10:00 AM","09:00 PM","10:00 AM","09:00 PM","10:00 AM","09:00 PM","10:00 AM","09:00 PM","11:00 AM","06:00 PM","NA","https://www.mystore411.com/store/view/24879285/Nordstrom-Warwick"
"39","Nordstrom","Nordstrom in Edison","449 Menlo Park Drive","Edison","NJ","08837","NA","(732) 603-5000","10:00 AM","09:30 PM","10:00 AM","09:30 PM","10:00 AM","09:30 PM","10:00 AM","09:30 PM","10:00 AM","09:30 PM","10:00 AM","09:30 PM","11:00 AM","07:00 PM","NA","https://www.mystore411.com/store/view/520199/Nordstrom-Edison"
"40","Nordstrom","Nordstrom in Cherry Hill","951 Haddonfield Road Suite A","Cherry Hill","NJ","08002","NA","(856)773-4111","10:00 AM","09:30 PM","10:00 AM","09:30 PM","10:00 AM","09:30 PM","10:00 AM","09:30 PM","10:00 AM","09:30 PM","10:00 AM","09:30 PM","11:00 AM","06:00 PM","NA","https://www.mystore411.com/store/view/24879281/Nordstrom-Cherry-Hill"
"41","Nordstrom","Nordstrom in Cherry Hill","2000 Route 38","Cherry Hill","NJ","08003","NA","(856) 773-5600","10:00 AM","09:30 PM","10:00 AM","09:30 PM","10:00 AM","09:30 PM","10:00 AM","09:30 PM","10:00 AM","09:30 PM","10:00 AM","09:30 PM","11:00 AM","06:00 PM","NA","https://www.mystore411.com/store/view/520229/Nordstrom-Cherry-Hill"
"42","Nordstrom","Nordstrom in White Plains","7 City Place","White Plains","NY","10601","NA","(914) 614-6400","10:00 AM","09:00 PM","10:00 AM","09:00 PM","10:00 AM","09:00 PM","10:00 AM","09:00 PM","10:00 AM","09:00 PM","10:00 AM","09:00 PM","11:00 AM","07:00 PM","NA","https://www.mystore411.com/store/view/520197/Nordstrom-White-Plains"
"43","Nordstrom","Nordstrom in Westbury","1504 Old Country Road","Westbury","NY","11590","NA","(516) 222-5544","10:00 AM","09:00 PM","10:00 AM","09:00 PM","10:00 AM","09:00 PM","10:00 AM","09:00 PM","10:00 AM","09:30 PM","10:00 AM","09:30 PM","11:00 AM","07:00 PM","NA","https://www.mystore411.com/store/view/520206/Nordstrom-Westbury"
"44","Nordstrom","Nordstrom in Costa Mesa","901 South Coast Drive","Costa Mesa","CA","92626","NA","(714) 751-5901","10:00 AM","09:00 PM","10:00 AM","09:00 PM","10:00 AM","09:00 PM","10:00 AM","09:00 PM","10:00 AM","09:30 PM","10:00 AM","09:00 PM","11:00 AM","08:00 PM","NA","https://www.mystore411.com/store/view/520138/Nordstrom-Costa-Mesa"
"45","Nordstrom","Nordstrom in Cerritos","600 Los Cerritos Center","Cerritos","CA","90703","NA","(562) 924-0940","10:00 AM","09:00 PM","10:00 AM","09:00 PM","10:00 AM","09:00 PM","10:00 AM","09:00 PM","10:00 AM","09:00 PM","10:00 AM","08:00 PM","11:00 AM","07:00 PM","NA","https://www.mystore411.com/store/view/520127/Nordstrom-Cerritos"
"46","Nordstrom","Nordstrom in Chino","3849 Grand Avenue","Chino","CA","91710","NA","(909) 591-0551","10:00 AM","09:00 PM","10:00 AM","09:00 PM","10:00 AM","09:00 PM","10:00 AM","09:00 PM","10:00 AM","09:00 PM","10:00 AM","08:00 PM","11:00 AM","07:00 PM","NA","https://www.mystore411.com/store/view/520132/Nordstrom-Chino"
"47","Nordstrom","Nordstrom in Santa Ana","2820 North Main Street","Santa Ana","CA","92705","NA","(714) 972-2020","10:00 AM","09:00 PM","10:00 AM","09:00 PM","10:00 AM","09:00 PM","10:00 AM","09:00 PM","10:00 AM","09:00 PM","10:00 AM","08:00 PM","11:00 AM","07:00 PM","NA","https://www.mystore411.com/store/view/520129/Nordstrom-Santa-Ana"
"48","Nordstrom","Nordstrom in Brea","2345 East Imperial Highway","Brea","CA","92821","NA","(714) 529-4222","10:00 AM","09:00 PM","10:00 AM","09:00 PM","10:00 AM","09:00 PM","10:00 AM","09:00 PM","10:00 AM","09:00 PM","10:00 AM","08:00 PM","11:00 AM","07:00 PM","NA","https://www.mystore411.com/store/view/520133/Nordstrom-Brea"
"49","Nordstrom","Nordstrom in New York","60 East 14th Street","New York","NY","10003","NA","(212) 220-2080","10:00 AM","10:00 PM","10:00 AM","10:00 PM","10:00 AM","10:00 PM","10:00 AM","10:00 PM","10:00 AM","10:00 PM","10:00 AM","10:00 PM","11:00 AM","08:00 PM","NA","https://www.mystore411.com/store/view/520196/Nordstrom-New-York"
"50","Nordstrom","Nordstrom in Boston","497 Boylston Street","Boston","MA","02116","NA","(857)300-2300","10:00 AM","08:00 PM","10:00 AM","08:00 PM","10:00 AM","08:00 PM","10:00 AM","08:00 PM","10:00 AM","09:00 PM","10:00 AM","09:00 PM","11:00 AM","06:00 PM","NA","https://www.mystore411.com/store/view/24879287/Nordstrom-Boston"
"51","Nordstrom","Nordstrom in Burlington","43 Middlesex Turnpike Suite 5","Burlington","MA","01803","NA","(781)345-4960","10:00 AM","09:00 PM","10:00 AM","09:00 PM","10:00 AM","09:00 PM","10:00 AM","09:00 PM","10:00 AM","09:00 PM","10:00 AM","09:00 PM","11:00 AM","07:00 PM","NA","https://www.mystore411.com/store/view/24879286/Nordstrom-Burlington"
"52","Nordstrom","Nordstrom in Millbury","70 Worcester Providence Turnpike","Millbury","MA","01527","NA","(774)276-4400","10:00 AM","09:00 PM","10:00 AM","09:00 PM","10:00 AM","09:00 PM","10:00 AM","09:00 PM","10:00 AM","09:00 PM","10:00 AM","09:00 PM","11:00 AM","07:00 PM","NA","https://www.mystore411.com/store/view/24879284/Nordstrom-Millbury"
"53","Nordstrom","Nordstrom in West Covina","1415 Plaza Drive","West Covina","CA","91790","NA","(626)404-2633","10:00 AM","09:00 PM","10:00 AM","09:00 PM","10:00 AM","09:00 PM","10:00 AM","09:00 PM","10:00 AM","09:00 PM","10:00 AM","09:00 PM","11:00 AM","07:00 PM","NA","https://www.mystore411.com/store/view/24879267/Nordstrom-West-Covina"
"54","Nordstrom","Nordstrom in Lakewood","4651 Silva Street","Lakewood","CA","90712","NA","(562)616-6120","10:00 AM","09:00 PM","10:00 AM","09:00 PM","10:00 AM","09:00 PM","10:00 AM","09:00 PM","10:00 AM","09:00 PM","10:00 AM","08:00 PM","11:00 AM","07:00 PM","NA","https://www.mystore411.com/store/view/24879266/Nordstrom-Lakewood"
"55","Nordstrom","Nordstrom in Riverside","3601 The Galleria at Tyler","Riverside","CA","92503","NA","(951) 351-3170","10:00 AM","09:00 PM","10:00 AM","09:00 PM","10:00 AM","09:00 PM","10:00 AM","09:00 PM","10:00 AM","09:00 PM","10:00 AM","08:00 PM","11:00 AM","07:00 PM","NA","https://www.mystore411.com/store/view/520130/Nordstrom-Riverside"
"56","Nordstrom","Nordstrom in Ontario","4750 East Mills Circle","Ontario","CA","91764","NA","(909) 476-3160","10:00 AM","09:00 PM","10:00 AM","09:00 PM","10:00 AM","09:00 PM","10:00 AM","09:00 PM","10:00 AM","09:00 PM","10:00 AM","09:00 PM","11:00 AM","08:00 PM","NA","https://www.mystore411.com/store/view/520162/Nordstrom-Ontario"
"57","Nordstrom","Nordstrom in Redondo Beach","1517 Hawthorne Boulevard","Redondo Beach","CA","90278","NA","(424)254-2448","10:00 AM","09:00 PM","10:00 AM","09:00 PM","10:00 AM","09:00 PM","10:00 AM","09:00 PM","10:00 AM","09:00 PM","10:00 AM","09:00 PM","11:00 AM","08:00 PM","NA","https://www.mystore411.com/store/view/24879268/Nordstrom-Redondo-Beach"
"58","Nordstrom","Nordstrom in Montclair","5015 Montclair Plaza Lane","Montclair","CA","91763","NA","(909) 625-0821","10:00 AM","09:00 PM","10:00 AM","09:00 PM","10:00 AM","09:00 PM","10:00 AM","09:00 PM","10:00 AM","09:00 PM","10:00 AM","08:00 PM","11:00 AM","07:00 PM","NA","https://www.mystore411.com/store/view/520128/Nordstrom-Montclair"
"59","Nordstrom","Nordstrom in Huntington Beach","7532 Edinger Avenue","Huntington Beach","CA","92647","NA","(657)204-7300","10:00 AM","09:00 PM","10:00 AM","09:00 PM","10:00 AM","09:00 PM","10:00 AM","09:00 PM","10:00 AM","09:00 PM","10:00 AM","09:00 PM","11:00 AM","07:00 PM","NA","https://www.mystore411.com/store/view/24879265/Nordstrom-Huntington-Beach"
"60","Nordstrom","Nordstrom in Orange","20 City Boulevard West","Orange","CA","92868","NA","(714)202-3400","10:00 AM","09:00 PM","10:00 AM","09:00 PM","10:00 AM","09:00 PM","10:00 AM","09:00 PM","10:00 AM","10:00 PM","10:00 AM","10:00 PM","11:00 AM","08:00 PM","NA","https://www.mystore411.com/store/view/24879264/Nordstrom-Orange"
"61","Nordstrom","Nordstrom in Costa Mesa","3333 Bristol Street","Costa Mesa","CA","92626","NA","(714) 549-8300","10:00 AM","09:00 PM","10:00 AM","09:00 PM","10:00 AM","09:00 PM","10:00 AM","09:00 PM","10:00 AM","09:00 PM","10:00 AM","09:00 PM","11:00 AM","07:00 PM","NA","https://www.mystore411.com/store/view/520125/Nordstrom-Costa-Mesa"
"62","Nordstrom","Nordstrom in Huntington Station","350 Walt Whitman Road","Huntington Station","NY","11746","NA","(631)683-2700","10:00 AM","09:00 PM","10:00 AM","09:00 PM","10:00 AM","09:00 PM","10:00 AM","09:00 PM","10:00 AM","09:00 PM","10:00 AM","09:00 PM","11:00 AM","07:00 PM","NA","https://www.mystore411.com/store/view/24879279/Nordstrom-Huntington-Station"
"63","Nordstrom","Nordstrom in Upland","1301 East 19th Street","Upland","CA","91784","NA","(909)912-6300","10:00 AM","09:00 PM","10:00 AM","09:00 PM","10:00 AM","09:00 PM","10:00 AM","09:00 PM","10:00 AM","09:00 PM","10:00 AM","08:00 PM","11:00 AM","07:00 PM","NA","https://www.mystore411.com/store/view/24879269/Nordstrom-Upland"
"64","Nordstrom","Nordstrom in Irvine","101 Fortune Drive","Irvine","CA","92618","NA","(949) 255-2800","10:00 AM","09:00 PM","10:00 AM","09:00 PM","10:00 AM","09:00 PM","10:00 AM","09:00 PM","10:00 AM","09:30 PM","10:00 AM","09:30 PM","11:00 AM","08:00 PM","NA","https://www.mystore411.com/store/view/520135/Nordstrom-Irvine"
"65","Nordstrom","Nordstrom in Garden City","630 Old Country Road","Garden City","NY","11530","NA","(516) 746-0011","10:00 AM","09:30 PM","10:00 AM","09:30 PM","10:00 AM","09:30 PM","10:00 AM","09:30 PM","10:00 AM","09:30 PM","10:00 AM","09:30 PM","11:00 AM","07:00 PM","NA","https://www.mystore411.com/store/view/520202/Nordstrom-Garden-City"
"66","Nordstrom","Nordstrom in Durham","6807 Fayetteville Road","Durham","NC","27713","NA","NA","10:00 AM","09:00 PM","10:00 AM","09:00 PM","10:00 AM","09:00 PM","10:00 AM","09:00 PM","10:00 AM","09:00 PM","10:00 AM","09:00 PM","11:00 AM","07:00 PM","NA","https://www.mystore411.com/store/view/520251/Nordstrom-Durham"
"67","Nordstrom","Nordstrom in Charlotte","4400 Sharon Road","Charlotte","NC","28211","NA","(704) 442-6000","10:00 AM","09:00 PM","10:00 AM","09:00 PM","10:00 AM","09:00 PM","10:00 AM","09:00 PM","10:00 AM","09:00 PM","10:00 AM","09:00 PM","11:00 AM","07:00 PM","NA","https://www.mystore411.com/store/view/520249/Nordstrom-Charlotte"
"68","Nordstrom","Nordstrom in Charlotte","9563 South Boulevard","Charlotte","NC","28273","NA","(704)705-2161","10:00 AM","09:00 PM","10:00 AM","09:00 PM","10:00 AM","09:00 PM","10:00 AM","09:00 PM","10:00 AM","09:00 PM","10:00 AM","09:00 PM","10:00 AM","07:00 PM","NA","https://www.mystore411.com/store/view/24879299/Nordstrom-Charlotte"
"69","Nordstrom","Nordstrom in Burlington","75 Middlesex Turnpike","Burlington","MA","01803","NA","(781) 345-7800","10:00 AM","09:30 PM","10:00 AM","09:30 PM","10:00 AM","09:30 PM","10:00 AM","09:30 PM","10:00 AM","09:30 PM","10:00 AM","09:30 PM","11:00 AM","07:00 PM","NA","https://www.mystore411.com/store/view/520209/Nordstrom-Burlington"
"70","Nordstrom","Nordstrom in Westlake","30121 Detroit Road","Westlake","OH","44145","NA","(440)925-6464","10:00 AM","09:00 PM","10:00 AM","09:00 PM","10:00 AM","09:00 PM","10:00 AM","09:00 PM","10:00 AM","09:00 PM","10:00 AM","09:00 PM","11:00 AM","06:00 PM","NA","https://www.mystore411.com/store/view/24879253/Nordstrom-Westlake"
"71","Nordstrom","Nordstrom in Lyndhurst","25149 Cedar Road","Lyndhurst","OH","44124","NA","(216) 472-2244","10:00 AM","09:00 PM","10:00 AM","09:00 PM","10:00 AM","09:00 PM","10:00 AM","09:00 PM","10:00 AM","09:00 PM","10:00 AM","09:00 PM","12:00 PM","06:00 PM","NA","https://www.mystore411.com/store/view/520109/Nordstrom-Lyndhurst"
"72","Nordstrom","Nordstrom in Columbus","3736 Easton Market","Columbus","OH","43219","NA","(614)750-2222","10:00 AM","09:00 PM","10:00 AM","09:00 PM","10:00 AM","09:00 PM","10:00 AM","09:00 PM","10:00 AM","09:00 PM","10:00 AM","09:00 PM","11:00 AM","06:00 PM","NA","https://www.mystore411.com/store/view/24879260/Nordstrom-Columbus"
"73","Nordstrom","Nordstrom in Newport Beach","901 Newport Center Drive","Newport Beach","CA","92660","NA","(949) 610-0700","10:00 AM","08:00 PM","10:00 AM","08:00 PM","10:00 AM","08:00 PM","10:00 AM","08:00 PM","10:00 AM","08:00 PM","10:00 AM","07:00 PM","11:00 AM","06:00 PM","NA","https://www.mystore411.com/store/view/520136/Nordstrom-Newport-Beach"
"74","Nordstrom","Nordstrom in Mission Viejo","100 The Shops at Mission Viejo","Mission Viejo","CA","92691","NA","(949) 347-2710","10:00 AM","09:00 PM","10:00 AM","09:00 PM","10:00 AM","09:00 PM","10:00 AM","09:00 PM","10:00 AM","09:00 PM","10:00 AM","08:00 PM","11:00 AM","07:00 PM","NA","https://www.mystore411.com/store/view/520131/Nordstrom-Mission-Viejo"
"75","Nordstrom","Nordstrom in Laguna Hills","23541 Calle de la Louisa","Laguna Hills","CA","92653","NA","(949) 334-4924","10:00 AM","09:00 PM","10:00 AM","09:00 PM","10:00 AM","09:00 PM","10:00 AM","09:00 PM","10:00 AM","09:00 PM","10:00 AM","08:00 PM","11:00 AM","07:00 PM","NA","https://www.mystore411.com/store/view/520137/Nordstrom-Laguna-Hills"
"76","Nordstrom","Nordstrom in Columbus","4000 Worth Avenue","Columbus","OH","43219","NA","(614) 416-7111","10:00 AM","08:00 PM","10:00 AM","08:00 PM","10:00 AM","08:00 PM","10:00 AM","08:00 PM","10:00 AM","09:00 PM","10:00 AM","09:00 PM","12:00 PM","06:00 PM","NA","https://www.mystore411.com/store/view/520102/Nordstrom-Columbus"
"77","Nordstrom","Nordstrom in Cincinnati","2692 Madison Road","Cincinnati","OH","45208","NA","(513) 878-6810","10:00 AM","09:00 PM","10:00 AM","09:00 PM","10:00 AM","09:00 PM","10:00 AM","09:00 PM","10:00 AM","09:00 PM","10:00 AM","09:00 PM","11:00 AM","06:00 PM","NA","https://www.mystore411.com/store/view/520111/Nordstrom-Cincinnati"
"78","Nordstrom","Nordstrom in Cincinnati","7801 Montgomery Road","Cincinnati","OH","45236","NA","(513) 699-4190","10:00 AM","09:00 PM","10:00 AM","09:00 PM","10:00 AM","09:00 PM","10:00 AM","09:00 PM","10:00 AM","09:00 PM","10:00 AM","09:00 PM","12:00 PM","06:00 PM","NA","https://www.mystore411.com/store/view/520107/Nordstrom-Cincinnati"
"79","Nordstrom","Nordstrom in Beachwood","26200 Cedar Road","Beachwood","OH","44122","NA","(216) 378-2121","10:00 AM","09:00 PM","10:00 AM","09:00 PM","10:00 AM","09:00 PM","10:00 AM","09:00 PM","10:00 AM","09:00 PM","10:00 AM","09:00 PM","12:00 PM","06:00 PM","NA","https://www.mystore411.com/store/view/520094/Nordstrom-Beachwood"
"80","Nordstrom","Nordstrom in Portland","245 SW Morrison","Portland","OR","97204","NA","(503) 299-1815","10:00 AM","09:00 PM","10:00 AM","09:00 PM","10:00 AM","09:00 PM","10:00 AM","09:00 PM","10:00 AM","09:00 PM","10:00 AM","09:00 PM","10:00 AM","07:00 PM","NA","https://www.mystore411.com/store/view/520122/Nordstrom-Portland"
"81","Nordstrom","Nordstrom in Framingham","1 Worcester Road","Framingham","MA","01701","NA","(508) 598-3484","10:00 AM","09:00 PM","10:00 AM","09:00 PM","10:00 AM","09:00 PM","10:00 AM","09:00 PM","10:00 AM","09:00 PM","10:00 AM","09:00 PM","11:00 AM","07:00 PM","NA","https://www.mystore411.com/store/view/520213/Nordstrom-Framingham"
"82","Nordstrom","Nordstrom in Natick","290 Speen Street","Natick","MA","01760","NA","(508) 318-2600","10:00 AM","09:00 PM","10:00 AM","09:00 PM","10:00 AM","09:00 PM","10:00 AM","09:00 PM","10:00 AM","09:00 PM","10:00 AM","09:00 PM","11:00 AM","06:00 PM","NA","https://www.mystore411.com/store/view/520207/Nordstrom-Natick"
"83","Nordstrom","Nordstrom in Danvers","50 Independence Way","Danvers","MA","01923","NA","(978) 539-6060","10:00 AM","09:00 PM","10:00 AM","09:00 PM","10:00 AM","09:00 PM","10:00 AM","09:00 PM","10:00 AM","09:00 PM","10:00 AM","09:00 PM","11:00 AM","06:00 PM","NA","https://www.mystore411.com/store/view/520212/Nordstrom-Danvers"
"84","Nordstrom","Nordstrom in Peabody","210 Andover Street","Peabody","MA","01960","NA","(978) 278-7400","10:00 AM","09:00 PM","10:00 AM","09:00 PM","10:00 AM","09:00 PM","10:00 AM","09:00 PM","10:00 AM","09:00 PM","10:00 AM","09:00 PM","11:00 AM","06:00 PM","NA","https://www.mystore411.com/store/view/520210/Nordstrom-Peabody"
"85","Nordstrom","Nordstrom in South Portland","200 Running Hill Road","South Portland","ME","04106","NA","(207)245-6610","10:00 AM","09:00 PM","10:00 AM","09:00 PM","10:00 AM","09:00 PM","10:00 AM","09:00 PM","10:00 AM","09:00 PM","10:00 AM","09:00 PM","11:00 AM","06:00 PM","NA","https://www.mystore411.com/store/view/24879288/Nordstrom-South-Portland"
"86","Nordstrom","Nordstrom in Louisville","4600 Shelbyville Road","Louisville","KY","40207","NA","(502)899-4940","10:00 AM","09:00 PM","10:00 AM","09:00 PM","10:00 AM","09:00 PM","10:00 AM","09:00 PM","10:00 AM","09:00 PM","10:00 AM","09:00 PM","11:00 AM","07:00 PM","NA","https://www.mystore411.com/store/view/24879261/Nordstrom-Louisville"
"87","Nordstrom","Nordstrom in Portland","1001 Lloyd Center","Portland","OR","97232","NA","(503) 287-2444","10:00 AM","08:00 PM","10:00 AM","08:00 PM","10:00 AM","08:00 PM","10:00 AM","08:00 PM","10:00 AM","08:00 PM","10:00 AM","08:00 PM","11:00 AM","07:00 PM","NA","https://www.mystore411.com/store/view/520086/Nordstrom-Portland"
"88","Nordstrom","Nordstrom in Portland","701 SW Broadway","Portland","OR","97205","NA","(503) 224-6666","10:00 AM","08:00 PM","10:00 AM","08:00 PM","10:00 AM","08:00 PM","10:00 AM","08:00 PM","10:00 AM","08:00 PM","10:00 AM","08:00 PM","11:00 AM","06:00 PM","NA","https://www.mystore411.com/store/view/520085/Nordstrom-Portland"
"89","Nordstrom","Nordstrom in Happy Valley","11900 SE 82nd Avenue","Happy Valley","OR","97086","NA","(503) 652-1810","10:00 AM","09:00 PM","10:00 AM","09:00 PM","10:00 AM","09:00 PM","10:00 AM","09:00 PM","10:00 AM","09:00 PM","10:00 AM","09:00 PM","11:00 AM","06:00 PM","NA","https://www.mystore411.com/store/view/520113/Nordstrom-Happy-Valley"
"90","Nordstrom","Nordstrom in Eugene","5 Oakway Center","Eugene","OR","97401","NA","(541)334-7020","10:00 AM","09:00 PM","10:00 AM","09:00 PM","10:00 AM","09:00 PM","10:00 AM","09:00 PM","10:00 AM","09:00 PM","10:00 AM","09:00 PM","11:00 AM","07:00 PM","NA","https://www.mystore411.com/store/view/24879256/Nordstrom-Eugene"
"91","Nordstrom","Nordstrom in Clackamas","8930 SE Sunnyside Road","Clackamas","OR","97015","NA","(503) 654-5415","10:00 AM","09:30 PM","10:00 AM","09:30 PM","10:00 AM","09:30 PM","10:00 AM","09:30 PM","10:00 AM","09:30 PM","10:00 AM","09:30 PM","11:00 AM","08:00 PM","NA","https://www.mystore411.com/store/view/520097/Nordstrom-Clackamas"
"92","Nordstrom","Nordstrom in Braintree","250 Granite Street","Braintree","MA","02184","NA","(781) 519-7200","10:00 AM","09:00 PM","10:00 AM","09:00 PM","10:00 AM","09:00 PM","10:00 AM","09:00 PM","10:00 AM","09:00 PM","10:00 AM","09:00 PM","11:00 AM","06:00 PM","NA","https://www.mystore411.com/store/view/520208/Nordstrom-Braintree"
"93","Nordstrom","Nordstrom in Beaverton","18100 NW Evergreen Parkway","Beaverton","OR","97006","NA","(503) 439-0900","10:00 AM","09:00 PM","10:00 AM","09:00 PM","10:00 AM","09:00 PM","10:00 AM","09:00 PM","10:00 AM","09:00 PM","10:00 AM","09:00 PM","11:00 AM","07:00 PM","NA","https://www.mystore411.com/store/view/520121/Nordstrom-Beaverton"
"94","Nordstrom","Nordstrom in Beaverton","9175 SW Cascade Avenue","Beaverton","OR","97008","NA","(971)327-6161","10:00 AM","09:30 PM","10:00 AM","09:30 PM","10:00 AM","09:30 PM","10:00 AM","09:30 PM","10:00 AM","09:30 PM","10:00 AM","09:30 PM","10:00 AM","08:00 PM","NA","https://www.mystore411.com/store/view/24879250/Nordstrom-Beaverton"
"95","Nordstrom","Nordstrom in King of Prussia","190 North Gulph Road","King of Prussia","PA","19406","NA","(610) 265-6111","10:00 AM","09:30 PM","10:00 AM","09:30 PM","10:00 AM","09:30 PM","10:00 AM","09:30 PM","10:00 AM","09:30 PM","10:00 AM","09:30 PM","11:00 AM","07:00 PM","NA","https://www.mystore411.com/store/view/520223/Nordstrom-King-of-Prussia"
"96","Nordstrom","Nordstrom in Pittsburgh","1000 Ross Park Mall Drive","Pittsburgh","PA","15237","NA","(412) 548-4300","10:00 AM","09:00 PM","10:00 AM","09:00 PM","10:00 AM","09:00 PM","10:00 AM","09:00 PM","10:00 AM","09:00 PM","10:00 AM","09:00 PM","11:00 AM","06:00 PM","NA","https://www.mystore411.com/store/view/520105/Nordstrom-Pittsburgh"
"97","Nordstrom","Nordstrom in King of Prussia","310 Goddard Boulevard","King of Prussia","PA","19406","NA","(610) 205-8717","10:00 AM","09:00 PM","10:00 AM","09:00 PM","10:00 AM","09:00 PM","10:00 AM","09:00 PM","10:00 AM","09:00 PM","10:00 AM","09:00 PM","11:00 AM","07:00 PM","NA","https://www.mystore411.com/store/view/520227/Nordstrom-King-of-Prussia"
"98","Nordstrom","Nordstrom in Sugar Land","2665 Town Center Boulevard North","Sugar Land","TX","77479","NA","(281)566-2000","10:00 AM","09:00 PM","10:00 AM","09:00 PM","10:00 AM","09:00 PM","10:00 AM","09:00 PM","10:00 AM","09:00 PM","10:00 AM","09:00 PM","11:00 AM","07:00 PM","NA","https://www.mystore411.com/store/view/24879296/Nordstrom-Sugar-Land"
"99","Nordstrom","Nordstrom in Southlake","1445 East Southlake Boulevard","Southlake","TX","76092","NA","(817) 601-3480","10:00 AM","09:00 PM","10:00 AM","09:00 PM","10:00 AM","09:00 PM","10:00 AM","09:00 PM","10:00 AM","09:00 PM","10:00 AM","09:00 PM","11:00 AM","07:00 PM","NA","https://www.mystore411.com/store/view/520245/Nordstrom-Southlake"
"100","Nordstrom","Nordstrom in San Antonio","15900 La Cantera Parkway","San Antonio","TX","78256","NA","(210) 332-1900","10:00 AM","09:00 PM","10:00 AM","09:00 PM","10:00 AM","09:00 PM","10:00 AM","09:00 PM","10:00 AM","09:00 PM","10:00 AM","09:00 PM","12:00 PM","06:00 PM","NA","https://www.mystore411.com/store/view/520243/Nordstrom-San-Antonio"
"101","Nordstrom","Nordstrom in San Antonio","5823 Worth Parkway","San Antonio","TX","78257","NA","(210) 587-6644","10:00 AM","09:00 PM","10:00 AM","09:00 PM","10:00 AM","09:00 PM","10:00 AM","09:00 PM","10:00 AM","09:00 PM","10:00 AM","09:00 PM","11:00 AM","07:00 PM","NA","https://www.mystore411.com/store/view/520244/Nordstrom-San-Antonio"
"102","Nordstrom","Nordstrom in San Antonio","255 East Basse Road","San Antonio","TX","78209","NA","(210)202-2400","10:00 AM","09:00 PM","10:00 AM","09:00 PM","10:00 AM","09:00 PM","10:00 AM","09:00 PM","10:00 AM","09:00 PM","10:00 AM","09:00 PM","11:00 AM","07:00 PM","NA","https://www.mystore411.com/store/view/24879298/Nordstrom-San-Antonio"
"103","Nordstrom","Nordstrom in Plano","1701 D-1 Preston Road","Plano","TX","75093","NA","(972) 267-1414","10:00 AM","09:00 PM","10:00 AM","09:00 PM","10:00 AM","09:00 PM","10:00 AM","09:00 PM","10:00 AM","09:00 PM","10:00 AM","09:00 PM","11:00 AM","07:00 PM","NA","https://www.mystore411.com/store/view/520240/Nordstrom-Plano"
"104","Nordstrom","Nordstrom in Hurst","1101 Melbourne Road","Hurst","TX","76053","NA","(817) 590-2599","10:00 AM","09:00 PM","10:00 AM","09:00 PM","10:00 AM","09:00 PM","10:00 AM","09:00 PM","10:00 AM","09:00 PM","10:00 AM","09:00 PM","12:00 PM","06:00 PM","NA","https://www.mystore411.com/store/view/520237/Nordstrom-Hurst"
"105","Nordstrom","Nordstrom in Houston","5000 Westheimer Road Suite 500","Houston","TX","77056","NA","(281) 661-3600","10:00 AM","09:00 PM","10:00 AM","09:00 PM","10:00 AM","09:00 PM","10:00 AM","09:00 PM","10:00 AM","09:00 PM","10:00 AM","09:00 PM","11:00 AM","07:00 PM","NA","https://www.mystore411.com/store/view/520248/Nordstrom-Houston"
"106","Nordstrom","Nordstrom in Houston","5192 Hidalgo Street","Houston","TX","77056","NA","(832) 201-2700","10:00 AM","09:00 PM","10:00 AM","09:00 PM","10:00 AM","09:00 PM","10:00 AM","09:00 PM","10:00 AM","09:00 PM","10:00 AM","09:00 PM","11:00 AM","07:00 PM","NA","https://www.mystore411.com/store/view/520241/Nordstrom-Houston"
"107","Nordstrom","Nordstrom in Frisco","2613 Preston Road","Frisco","TX","75034","NA","(972) 712-3794","10:00 AM","09:00 PM","10:00 AM","09:00 PM","10:00 AM","09:00 PM","10:00 AM","09:00 PM","10:00 AM","09:00 PM","10:00 AM","09:00 PM","12:00 PM","07:00 PM","NA","https://www.mystore411.com/store/view/520239/Nordstrom-Frisco"
"108","Nordstrom","Nordstrom in El Paso","8889 Gateway Boulevard West","El Paso","TX","79925","NA","(915)730-7900","10:00 AM","09:00 PM","10:00 AM","09:00 PM","10:00 AM","09:00 PM","10:00 AM","09:00 PM","10:00 AM","09:00 PM","10:00 AM","09:00 PM","11:00 AM","07:00 PM","NA","https://www.mystore411.com/store/view/24879307/Nordstrom-El-Paso"
"109","Nordstrom","Nordstrom in Dallas","8050 Park Lane","Dallas","TX","75231","NA","(214) 932-6222","10:00 AM","09:00 PM","10:00 AM","09:00 PM","10:00 AM","09:00 PM","10:00 AM","09:00 PM","10:00 AM","09:00 PM","10:00 AM","09:00 PM","11:00 AM","07:00 PM","NA","https://www.mystore411.com/store/view/520247/Nordstrom-Dallas"
"110","Nordstrom","Nordstrom in Dallas","13900 Dallas Parkway","Dallas","TX","75240","NA","(214)234-2808","10:00 AM","09:00 PM","10:00 AM","09:00 PM","10:00 AM","09:00 PM","10:00 AM","09:00 PM","10:00 AM","09:00 PM","10:00 AM","09:00 PM","11:00 AM","07:00 PM","NA","https://www.mystore411.com/store/view/24879294/Nordstrom-Dallas"
"111","Nordstrom","Nordstrom in Dallas","8687 North Central Expressway","Dallas","TX","75225","NA","(214) 231-3900","10:00 AM","09:00 PM","10:00 AM","09:00 PM","10:00 AM","09:00 PM","10:00 AM","09:00 PM","10:00 AM","09:00 PM","10:00 AM","09:00 PM","12:00 PM","07:00 PM","NA","https://www.mystore411.com/store/view/520238/Nordstrom-Dallas"
"112","Nordstrom","Nordstrom in Dallas","5220 Alpha Road","Dallas","TX","75240","NA","(972) 702-0055","10:00 AM","09:00 PM","10:00 AM","09:00 PM","10:00 AM","09:00 PM","10:00 AM","09:00 PM","10:00 AM","09:00 PM","10:00 AM","09:00 PM","12:00 PM","07:00 PM","NA","https://www.mystore411.com/store/view/520236/Nordstrom-Dallas"
"113","Nordstrom","Nordstrom in Austin","9607 Research Boulevard","Austin","TX","78759","NA","(512) 651-6180","10:00 AM","09:00 PM","10:00 AM","09:00 PM","10:00 AM","09:00 PM","10:00 AM","09:00 PM","10:00 AM","09:00 PM","10:00 AM","09:00 PM","11:00 AM","07:00 PM","NA","https://www.mystore411.com/store/view/520246/Nordstrom-Austin"
"114","Nordstrom","Nordstrom in Austin","2901 Capital of Texas Hwy South","Austin","TX","78746","NA","(512) 691-3500","10:00 AM","09:00 PM","10:00 AM","09:00 PM","10:00 AM","09:00 PM","10:00 AM","09:00 PM","10:00 AM","09:00 PM","10:00 AM","09:00 PM","12:00 PM","07:00 PM","NA","https://www.mystore411.com/store/view/520242/Nordstrom-Austin"
"115","Nordstrom","Nordstrom in Arlington","3865 South Cooper Street","Arlington","TX","76015","NA","(817)664-3030","10:00 AM","09:00 PM","10:00 AM","09:00 PM","10:00 AM","09:00 PM","10:00 AM","09:00 PM","10:00 AM","09:00 PM","10:00 AM","09:00 PM","11:00 AM","07:00 PM","NA","https://www.mystore411.com/store/view/24879295/Nordstrom-Arlington"
"116","Nordstrom","Nordstrom in Salt Lake City","2236 South 1300 East","Salt Lake City","UT","84106","NA","(801) 484-8880","10:00 AM","09:00 PM","10:00 AM","09:00 PM","10:00 AM","09:00 PM","10:00 AM","09:00 PM","10:00 AM","09:00 PM","10:00 AM","09:00 PM","11:00 AM","07:00 PM","NA","https://www.mystore411.com/store/view/520139/Nordstrom-Salt-Lake-City"
"117","Nordstrom","Nordstrom in Salt Lake City","55 South West Temple","Salt Lake City","UT","84101","NA","(801)322-4200","10:00 AM","09:00 PM","10:00 AM","09:00 PM","10:00 AM","09:00 PM","10:00 AM","09:00 PM","10:00 AM","09:00 PM","10:00 AM","09:00 PM","Closed","Closed","NA","https://www.mystore411.com/store/view/24879262/Nordstrom-Salt-Lake-City"
"118","Nordstrom","Nordstrom in Murray","6191 South State Street","Murray","UT","84107","NA","(801) 261-4402","10:00 AM","09:00 PM","10:00 AM","09:00 PM","10:00 AM","09:00 PM","10:00 AM","09:00 PM","10:00 AM","09:00 PM","10:00 AM","09:00 PM","12:00 PM","06:00 PM","NA","https://www.mystore411.com/store/view/520134/Nordstrom-Murray"
"119","Nordstrom","Nordstrom in Farmington","380 North Station Parkway","Farmington","UT","84025","NA","(801)447-6077","10:00 AM","09:00 PM","10:00 AM","09:00 PM","10:00 AM","09:00 PM","10:00 AM","09:00 PM","10:00 AM","09:00 PM","10:00 AM","09:00 PM","12:00 PM","06:00 PM","NA","https://www.mystore411.com/store/view/24879263/Nordstrom-Farmington"
"120","Nordstrom","Nordstrom in Vienna","8027 Leesburg Pike","Vienna","VA","22182","NA","(703)206-7100","10:00 AM","09:00 PM","10:00 AM","09:00 PM","10:00 AM","09:00 PM","10:00 AM","09:00 PM","10:00 AM","09:00 PM","10:00 AM","09:00 PM","11:00 AM","07:00 PM","NA","https://www.mystore411.com/store/view/24879289/Nordstrom-Vienna"
"121","Nordstrom","Nordstrom in Sterling","45575 Dulles Eastern Plaza","Sterling","VA","20166","NA","(703) 948-0100","10:00 AM","09:00 PM","10:00 AM","09:00 PM","10:00 AM","09:00 PM","10:00 AM","09:00 PM","10:00 AM","09:00 PM","10:00 AM","09:00 PM","11:00 AM","07:00 PM","NA","https://www.mystore411.com/store/view/520231/Nordstrom-Sterling"
"122","Nordstrom","Nordstrom in Richmond","11812 West Broad Street","Richmond","VA","23233","NA","(804) 364-6900","10:00 AM","09:00 PM","10:00 AM","09:00 PM","10:00 AM","09:00 PM","10:00 AM","09:00 PM","10:00 AM","09:00 PM","10:00 AM","09:00 PM","11:00 AM","07:00 PM","NA","https://www.mystore411.com/store/view/520228/Nordstrom-Richmond"
"123","Nordstrom","Nordstrom in Norfolk","301 Cumberland Street","Norfolk","VA","23510","NA","(757) 314-1111","10:00 AM","09:00 PM","10:00 AM","09:00 PM","10:00 AM","09:00 PM","10:00 AM","09:00 PM","10:00 AM","09:00 PM","10:00 AM","09:00 PM","12:00 PM","06:00 PM","NA","https://www.mystore411.com/store/view/520222/Nordstrom-Norfolk"
"124","Nordstrom","Nordstrom in McLean","8075 Tysons Corner Center","McLean","VA","22102","NA","(703) 761-1121","10:00 AM","09:30 PM","10:00 AM","09:30 PM","10:00 AM","09:30 PM","10:00 AM","09:30 PM","10:00 AM","10:00 PM","10:00 AM","10:00 PM","11:00 AM","07:30 PM","NA","https://www.mystore411.com/store/view/520215/Nordstrom-McLean"
"125","Nordstrom","Nordstrom in Fairfax","12199 Fairlakes Promenade Drive","Fairfax","VA","22033","NA","NA","10:00 AM","09:00 PM","10:00 AM","09:00 PM","10:00 AM","09:00 PM","10:00 AM","09:00 PM","10:00 AM","09:00 PM","10:00 AM","09:00 PM","11:00 AM","07:00 PM","NA","https://www.mystore411.com/store/view/520230/Nordstrom-Fairfax"
"126","Nordstrom","Nordstrom in Dulles","21090 Dulles Town Circle","Dulles","VA","20166","NA","(571) 434-4000","10:00 AM","09:30 PM","10:00 AM","09:30 PM","10:00 AM","09:30 PM","10:00 AM","09:30 PM","10:00 AM","09:30 PM","10:00 AM","09:30 PM","11:00 AM","07:00 PM","NA","https://www.mystore411.com/store/view/520225/Nordstrom-Dulles"
"127","Nordstrom","Nordstrom in Arlington","1400 South Hayes Street","Arlington","VA","22202","NA","(703) 415-1121","10:00 AM","09:30 PM","10:00 AM","09:30 PM","10:00 AM","09:30 PM","10:00 AM","09:30 PM","10:00 AM","09:30 PM","10:00 AM","09:30 PM","11:00 AM","07:00 PM","NA","https://www.mystore411.com/store/view/520216/Nordstrom-Arlington"
"128","Nordstrom","Nordstrom in Arlington","1201 South Hayes Street","Arlington","VA","22202","NA","NA","10:00 AM","09:00 PM","10:00 AM","09:00 PM","10:00 AM","09:00 PM","10:00 AM","09:00 PM","10:00 AM","09:00 PM","10:00 AM","09:00 PM","11:00 AM","07:00 PM","NA","https://www.mystore411.com/store/view/520232/Nordstrom-Arlington"
"129","Nordstrom","Nordstrom in Tukwila","100 Southcenter Mall","Tukwila","WA","98188","NA","(206) 246-0400","10:00 AM","09:00 PM","10:00 AM","09:00 PM","10:00 AM","09:00 PM","10:00 AM","09:00 PM","10:00 AM","09:00 PM","10:00 AM","09:00 PM","11:00 AM","07:00 PM","NA","https://www.mystore411.com/store/view/520214/Nordstrom-Tukwila"
"130","Nordstrom","Nordstrom in Tukwila","17200 Southcenter Parkway","Tukwila","WA","98188","NA","(206) 407-1020","10:00 AM","09:30 PM","10:00 AM","09:30 PM","10:00 AM","09:30 PM","10:00 AM","09:30 PM","10:00 AM","09:30 PM","10:00 AM","09:30 PM","11:00 AM","07:00 PM","NA","https://www.mystore411.com/store/view/520174/Nordstrom-Tukwila"
"131","Nordstrom","Nordstrom in Tacoma","4502 South Steele Street","Tacoma","WA","98409","NA","(253) 475-3630","10:00 AM","09:00 PM","10:00 AM","09:00 PM","10:00 AM","09:00 PM","10:00 AM","09:00 PM","10:00 AM","09:00 PM","10:00 AM","09:00 PM","11:00 AM","07:00 PM","NA","https://www.mystore411.com/store/view/520233/Nordstrom-Tacoma"
"132","Nordstrom","Nordstrom in Spokane","828 West Main Avenue","Spokane","WA","99201","NA","(509) 455-6111","10:00 AM","08:00 PM","10:00 AM","08:00 PM","10:00 AM","08:00 PM","10:00 AM","08:00 PM","10:00 AM","08:00 PM","10:00 AM","08:00 PM","11:00 AM","06:00 PM","NA","https://www.mystore411.com/store/view/520272/Nordstrom-Spokane"
"133","Nordstrom","Nordstrom in Annapolis","2540 Solomons Island Road","Annapolis","MD","21401","NA","(443)440-6330","10:00 AM","09:00 PM","10:00 AM","09:00 PM","10:00 AM","09:00 PM","10:00 AM","09:00 PM","10:00 AM","09:00 PM","10:00 AM","09:00 PM","11:00 AM","07:00 PM","NA","https://www.mystore411.com/store/view/24879293/Nordstrom-Annapolis"
"134","Nordstrom","Nordstrom in Columbia","6141 Columbia Crossing","Columbia","MD","21045","NA","(443)518-7205","10:00 AM","09:30 PM","10:00 AM","09:30 PM","10:00 AM","09:30 PM","10:00 AM","09:30 PM","10:00 AM","09:30 PM","10:00 AM","09:30 PM","11:00 AM","07:00 PM","NA","https://www.mystore411.com/store/view/24879292/Nordstrom-Columbia"
"135","Nordstrom","Nordstrom in Washington","1800 L Street NW","Washington",NA,"20036","NA","(202)627-3650","09:00 AM","09:00 PM","09:00 AM","09:00 PM","09:00 AM","09:00 PM","09:00 AM","09:00 PM","09:00 AM","09:00 PM","10:00 AM","07:00 PM","11:00 AM","06:00 PM","NA","https://www.mystore411.com/store/view/24879291/Nordstrom-Washington"
"136","Nordstrom","Nordstrom in Friendship Heights","5333 Wisconsin Avenue","Friendship Heights",NA,"20015","NA","(202)697-4100","10:00 AM","09:00 PM","10:00 AM","09:00 PM","10:00 AM","09:00 PM","10:00 AM","09:00 PM","10:00 AM","09:00 PM","10:00 AM","09:00 PM","11:00 AM","06:00 PM","NA","https://www.mystore411.com/store/view/24879290/Nordstrom-Friendship-Heights"
"137","Nordstrom","Nordstrom in Spokane","4750 North Division","Spokane","WA","99207","NA","(509) 484-2233","10:00 AM","09:30 PM","10:00 AM","09:30 PM","10:00 AM","09:30 PM","10:00 AM","09:30 PM","10:00 AM","09:30 PM","10:00 AM","09:30 PM","10:00 AM","07:00 PM","NA","https://www.mystore411.com/store/view/520075/Nordstrom-Spokane"
"138","Nordstrom","Nordstrom in Lynnwood","19500 Alderwood Mall Parkway","Lynnwood","WA","98036","NA","(425) 774-6569","10:00 AM","09:30 PM","10:00 AM","09:30 PM","10:00 AM","09:30 PM","10:00 AM","09:30 PM","10:00 AM","09:30 PM","10:00 AM","09:30 PM","11:00 AM","07:00 PM","NA","https://www.mystore411.com/store/view/520081/Nordstrom-Lynnwood"
"139","Nordstrom","Nordstrom in Lynnwood","3200 184th Street SW","Lynnwood","WA","98037","NA","(425) 771-5755","10:00 AM","09:00 PM","10:00 AM","09:00 PM","10:00 AM","09:00 PM","10:00 AM","09:00 PM","10:00 AM","09:00 PM","10:00 AM","09:00 PM","11:00 AM","07:00 PM","NA","https://www.mystore411.com/store/view/520076/Nordstrom-Lynnwood"
"140","Nordstrom","Nordstrom in Bellevue","3920 124th Street SE","Bellevue","WA","98006","NA","(425) 746-7200","10:00 AM","09:30 PM","10:00 AM","09:30 PM","10:00 AM","09:30 PM","10:00 AM","09:30 PM","10:00 AM","09:30 PM","10:00 AM","09:30 PM","11:00 AM","07:00 PM","NA","https://www.mystore411.com/store/view/520080/Nordstrom-Bellevue"
"141","Nordstrom","Nordstrom in Bellevue","100 Bellevue Square","Bellevue","WA","98004","NA","(425) 455-5800","09:30 AM","09:30 PM","09:30 AM","09:30 PM","09:30 AM","09:30 PM","09:30 AM","09:30 PM","09:30 AM","09:30 PM","09:30 AM","09:30 PM","11:00 AM","07:00 PM","NA","https://www.mystore411.com/store/view/520195/Nordstrom-Bellevue"
"142","Nordstrom","Nordstrom in Auburn","1101 SuperMall Way","Auburn","WA","98001","NA","(253) 833-8824","10:00 AM","09:30 PM","10:00 AM","09:30 PM","10:00 AM","09:30 PM","10:00 AM","09:30 PM","10:00 AM","09:30 PM","10:00 AM","09:30 PM","11:00 AM","07:00 PM","NA","https://www.mystore411.com/store/view/520083/Nordstrom-Auburn"
"143","Nordstrom","Nordstrom in Seattle","1601 Second Avenue","Seattle","WA","98101","NA","(206) 448-8522","09:30 AM","09:00 PM","09:30 AM","09:00 PM","09:30 AM","09:00 PM","09:30 AM","09:00 PM","09:30 AM","09:00 PM","09:30 AM","09:00 PM","10:00 AM","07:00 PM","NA","https://www.mystore411.com/store/view/520082/Nordstrom-Seattle"
"144","Nordstrom","Nordstrom in Seattle","401 NE Northgate Way","Seattle","WA","98125","NA","(206) 364-8800","10:00 AM","09:00 PM","10:00 AM","09:00 PM","10:00 AM","09:00 PM","10:00 AM","09:00 PM","10:00 AM","09:00 PM","10:00 AM","09:00 PM","11:00 AM","07:00 PM","NA","https://www.mystore411.com/store/view/520123/Nordstrom-Seattle"
"145","Nordstrom","Nordstrom in Seattle","500 Pine Street","Seattle","WA","98101","NA","(206) 628-2111","09:30 AM","09:00 PM","09:30 AM","09:00 PM","09:30 AM","09:00 PM","09:30 AM","09:00 PM","09:30 AM","09:00 PM","09:30 AM","09:00 PM","10:00 AM","07:00 PM","NA","https://www.mystore411.com/store/view/520084/Nordstrom-Seattle"
"146","Nordstrom","Nordstrom in San Diego","1640 Camino Del Rio North","San Diego","CA","92108","NA","(619) 296-0143","10:00 AM","09:00 PM","10:00 AM","09:00 PM","10:00 AM","09:00 PM","10:00 AM","09:00 PM","10:00 AM","09:00 PM","10:00 AM","09:00 PM","11:00 AM","08:00 PM","NA","https://www.mystore411.com/store/view/520165/Nordstrom-San-Diego"
"147","Nordstrom","Nordstrom in San Diego","103 Horton Plaza","San Diego","CA","92101","NA","(619) 239-1700","10:00 AM","09:00 PM","10:00 AM","09:00 PM","10:00 AM","09:00 PM","10:00 AM","09:00 PM","10:00 AM","09:00 PM","10:00 AM","08:00 PM","11:00 AM","07:00 PM","NA","https://www.mystore411.com/store/view/520158/Nordstrom-San-Diego"
"148","Nordstrom","Nordstrom in San Diego","6997 Friars Road","San Diego","CA","92108","NA","(619) 295-4441","10:00 AM","09:00 PM","10:00 AM","09:00 PM","10:00 AM","09:00 PM","10:00 AM","09:00 PM","10:00 AM","09:00 PM","10:00 AM","09:00 PM","11:00 AM","07:00 PM","NA","https://www.mystore411.com/store/view/520156/Nordstrom-San-Diego"
"149","Nordstrom","Nordstrom in Los Angeles","189 The Grove Drive","Los Angeles","CA","90036","NA","(323) 930-2230","10:00 AM","09:00 PM","10:00 AM","09:00 PM","10:00 AM","09:00 PM","10:00 AM","09:00 PM","10:00 AM","10:00 PM","10:00 AM","10:00 PM","11:00 AM","08:00 PM","NA","https://www.mystore411.com/store/view/520148/Nordstrom-Los-Angeles"
"150","Nordstrom","Nordstrom in Los Angeles","6081 Center Drive","Los Angeles","CA","90045","NA","(310) 641-4046","10:00 AM","09:00 PM","10:00 AM","09:00 PM","10:00 AM","09:00 PM","10:00 AM","09:00 PM","10:00 AM","09:00 PM","10:00 AM","09:00 PM","11:00 AM","08:00 PM","NA","https://www.mystore411.com/store/view/520146/Nordstrom-Los-Angeles"
"151","Nordstrom","Nordstrom in Los Angeles","100 North La Cienega Boulevard","Los Angeles","CA","90048","NA","(323) 602-0282","10:00 AM","09:30 PM","10:00 AM","09:30 PM","10:00 AM","09:30 PM","10:00 AM","09:30 PM","10:00 AM","09:30 PM","10:00 AM","09:30 PM","11:00 AM","08:00 PM","NA","https://www.mystore411.com/store/view/520151/Nordstrom-Los-Angeles"
"152","Nordstrom","Nordstrom in Annapolis","1880 Annapolis Mall","Annapolis","MD","21401","NA","(410) 573-1121","10:00 AM","09:30 PM","10:00 AM","09:30 PM","10:00 AM","09:30 PM","10:00 AM","09:30 PM","10:00 AM","09:30 PM","10:00 AM","09:30 PM","11:00 AM","07:00 PM","NA","https://www.mystore411.com/store/view/520220/Nordstrom-Annapolis"
"153","Nordstrom","Nordstrom in Overland Park","11143 West 95th Street","Overland Park","KS","66214","NA","(913) 492-8111","10:00 AM","09:00 PM","10:00 AM","09:00 PM","10:00 AM","09:00 PM","10:00 AM","09:00 PM","10:00 AM","09:00 PM","10:00 AM","09:00 PM","11:00 AM","06:00 PM","NA","https://www.mystore411.com/store/view/520098/Nordstrom-Overland-Park"
"154","Nordstrom","Nordstrom in Columbia","10300 Little Patuxent Parkway","Columbia","MD","21044","NA","(410) 715-2222","10:00 AM","09:30 PM","10:00 AM","09:30 PM","10:00 AM","09:30 PM","10:00 AM","09:30 PM","10:00 AM","09:30 PM","10:00 AM","09:30 PM","11:00 AM","06:00 PM","NA","https://www.mystore411.com/store/view/520224/Nordstrom-Columbia"
"155","Nordstrom","Nordstrom in Farmington","600 Westfarms Mall","Farmington","CT","06032","NA","(860) 521-9090","10:00 AM","09:30 PM","10:00 AM","09:30 PM","10:00 AM","09:30 PM","10:00 AM","09:30 PM","10:00 AM","09:30 PM","10:00 AM","09:30 PM","11:00 AM","07:00 PM","NA","https://www.mystore411.com/store/view/520203/Nordstrom-Farmington"
"156","Nordstrom","Nordstrom in Anchorage","603 D Street","Anchorage","AK","99501","NA","(907) 279-7622","10:00 AM","09:00 PM","10:00 AM","09:00 PM","10:00 AM","09:00 PM","10:00 AM","09:00 PM","10:00 AM","09:00 PM","10:00 AM","09:00 PM","11:00 AM","06:00 PM","NA","https://www.mystore411.com/store/view/520077/Nordstrom-Anchorage"
"157","Nordstrom","Nordstrom in Lenexa","9540 Quivira Road","Lenexa","KS","66215","NA","(913)553-6242","10:00 AM","09:00 PM","10:00 AM","09:00 PM","10:00 AM","09:00 PM","10:00 AM","09:00 PM","10:00 AM","09:00 PM","10:00 AM","09:00 PM","11:00 AM","06:00 PM","NA","https://www.mystore411.com/store/view/24879257/Nordstrom-Lenexa"
"158","Nordstrom","Nordstrom in Bethesda","7111 Democracy Boulevard","Bethesda","MD","20817","NA","(301) 365-4111","10:00 AM","09:30 PM","10:00 AM","09:30 PM","10:00 AM","09:30 PM","10:00 AM","09:30 PM","10:00 AM","09:30 PM","10:00 AM","09:30 PM","11:00 AM","07:00 PM","NA","https://www.mystore411.com/store/view/520218/Nordstrom-Bethesda"
"159","Nordstrom","Nordstrom in Towson","700 Fairmount Avenue","Towson","MD","21286","NA","(410) 494-9111","10:00 AM","09:30 PM","10:00 AM","09:30 PM","10:00 AM","09:30 PM","10:00 AM","09:30 PM","10:00 AM","09:30 PM","10:00 AM","09:30 PM","11:00 AM","07:00 PM","NA","https://www.mystore411.com/store/view/520221/Nordstrom-Towson"
"160","Nordstrom","Nordstrom in Towson","700 Fairmount Avenue","Towson","MD","21286","NA","(410) 296-2111","10:00 AM","09:30 PM","10:00 AM","09:30 PM","10:00 AM","09:30 PM","10:00 AM","09:30 PM","10:00 AM","09:30 PM","10:00 AM","09:30 PM","11:00 AM","07:00 PM","NA","https://www.mystore411.com/store/view/520217/Nordstrom-Towson"
"161","Nordstrom","Nordstrom in Gaithersburg","15760 Shady Grove Road","Gaithersburg","MD","20877","NA","(301) 527-1133","10:00 AM","09:00 PM","10:00 AM","09:00 PM","10:00 AM","09:00 PM","10:00 AM","09:00 PM","10:00 AM","09:00 PM","10:00 AM","09:00 PM","11:00 AM","06:00 PM","NA","https://www.mystore411.com/store/view/520226/Nordstrom-Gaithersburg"
"162","Nordstrom","Nordstrom in Scottsdale","7055 East Camelback Road","Scottsdale","AZ","85251","NA","(480) 946-4111","10:00 AM","09:00 PM","10:00 AM","09:00 PM","10:00 AM","09:00 PM","10:00 AM","09:00 PM","10:00 AM","09:00 PM","10:00 AM","09:00 PM","11:00 AM","07:00 PM","NA","https://www.mystore411.com/store/view/520168/Nordstrom-Scottsdale"
"163","Nordstrom","Nordstrom in Troy","2850 West Big Beaver Road","Troy","MI","48084","NA","(248) 816-5100","10:00 AM","09:00 PM","10:00 AM","09:00 PM","10:00 AM","09:00 PM","10:00 AM","09:00 PM","10:00 AM","09:00 PM","10:00 AM","09:00 PM","12:00 PM","06:00 PM","NA","https://www.mystore411.com/store/view/520095/Nordstrom-Troy"
"164","Nordstrom","Nordstrom in Roseville","1196 Galleria Boulevard","Roseville","CA","95678","NA","(916) 788-7700","10:00 AM","09:00 PM","10:00 AM","09:00 PM","10:00 AM","09:00 PM","10:00 AM","09:00 PM","10:00 AM","09:00 PM","10:00 AM","09:00 PM","10:00 AM","07:00 PM","NA","https://www.mystore411.com/store/view/520189/Nordstrom-Roseville"
"165","Nordstrom","Nordstrom in Roseville","1131 Galleria Boulevard","Roseville","CA","95678","NA","(916) 780-7300","10:00 AM","09:00 PM","10:00 AM","09:00 PM","10:00 AM","09:00 PM","10:00 AM","09:00 PM","10:00 AM","09:00 PM","10:00 AM","09:00 PM","11:00 AM","07:00 PM","NA","https://www.mystore411.com/store/view/520188/Nordstrom-Roseville"
"166","Nordstrom","Nordstrom in Troy","822 East Big Beaver Road","Troy","MI","48083","NA","(248) 764-2121","10:00 AM","09:00 PM","10:00 AM","09:00 PM","10:00 AM","09:00 PM","10:00 AM","09:00 PM","10:00 AM","09:00 PM","10:00 AM","09:00 PM","11:00 AM","06:00 PM","NA","https://www.mystore411.com/store/view/520099/Nordstrom-Troy"
"167","Nordstrom","Nordstrom in Scottsdale","16245 North Scottsdale Road","Scottsdale","AZ","85254","NA","(480) 624-2200","10:00 AM","09:00 PM","10:00 AM","09:00 PM","10:00 AM","09:00 PM","10:00 AM","09:00 PM","10:00 AM","09:00 PM","10:00 AM","09:00 PM","11:00 AM","07:00 PM","NA","https://www.mystore411.com/store/view/520166/Nordstrom-Scottsdale"
"168","Nordstrom","Nordstrom in Novi","27640 Novi Road","Novi","MI","48377","NA","(248) 504-5700","10:00 AM","09:00 PM","10:00 AM","09:00 PM","10:00 AM","09:00 PM","10:00 AM","09:00 PM","10:00 AM","09:00 PM","10:00 AM","09:00 PM","11:00 AM","06:00 PM","NA","https://www.mystore411.com/store/view/520103/Nordstrom-Novi"
"169","Nordstrom","Nordstrom in Sacramento","2100 Arden Way","Sacramento","CA","95825","NA","(916) 646-0846","10:00 AM","09:00 PM","10:00 AM","09:00 PM","10:00 AM","09:00 PM","10:00 AM","09:00 PM","10:00 AM","09:00 PM","10:00 AM","09:00 PM","10:00 AM","07:00 PM","NA","https://www.mystore411.com/store/view/520187/Nordstrom-Sacramento"
"170","Nordstrom","Nordstrom in Sacramento","1651 Arden Way","Sacramento","CA","95815","NA","(916) 646-2400","10:00 AM","09:00 PM","10:00 AM","09:00 PM","10:00 AM","09:00 PM","10:00 AM","09:00 PM","10:00 AM","09:00 PM","10:00 AM","09:00 PM","11:00 AM","07:00 PM","NA","https://www.mystore411.com/store/view/520183/Nordstrom-Sacramento"
"171","Nordstrom","Nordstrom in Clinton Township","17310 Hall Road","Clinton Township","MI","48038","NA","(586) 203-4360","10:00 AM","09:00 PM","10:00 AM","09:00 PM","10:00 AM","09:00 PM","10:00 AM","09:00 PM","10:00 AM","09:00 PM","10:00 AM","09:00 PM","11:00 AM","06:00 PM","NA","https://www.mystore411.com/store/view/520104/Nordstrom-Clinton-Township"
"172","Nordstrom","Nordstrom in Lake Orion","4852 South Baldwin Road","Lake Orion","MI","48359","NA","(248)920-7000","10:00 AM","09:00 PM","10:00 AM","09:00 PM","10:00 AM","09:00 PM","10:00 AM","09:00 PM","10:00 AM","09:00 PM","10:00 AM","09:00 PM","11:00 AM","06:00 PM","NA","https://www.mystore411.com/store/view/24879254/Nordstrom-Lake-Orion"
"173","Nordstrom","Nordstrom in Ann Arbor","3547 Washtenaw Avenue","Ann Arbor","MI","48104","NA","(734)780-3232","10:00 AM","09:00 PM","10:00 AM","09:00 PM","10:00 AM","09:00 PM","10:00 AM","09:00 PM","10:00 AM","09:00 PM","10:00 AM","09:00 PM","11:00 AM","06:00 PM","NA","https://www.mystore411.com/store/view/24879255/Nordstrom-Ann-Arbor"
"174","Nordstrom","Nordstrom in Tucson","4320 North Oracle Road","Tucson","AZ","85705","NA","(520)333-2720","10:00 AM","09:00 PM","10:00 AM","09:00 PM","10:00 AM","09:00 PM","10:00 AM","09:00 PM","10:00 AM","09:00 PM","10:00 AM","09:00 PM","11:00 AM","07:00 PM","NA","https://www.mystore411.com/store/view/24879276/Nordstrom-Tucson"
"175","Nordstrom","Nordstrom in Peoria","7535 West Bell Road","Peoria","AZ","85382","NA","(623)240-2430","10:00 AM","09:00 PM","10:00 AM","09:00 PM","10:00 AM","09:00 PM","10:00 AM","09:00 PM","10:00 AM","09:00 PM","10:00 AM","09:00 PM","11:00 AM","07:00 PM","NA","https://www.mystore411.com/store/view/24879275/Nordstrom-Peoria"
"176","Nordstrom","Nordstrom in Phoenix","2073 East Camelback Road","Phoenix","AZ","85016","NA","(602)345-6880","10:00 AM","09:00 PM","10:00 AM","09:00 PM","10:00 AM","09:00 PM","10:00 AM","09:00 PM","10:00 AM","09:00 PM","10:00 AM","09:00 PM","11:00 AM","07:00 PM","NA","https://www.mystore411.com/store/view/24879274/Nordstrom-Phoenix"
"177","Nordstrom","Nordstrom in Lone Tree","8676 Park Meadows Center Drive","Lone Tree","CO","80124","NA","(303) 706-0035","10:00 AM","09:00 PM","10:00 AM","09:00 PM","10:00 AM","09:00 PM","10:00 AM","09:00 PM","10:00 AM","09:00 PM","10:00 AM","09:00 PM","10:00 AM","07:00 PM","NA","https://www.mystore411.com/store/view/520160/Nordstrom-Lone-Tree"
"178","Nordstrom","Nordstrom in Chicago","24 North State Street","Chicago","IL","60602","NA","(312) 377-5500","09:30 AM","09:00 PM","09:30 AM","09:00 PM","09:30 AM","09:00 PM","09:30 AM","09:00 PM","09:30 AM","09:00 PM","09:30 AM","09:00 PM","11:00 AM","07:00 PM","NA","https://www.mystore411.com/store/view/520120/Nordstrom-Chicago"
"179","Nordstrom","Nordstrom in Miami","3301 Coral Way","Miami","FL","33145","NA","(786) 662-6025","10:00 AM","09:00 PM","10:00 AM","09:00 PM","10:00 AM","09:00 PM","10:00 AM","09:00 PM","10:00 AM","09:00 PM","10:00 AM","09:00 PM","11:00 AM","07:00 PM","NA","https://www.mystore411.com/store/view/520267/Nordstrom-Miami"
"180","Nordstrom","Nordstrom in Miami","7239 N Kendall Drive","Miami","FL","33156","NA","(786) 709-4100","10:00 AM","09:30 PM","10:00 AM","09:30 PM","10:00 AM","09:30 PM","10:00 AM","09:30 PM","10:00 AM","09:30 PM","10:00 AM","09:30 PM","12:00 PM","07:00 PM","NA","https://www.mystore411.com/store/view/520260/Nordstrom-Miami"
"181","Nordstrom","Nordstrom in Chicago","101 East Chicago Avenue","Chicago","IL","60611","NA","(312)254-3660","10:00 AM","09:00 PM","10:00 AM","09:00 PM","10:00 AM","09:00 PM","10:00 AM","09:00 PM","10:00 AM","09:00 PM","10:00 AM","09:00 PM","11:00 AM","07:00 PM","NA","https://www.mystore411.com/store/view/24879251/Nordstrom-Chicago"
"182","Nordstrom","Nordstrom in Indianapolis","4036 East 82nd Street","Indianapolis","IN","46250","NA","(317)572-2955","10:00 AM","09:00 PM","10:00 AM","09:00 PM","10:00 AM","09:00 PM","10:00 AM","09:00 PM","10:00 AM","09:00 PM","10:00 AM","09:00 PM","11:00 AM","07:00 PM","NA","https://www.mystore411.com/store/view/24879252/Nordstrom-Indianapolis"
"183","Nordstrom","Nordstrom in Buford","3333 Buford Drive","Buford","GA","30519","NA","(678) 546-1122","10:00 AM","09:00 PM","10:00 AM","09:00 PM","10:00 AM","09:00 PM","10:00 AM","09:00 PM","10:00 AM","09:00 PM","10:00 AM","09:00 PM","12:00 PM","06:00 PM","NA","https://www.mystore411.com/store/view/520253/Nordstrom-Buford"
"184","Nordstrom","Nordstrom in Buford","3205 Woodward Crossing Boulevard","Buford","GA","30519","NA","(678) 482-0123","10:00 AM","09:00 PM","10:00 AM","09:00 PM","10:00 AM","09:00 PM","10:00 AM","09:00 PM","10:00 AM","09:00 PM","10:00 AM","09:00 PM","12:00 PM","06:00 PM","NA","https://www.mystore411.com/store/view/520256/Nordstrom-Buford"
"185","Nordstrom","Nordstrom in Indianapolis","8702 Keystone Crossing","Indianapolis","IN","46240","NA","(317) 810-9809","10:00 AM","09:00 PM","10:00 AM","09:00 PM","10:00 AM","09:00 PM","10:00 AM","09:00 PM","10:00 AM","09:00 PM","10:00 AM","09:00 PM","12:00 PM","06:00 PM","NA","https://www.mystore411.com/store/view/520106/Nordstrom-Indianapolis"
"186","Nordstrom","Nordstrom in Chicago","55 East Grand Avenue","Chicago","IL","60611","NA","(312) 464-1515","10:00 AM","08:00 PM","10:00 AM","08:00 PM","10:00 AM","08:00 PM","10:00 AM","08:00 PM","10:00 AM","08:00 PM","10:00 AM","08:00 PM","11:00 AM","06:00 PM","NA","https://www.mystore411.com/store/view/520087/Nordstrom-Chicago"
"187","Nordstrom","Nordstrom in Chandler","3199 West Chandler Boulevard","Chandler","AZ","85226","NA","(480) 855-2500","10:00 AM","09:00 PM","10:00 AM","09:00 PM","10:00 AM","09:00 PM","10:00 AM","09:00 PM","10:00 AM","09:00 PM","10:00 AM","09:00 PM","11:00 AM","06:00 PM","NA","https://www.mystore411.com/store/view/520169/Nordstrom-Chandler"
"188","Nordstrom","Nordstrom in Denver","2810 East First Avenue","Denver","CO","80206","NA","(720) 746-2424","10:00 AM","09:00 PM","10:00 AM","09:00 PM","10:00 AM","09:00 PM","10:00 AM","09:00 PM","10:00 AM","09:00 PM","10:00 AM","09:00 PM","11:00 AM","06:00 PM","NA","https://www.mystore411.com/store/view/520167/Nordstrom-Denver"
"189","Nordstrom","Nordstrom in Oak Brook","2155 West 22nd Street","Oak Brook","IL","60523","NA","(630) 572-1212","10:00 AM","09:00 PM","10:00 AM","09:00 PM","10:00 AM","09:00 PM","10:00 AM","09:00 PM","10:00 AM","09:00 PM","10:00 AM","09:00 PM","11:00 AM","07:00 PM","NA","https://www.mystore411.com/store/view/520117/Nordstrom-Oak-Brook"
"190","Nordstrom","Nordstrom in Aventura","19507 Biscayne Boulevard","Aventura","FL","33180","NA","(305) 356-6900","10:00 AM","09:30 PM","10:00 AM","09:30 PM","10:00 AM","09:30 PM","10:00 AM","09:30 PM","10:00 AM","09:30 PM","10:00 AM","09:30 PM","12:00 PM","08:00 PM","NA","https://www.mystore411.com/store/view/520265/Nordstrom-Aventura"
"191","Nordstrom","Nordstrom in Kendall","8525 Mills Drive","Kendall","FL","33183","NA","(786) 972-3450","10:00 AM","09:00 PM","10:00 AM","09:00 PM","10:00 AM","09:00 PM","10:00 AM","09:00 PM","10:00 AM","09:00 PM","10:00 AM","09:00 PM","11:00 AM","07:00 PM","NA","https://www.mystore411.com/store/view/520269/Nordstrom-Kendall"
"192","Nordstrom","Nordstrom in Coral Gables","4310 Ponce de Leon Boulevard","Coral Gables","FL","33146","NA","(786) 999-1313","10:00 AM","09:30 PM","10:00 AM","09:30 PM","10:00 AM","09:30 PM","10:00 AM","09:30 PM","10:00 AM","09:30 PM","10:00 AM","09:30 PM","12:00 PM","08:00 PM","NA","https://www.mystore411.com/store/view/520255/Nordstrom-Coral-Gables"
"193","Nordstrom","Nordstrom in Oak Brook","10 Oak Brook Center","Oak Brook","IL","60523","NA","(630) 571-2121","10:00 AM","09:00 PM","10:00 AM","09:00 PM","10:00 AM","09:00 PM","10:00 AM","09:00 PM","10:00 AM","09:00 PM","10:00 AM","09:00 PM","11:00 AM","06:00 PM","NA","https://www.mystore411.com/store/view/520088/Nordstrom-Oak-Brook"
"194","Nordstrom","Nordstrom in Skokie","4937 Old Orchard Center","Skokie","IL","60077","NA","(847) 677-2121","10:00 AM","08:00 PM","10:00 AM","08:00 PM","10:00 AM","08:00 PM","10:00 AM","08:00 PM","10:00 AM","09:00 PM","10:00 AM","09:00 PM","11:00 AM","06:00 PM","NA","https://www.mystore411.com/store/view/520090/Nordstrom-Skokie"
"195","Nordstrom","Nordstrom in Atlanta","4390 Ashford Dunwoody Road Northeast","Atlanta","GA","30346","NA","(770) 394-1141","10:00 AM","09:00 PM","10:00 AM","09:00 PM","10:00 AM","09:00 PM","10:00 AM","09:00 PM","10:00 AM","09:30 PM","10:00 AM","09:30 PM","12:00 PM","06:30 PM","NA","https://www.mystore411.com/store/view/520252/Nordstrom-Atlanta"
"196","Nordstrom","Nordstrom in Alpharetta","6200 N. Point Parkway","Alpharetta","GA","30022","NA","(678)281-6660","10:00 AM","09:00 PM","10:00 AM","09:00 PM","10:00 AM","09:00 PM","10:00 AM","09:00 PM","10:00 AM","09:00 PM","10:00 AM","09:00 PM","11:00 AM","08:00 PM","NA","https://www.mystore411.com/store/view/24879301/Nordstrom-Alpharetta"
"197","Nordstrom","Nordstrom in Dunwoody","1201 Hammond Drive NE","Dunwoody","GA","30346","NA","(678)405-7830","10:00 AM","09:00 PM","10:00 AM","09:00 PM","10:00 AM","09:00 PM","10:00 AM","09:00 PM","10:00 AM","09:00 PM","10:00 AM","09:00 PM","11:00 AM","07:00 PM","NA","https://www.mystore411.com/store/view/24879300/Nordstrom-Dunwoody"
"198","Nordstrom","Nordstrom in Denver","1505 South Colorado Boulevard","Denver","CO","80222","NA","(303) 305-4380","10:00 AM","09:00 PM","10:00 AM","09:00 PM","10:00 AM","09:00 PM","10:00 AM","09:00 PM","10:00 AM","09:00 PM","10:00 AM","09:00 PM","11:00 AM","07:00 PM","NA","https://www.mystore411.com/store/view/520079/Nordstrom-Denver"
"199","Nordstrom","Nordstrom in Chandler","2620 West Chandler Boulevard","Chandler","AZ","85224","NA","(480) 722-2000","09:30 AM","09:00 PM","09:30 AM","09:00 PM","09:30 AM","09:00 PM","09:30 AM","09:00 PM","09:30 AM","09:00 PM","09:30 AM","09:00 PM","10:00 AM","07:00 PM","NA","https://www.mystore411.com/store/view/520164/Nordstrom-Chandler"
"200","Nordstrom","Nordstrom in Lone Tree","8465 Park Meadows Center Drive","Lone Tree","CO","80124","NA","(303) 799-3400","10:00 AM","09:00 PM","10:00 AM","09:00 PM","10:00 AM","09:00 PM","10:00 AM","09:00 PM","10:00 AM","09:00 PM","10:00 AM","09:00 PM","11:00 AM","06:00 PM","NA","https://www.mystore411.com/store/view/520149/Nordstrom-Lone-Tree"
"201","Nordstrom","Nordstrom in Phoenix","1919 East Camelback Road","Phoenix","AZ","85016","NA","(602) 248-2843","10:00 AM","09:00 PM","10:00 AM","09:00 PM","10:00 AM","09:00 PM","10:00 AM","09:00 PM","10:00 AM","09:00 PM","10:00 AM","09:00 PM","11:00 AM","07:00 PM","NA","https://www.mystore411.com/store/view/520261/Nordstrom-Phoenix"
"202","Nordstrom","Nordstrom in Lakewood","393 South Vance Street","Lakewood","CO","80226","NA","(720)389-3420","10:00 AM","09:00 PM","10:00 AM","09:00 PM","10:00 AM","09:00 PM","10:00 AM","09:00 PM","10:00 AM","09:00 PM","10:00 AM","09:00 PM","11:00 AM","07:00 PM","NA","https://www.mystore411.com/store/view/24879249/Nordstrom-Lakewood"
"203","Nordstrom","Nordstrom in Orland Park","140 Orland Park Place","Orland Park","IL","60462","NA","(708) 428-2600","09:30 AM","09:00 PM","09:30 AM","09:00 PM","09:30 AM","09:00 PM","09:30 AM","09:00 PM","09:30 AM","09:00 PM","09:30 AM","09:00 PM","11:00 AM","07:00 PM","NA","https://www.mystore411.com/store/view/520110/Nordstrom-Orland-Park"
"204","Nordstrom","Nordstrom in Sunrise","2604 Sawgrass Mills Circle","Sunrise","FL","33323","NA","(954) 331-3960","10:00 AM","09:00 PM","10:00 AM","09:00 PM","10:00 AM","09:00 PM","10:00 AM","09:00 PM","10:00 AM","09:30 PM","10:00 AM","09:30 PM","11:00 AM","08:00 PM","NA","https://www.mystore411.com/store/view/520262/Nordstrom-Sunrise"
"205","Nordstrom","Nordstrom in Naples","9100 Strada Place","Naples","FL","34108","NA","(239)449-7444","10:00 AM","09:00 PM","10:00 AM","09:00 PM","10:00 AM","09:00 PM","10:00 AM","09:00 PM","10:00 AM","09:00 PM","10:00 AM","09:00 PM","12:00 PM","06:00 PM","NA","https://www.mystore411.com/store/view/24879306/Nordstrom-Naples"
"206","Nordstrom","Nordstrom in Northbrook","199 Skokie Boulevard","Northbrook","IL","60062","NA","(847) 205-0890","09:30 AM","09:00 PM","09:30 AM","09:00 PM","09:30 AM","09:00 PM","09:30 AM","09:00 PM","09:30 AM","09:00 PM","09:30 AM","09:00 PM","10:30 AM","07:00 PM","NA","https://www.mystore411.com/store/view/520096/Nordstrom-Northbrook"
"207","Nordstrom","Nordstrom in Atlanta","3495 Buckhead Loop NE","Atlanta","GA","30326","NA","(404) 736-2230","10:00 AM","09:00 PM","10:00 AM","09:00 PM","10:00 AM","09:00 PM","10:00 AM","09:00 PM","10:00 AM","09:00 PM","10:00 AM","09:00 PM","11:00 AM","07:00 PM","NA","https://www.mystore411.com/store/view/520270/Nordstrom-Atlanta"
"208","Nordstrom","Nordstrom in Atlanta","3500 Peachtree Road NE","Atlanta","GA","30326","NA","(404) 442-3000","10:00 AM","09:00 PM","10:00 AM","09:00 PM","10:00 AM","09:00 PM","10:00 AM","09:00 PM","10:00 AM","09:00 PM","10:00 AM","09:00 PM","12:00 PM","06:30 PM","NA","https://www.mystore411.com/store/view/520263/Nordstrom-Atlanta"
"209","Nordstrom","Nordstrom in Schaumburg","1520 E. Golf Road","Schaumburg","IL","60173","NA","(847) 413-2121","10:00 AM","09:00 PM","10:00 AM","09:00 PM","10:00 AM","09:00 PM","10:00 AM","09:00 PM","10:00 AM","09:00 PM","10:00 AM","09:00 PM","11:00 AM","07:00 PM","NA","https://www.mystore411.com/store/view/520091/Nordstrom-Schaumburg"
"210","Nordstrom","Nordstrom in Schaumburg","6 Woodfield Shopping Center","Schaumburg","IL","60173","NA","(847) 605-2121","10:00 AM","09:00 PM","10:00 AM","09:00 PM","10:00 AM","09:00 PM","10:00 AM","09:00 PM","10:00 AM","09:00 PM","10:00 AM","09:00 PM","11:00 AM","06:00 PM","NA","https://www.mystore411.com/store/view/520092/Nordstrom-Schaumburg"
"211","Nordstrom","Nordstrom in Naperville","2511 West 75th Street","Naperville","IL","60540","NA","(630) 995-4040","10:00 AM","09:00 PM","10:00 AM","09:00 PM","10:00 AM","09:00 PM","10:00 AM","09:00 PM","10:00 AM","09:00 PM","10:00 AM","09:00 PM","11:00 AM","07:00 PM","NA","https://www.mystore411.com/store/view/520115/Nordstrom-Naperville"
"212","Nordstrom","Nordstrom in Broomfield","21 West Flatiron Crossing Drive","Broomfield","CO","80021","NA","(720) 887-0333","10:00 AM","09:00 PM","10:00 AM","09:00 PM","10:00 AM","09:00 PM","10:00 AM","09:00 PM","10:00 AM","09:00 PM","10:00 AM","09:00 PM","11:00 AM","06:00 PM","NA","https://www.mystore411.com/store/view/520155/Nordstrom-Broomfield"
"213","Nordstrom","Nordstrom in Boca Raton","5820 Glades Road","Boca Raton","FL","33431","NA","(561) 620-5555","10:00 AM","09:00 PM","10:00 AM","09:00 PM","10:00 AM","09:00 PM","10:00 AM","09:00 PM","10:00 AM","09:30 PM","10:00 AM","09:30 PM","11:30 AM","06:30 PM","NA","https://www.mystore411.com/store/view/520254/Nordstrom-Boca-Raton"
"214","Nordstrom","Nordstrom in Aventura","20669 Biscayne Boulevard","Aventura","FL","33180","NA","(305)384-4850","10:00 AM","09:00 PM","10:00 AM","09:00 PM","10:00 AM","09:00 PM","10:00 AM","09:00 PM","10:00 AM","09:00 PM","10:00 AM","09:00 PM","12:00 PM","08:00 PM","NA","https://www.mystore411.com/store/view/24879303/Nordstrom-Aventura"
"215","Nordstrom","Nordstrom in Boca Raton","1400 Glades Road","Boca Raton","FL","33431","NA","(561)287-4663","10:00 AM","09:00 PM","10:00 AM","09:00 PM","10:00 AM","09:00 PM","10:00 AM","09:00 PM","10:00 AM","09:00 PM","10:00 AM","09:00 PM","11:00 AM","07:00 PM","NA","https://www.mystore411.com/store/view/24879302/Nordstrom-Boca-Raton"
"216","Nordstrom","Nordstrom in Broomfield","130 East Flatiron Circle","Broomfield","CO","80021","NA","(720) 887-3588","10:00 AM","09:00 PM","10:00 AM","09:00 PM","10:00 AM","09:00 PM","10:00 AM","09:00 PM","10:00 AM","09:00 PM","10:00 AM","09:00 PM","11:00 AM","07:00 PM","NA","https://www.mystore411.com/store/view/520078/Nordstrom-Broomfield"
"217","Nordstrom","Nordstrom in Wellington","10320 West Forest Hill Boulevard","Wellington","FL","33414","NA","(561) 227-3000","10:00 AM","09:00 PM","10:00 AM","09:00 PM","10:00 AM","09:00 PM","10:00 AM","09:00 PM","10:00 AM","09:00 PM","10:00 AM","09:00 PM","12:00 PM","06:00 PM","NA","https://www.mystore411.com/store/view/520258/Nordstrom-Wellington"
"218","Nordstrom","Nordstrom in Naples","5489 Tamiami Trail North","Naples","FL","34108","NA","(239) 325-6100","10:00 AM","08:00 PM","10:00 AM","08:00 PM","10:00 AM","08:00 PM","10:00 AM","08:00 PM","10:00 AM","08:00 PM","10:00 AM","08:00 PM","11:00 AM","06:30 PM","NA","https://www.mystore411.com/store/view/520266/Nordstrom-Naples"
"219","Nordstrom","Nordstrom in Palm Beach Gardens","3111 PGA Boulevard","Palm Beach Gardens","FL","33410","NA","(561) 340-2100","10:00 AM","09:00 PM","10:00 AM","09:00 PM","10:00 AM","09:00 PM","10:00 AM","09:00 PM","10:00 AM","09:00 PM","10:00 AM","09:00 PM","12:00 PM","07:00 PM","NA","https://www.mystore411.com/store/view/520264/Nordstrom-Palm-Beach-Gardens"
"220","Nordstrom","Nordstrom in Honolulu","330 Kamakee Street","Honolulu","HI","96814","NA","(808) 589-2060","09:30 AM","09:00 PM","09:30 AM","09:00 PM","09:30 AM","09:00 PM","09:30 AM","09:00 PM","09:30 AM","10:00 PM","09:30 AM","10:00 PM","10:00 AM","07:00 PM","NA","https://www.mystore411.com/store/view/520194/Nordstrom-Honolulu"
"221","Nordstrom","Nordstrom in Orlando","4036 Eastgate Drive","Orlando","FL","32839","NA","(321) 558-3800","10:00 AM","09:00 PM","10:00 AM","09:00 PM","10:00 AM","09:00 PM","10:00 AM","09:00 PM","10:00 AM","09:00 PM","10:00 AM","09:00 PM","11:00 AM","07:00 PM","NA","https://www.mystore411.com/store/view/520268/Nordstrom-Orlando"
"222","Nordstrom","Nordstrom in Honolulu","1519 Kapiolani Boulevard","Honolulu","HI","96814","NA","(808) 953-6100","09:30 AM","09:00 PM","09:30 AM","09:00 PM","09:30 AM","09:00 PM","09:30 AM","09:00 PM","09:30 AM","09:00 PM","09:30 AM","09:00 PM","11:00 AM","07:00 PM","NA","https://www.mystore411.com/store/view/520234/Nordstrom-Honolulu"
"223","Nordstrom","Nordstrom in San Jose","2400 Forest Avenue","San Jose","CA","95128","NA","(408) 248-2180","10:00 AM","09:30 PM","10:00 AM","09:30 PM","10:00 AM","09:30 PM","10:00 AM","09:30 PM","10:00 AM","09:30 PM","10:00 AM","09:00 PM","11:00 AM","07:00 PM","NA","https://www.mystore411.com/store/view/520179/Nordstrom-San-Jose"
"224","Nordstrom","Nordstrom in San Jose","1600 Saratoga Avenue","San Jose","CA","95129","NA","(408) 374-4144","10:00 AM","09:00 PM","10:00 AM","09:00 PM","10:00 AM","09:00 PM","10:00 AM","09:00 PM","10:00 AM","09:00 PM","10:00 AM","09:00 PM","11:00 AM","07:00 PM","NA","https://www.mystore411.com/store/view/520186/Nordstrom-San-Jose"
"225","Nordstrom","Nordstrom in San Jose","925 Blossom Hill Road","San Jose","CA","95123","NA","(408) 600-3800","10:00 AM","09:30 PM","10:00 AM","09:30 PM","10:00 AM","09:30 PM","10:00 AM","09:30 PM","10:00 AM","10:00 PM","10:00 AM","10:00 PM","11:00 AM","07:30 PM","NA","https://www.mystore411.com/store/view/520193/Nordstrom-San-Jose"
"226","Nordstrom","Nordstrom in San Francisco","285 Winston Drive","San Francisco","CA","94132","NA","(415) 753-1344","10:00 AM","09:00 PM","10:00 AM","09:00 PM","10:00 AM","09:00 PM","10:00 AM","09:00 PM","10:00 AM","09:00 PM","10:00 AM","09:00 PM","11:00 AM","07:00 PM","NA","https://www.mystore411.com/store/view/520180/Nordstrom-San-Francisco"
"227","Nordstrom","Nordstrom in San Francisco","865 Market Street","San Francisco","CA","94103","NA","(415) 243-8500","10:00 AM","09:00 PM","10:00 AM","09:00 PM","10:00 AM","09:00 PM","10:00 AM","09:00 PM","10:00 AM","09:00 PM","10:00 AM","09:00 PM","10:00 AM","08:00 PM","NA","https://www.mystore411.com/store/view/520181/Nordstrom-San-Francisco"
"228","Nordstrom","Nordstrom in Grand Rapids","3665 28th Street S.E.","Grand Rapids","MI","49512","NA","(616) 575-2127","10:00 AM","09:00 PM","10:00 AM","09:00 PM","10:00 AM","09:00 PM","10:00 AM","09:00 PM","10:00 AM","09:00 PM","10:00 AM","09:00 PM","11:00 AM","06:00 PM","NA","https://www.mystore411.com/store/view/520119/Nordstrom-Grand-Rapids"
"229","Nordstrom","Nordstrom in San Francisco","555 Ninth Street","San Francisco","CA","94103","NA","(415) 934-1211","10:00 AM","09:00 PM","10:00 AM","09:00 PM","10:00 AM","09:00 PM","10:00 AM","09:00 PM","10:00 AM","09:00 PM","10:00 AM","09:00 PM","10:00 AM","07:00 PM","NA","https://www.mystore411.com/store/view/520192/Nordstrom-San-Francisco"
"230","Nordstrom","Nordstrom in San Diego","11940 Carmel Mountain Road","San Diego","CA","92128","NA","(858)312-7766","10:00 AM","09:00 PM","10:00 AM","09:00 PM","10:00 AM","09:00 PM","10:00 AM","09:00 PM","10:00 AM","09:00 PM","10:00 AM","09:00 PM","10:00 AM","08:00 PM","NA","https://www.mystore411.com/store/view/24879272/Nordstrom-San-Diego"
"231","Nordstrom","Nordstrom in San Mateo","130 Hillsdale Shopping Center","San Mateo","CA","94403","NA","(650) 570-5111","10:00 AM","09:00 PM","10:00 AM","09:00 PM","10:00 AM","09:00 PM","10:00 AM","09:00 PM","10:00 AM","09:00 PM","10:00 AM","09:00 PM","11:00 AM","07:00 PM","NA","https://www.mystore411.com/store/view/520175/Nordstrom-San-Mateo"
"232","Nordstrom","Nordstrom in Palo Alto","550 Stanford Shopping Center","Palo Alto","CA","94304","NA","(650) 323-5111","10:00 AM","09:00 PM","10:00 AM","09:00 PM","10:00 AM","09:00 PM","10:00 AM","09:00 PM","10:00 AM","09:00 PM","10:00 AM","09:00 PM","11:00 AM","07:00 PM","NA","https://www.mystore411.com/store/view/520177/Nordstrom-Palo-Alto"
"233","Nordstrom","Nordstrom in East Palo Alto","1771 East Bayshore Road","East Palo Alto","CA","94303","NA","(650) 798-2022","10:00 AM","09:00 PM","10:00 AM","09:00 PM","10:00 AM","09:00 PM","10:00 AM","09:00 PM","10:00 AM","09:00 PM","10:00 AM","09:00 PM","11:00 AM","07:00 PM","NA","https://www.mystore411.com/store/view/520191/Nordstrom-East-Palo-Alto"
"234","Nordstrom","Nordstrom in Jacksonville","4924 Big Island Drive","Jacksonville","FL","32246","NA","(904)328-2340","10:00 AM","09:00 PM","10:00 AM","09:00 PM","10:00 AM","09:00 PM","10:00 AM","09:00 PM","10:00 AM","09:00 PM","10:00 AM","09:00 PM","11:00 AM","06:00 PM","NA","https://www.mystore411.com/store/view/24879311/Nordstrom-Jacksonville"
"235","Nordstrom","Nordstrom in Bradenton","8551 Cooper Creek Boulevard","Bradenton","FL","34201","NA","(941)870-4200","10:00 AM","09:30 PM","10:00 AM","09:30 PM","10:00 AM","09:30 PM","10:00 AM","09:30 PM","10:00 AM","09:30 PM","10:00 AM","09:30 PM","11:00 AM","07:00 PM","NA","https://www.mystore411.com/store/view/24879305/Nordstrom-Bradenton"
"236","Nordstrom","Nordstrom in Tampa","1702 North Dale Mabry Highway","Tampa","FL","33607","NA","(813)422-7500","10:00 AM","09:00 PM","10:00 AM","09:00 PM","10:00 AM","09:00 PM","10:00 AM","09:00 PM","10:00 AM","09:00 PM","10:00 AM","09:00 PM","11:00 AM","06:00 PM","NA","https://www.mystore411.com/store/view/24879304/Nordstrom-Tampa"
"237","Nordstrom","Nordstrom in Fremont","43706 Christy Street","Fremont","CA","94538","NA","(510)580-7240","10:00 AM","09:00 PM","10:00 AM","09:00 PM","10:00 AM","09:00 PM","10:00 AM","09:00 PM","10:00 AM","09:00 PM","10:00 AM","09:00 PM","11:00 AM","07:00 PM","NA","https://www.mystore411.com/store/view/24879277/Nordstrom-Fremont"
"238","Nordstrom","Nordstrom in Corte Madera","1870 Redwood Highway","Corte Madera","CA","94925","NA","(415) 927-1690","10:00 AM","09:00 PM","10:00 AM","09:00 PM","10:00 AM","09:00 PM","10:00 AM","09:00 PM","10:00 AM","09:00 PM","10:00 AM","08:00 PM","11:00 AM","07:00 PM","NA","https://www.mystore411.com/store/view/520178/Nordstrom-Corte-Madera"
"239","Nordstrom","Nordstrom in San Leandro","1285 Marina Boulevard","San Leandro","CA","94577","NA","(510) 614-1742","10:00 AM","09:00 PM","10:00 AM","09:00 PM","10:00 AM","09:00 PM","10:00 AM","09:00 PM","10:00 AM","09:00 PM","10:00 AM","09:00 PM","11:00 AM","07:00 PM","NA","https://www.mystore411.com/store/view/520185/Nordstrom-San-Leandro"
"240","Nordstrom","Nordstrom in Colma","81 Colma Boulevard","Colma","CA","94014","NA","(650) 755-1444","10:00 AM","09:00 PM","10:00 AM","09:00 PM","10:00 AM","09:00 PM","10:00 AM","09:00 PM","10:00 AM","09:00 PM","10:00 AM","09:00 PM","11:00 AM","08:00 PM","NA","https://www.mystore411.com/store/view/520182/Nordstrom-Colma"
"241","Nordstrom","Nordstrom in Woodland Hills","21490 Victory Boulevard","Woodland Hills","CA","91367","NA","(818) 884-6771","10:00 AM","09:00 PM","10:00 AM","09:00 PM","10:00 AM","09:00 PM","10:00 AM","09:00 PM","10:00 AM","09:00 PM","10:00 AM","09:00 PM","11:00 AM","07:00 PM","NA","https://www.mystore411.com/store/view/520154/Nordstrom-Woodland-Hills"
"242","Nordstrom","Nordstrom in Walnut Creek","1200 Broadway Plaza","Walnut Creek","CA","94596","NA","(925) 930-7959","10:00 AM","09:00 PM","10:00 AM","09:00 PM","10:00 AM","09:00 PM","10:00 AM","09:00 PM","10:00 AM","09:00 PM","10:00 AM","08:00 PM","11:00 AM","07:00 PM","NA","https://www.mystore411.com/store/view/520176/Nordstrom-Walnut-Creek"
"243","Nordstrom","Nordstrom in Thousand Oaks","346 West Hillcrest Drive","Thousand Oaks","CA","91360","NA","(805) 418-4500","10:00 AM","09:00 PM","10:00 AM","09:00 PM","10:00 AM","09:00 PM","10:00 AM","09:00 PM","10:00 AM","09:00 PM","10:00 AM","09:00 PM","11:00 AM","07:00 PM","NA","https://www.mystore411.com/store/view/520147/Nordstrom-Thousand-Oaks"
"244","Nordstrom","Nordstrom in Ottawa","50 Rideau Street","Ottawa",NA,"K1N 9J7","NA","(613)567-7005","09:30 AM","09:00 PM","09:30 AM","09:00 PM","09:30 AM","09:00 PM","09:30 AM","09:00 PM","09:30 AM","09:00 PM","09:30 AM","06:00 PM","11:00 AM","05:00 PM","NA","https://www.mystore411.com/store/view/25054081/Canada/Nordstrom-Ottawa"
"245","Nordstrom","Nordstrom in Calgary","6455 Macleod Trail SW","Calgary",NA,"T2H 0K8","NA","(587)291-2000","09:30 AM","09:00 PM","09:30 AM","09:00 PM","09:30 AM","09:00 PM","09:30 AM","09:00 PM","09:30 AM","09:00 PM","09:30 AM","09:00 PM","11:00 AM","07:00 PM","NA","https://www.mystore411.com/store/view/25046566/Canada/Nordstrom-Calgary"
"246","Nordstrom","Nordstrom in Temecula","40450 Winchester Road","Temecula","CA","92591","NA","(951)514-4941","10:00 AM","09:00 PM","10:00 AM","09:00 PM","10:00 AM","09:00 PM","10:00 AM","09:00 PM","10:00 AM","09:00 PM","10:00 AM","09:00 PM","11:00 AM","07:00 PM","NA","https://www.mystore411.com/store/view/24879271/Nordstrom-Temecula"
"247","Nordstrom","Nordstrom in Santa Barbara","17 West Canon Perdido Street","Santa Barbara","CA","93101","NA","(805) 564-8770","10:00 AM","08:00 PM","10:00 AM","08:00 PM","10:00 AM","08:00 PM","10:00 AM","08:00 PM","10:00 AM","09:00 PM","10:00 AM","08:00 PM","11:00 AM","06:00 PM","NA","https://www.mystore411.com/store/view/520144/Nordstrom-Santa-Barbara"
"248","Nordstrom","Nordstrom in Pleasanton","1600 Stoneridge Mall Road","Pleasanton","CA","94588","NA","(925) 463-5050","10:00 AM","09:00 PM","10:00 AM","09:00 PM","10:00 AM","09:00 PM","10:00 AM","09:00 PM","10:00 AM","09:00 PM","10:00 AM","09:00 PM","11:00 AM","07:00 PM","NA","https://www.mystore411.com/store/view/520184/Nordstrom-Pleasanton"
"249","Nordstrom","Nordstrom in Pleasant Hill","703 Contra Costa Boulevard","Pleasant Hill","CA","94523","NA","(925)566-7700","10:00 AM","09:00 PM","10:00 AM","09:00 PM","10:00 AM","09:00 PM","10:00 AM","09:00 PM","10:00 AM","09:00 PM","10:00 AM","09:00 PM","11:00 AM","07:00 PM","NA","https://www.mystore411.com/store/view/24879278/Nordstrom-Pleasant-Hill"
"250","Nordstrom","Nordstrom in Oxnard","261 Esplanade Drive","Oxnard","CA","93030","NA","(805) 604-1122","10:00 AM","09:00 PM","10:00 AM","09:00 PM","10:00 AM","09:00 PM","10:00 AM","09:00 PM","10:00 AM","09:00 PM","10:00 AM","09:00 PM","11:00 AM","08:00 PM","NA","https://www.mystore411.com/store/view/520161/Nordstrom-Oxnard"
"251","Nordstrom","Nordstrom in National City","3010 Plaza Bonita Road Suite 2036","National City","CA","91950","NA","(619)765-3055","10:00 AM","09:00 PM","10:00 AM","09:00 PM","10:00 AM","09:00 PM","10:00 AM","09:00 PM","10:00 AM","09:00 PM","10:00 AM","09:00 PM","11:00 AM","07:00 PM","NA","https://www.mystore411.com/store/view/24879273/Nordstrom-National-City"
"252","Nordstrom","Nordstrom in Fresno","7883 North Blackstone Avenue","Fresno","CA","93720","NA","(559) 440-0111","10:00 AM","09:00 PM","10:00 AM","09:00 PM","10:00 AM","09:00 PM","10:00 AM","09:00 PM","10:00 AM","09:00 PM","10:00 AM","09:00 PM","11:00 AM","08:00 PM","NA","https://www.mystore411.com/store/view/520190/Nordstrom-Fresno"
"253","Nordstrom","Nordstrom in Canoga Park","21725 Victory Boulevard","Canoga Park","CA","91303","NA","(818) 884-7900","10:00 AM","09:00 PM","10:00 AM","09:00 PM","10:00 AM","09:00 PM","10:00 AM","09:00 PM","10:00 AM","09:00 PM","10:00 AM","09:00 PM","11:00 AM","07:00 PM","NA","https://www.mystore411.com/store/view/520141/Nordstrom-Canoga-Park"
"254","Nordstrom","Nordstrom in Burbank","1601 North Victory Place","Burbank","CA","91502","NA","(818)478-2930","10:00 AM","09:00 PM","10:00 AM","09:00 PM","10:00 AM","09:00 PM","10:00 AM","09:00 PM","10:00 AM","09:00 PM","10:00 AM","09:00 PM","11:00 AM","08:00 PM","NA","https://www.mystore411.com/store/view/24879270/Nordstrom-Burbank"
"255","Nordstrom","Nordstrom in Tampa","2223 North Westshore Boulevard","Tampa","FL","33607","NA","(813) 875-4400","10:00 AM","09:00 PM","10:00 AM","09:00 PM","10:00 AM","09:00 PM","10:00 AM","09:00 PM","10:00 AM","09:30 PM","10:00 AM","09:30 PM","11:00 AM","06:30 PM","NA","https://www.mystore411.com/store/view/520257/Nordstrom-Tampa"
